{"type":"Topology","arcs":[[[1455,1153],[82,-1],[59,-17],[69,-79],[14,-69],[28,-28],[8,-102],[-47,-77],[-76,-21]],[[1592,759],[-2,118],[-22,47],[-85,39],[-44,-18]],[[1439,945],[16,51],[0,157]],[[1429,1148],[-139,-139],[-17,-44]],[[1273,965],[-71,-2]],[[1202,963],[-53,171]],[[1149,1134],[50,65],[84,19],[36,-4],[110,-66]],[[1592,759],[-56,-6],[-71,20],[-45,-9]],[[1420,764],[-30,99],[16,54],[33,28]],[[1248,886],[39,58],[-14,21]],[[1429,1148],[26,5]],[[1420,764],[-75,-4],[-53,-59]],[[1292,701],[-46,146],[-12,17]],[[1234,864],[14,22]],[[1248,886],[-55,49]],[[1193,935],[9,28]],[[1193,935],[-38,-59]],[[1155,876],[-64,80],[-51,87]],[[1040,1043],[109,91]],[[1234,864],[-79,12]],[[1292,701],[-38,-56]],[[1254,645],[-129,165]],[[1125,810],[-45,59]],[[1080,869],[-162,137]],[[918,1006],[-10,8]],[[908,1014],[125,16],[7,13]],[[3737,1245],[23,94],[39,37],[108,32],[82,-13],[82,23],[63,-23],[35,-33],[52,-156],[97,37],[199,-13],[93,4],[48,-33],[27,-59],[-2,-169],[-8,-53],[-25,-43],[-46,-36],[-58,-12],[-70,19],[-97,-35],[-81,27],[-68,110],[-52,29],[-21,107],[-57,-35],[-91,-5],[-22,22],[-78,-17],[-52,9],[-89,86],[-31,56],[0,43]],[[7699,187],[18,69],[50,62],[70,30],[55,4],[77,-39],[32,-46],[25,-86],[-2,-46],[-36,-94],[-52,-36],[-100,-5],[-88,32],[-44,82],[-5,73]],[[0,10167],[10,47],[69,75],[97,19],[101,-16],[45,-27],[14,-33],[7,-155],[-55,-78],[-44,-12],[-131,4],[-59,20],[-35,30],[-19,48],[0,78]],[[1041,807],[39,62]],[[1125,810],[-54,-18]],[[1071,792],[-9,-3]],[[1062,789],[-21,18]],[[1062,789],[-12,-27]],[[1050,762],[-30,-14]],[[1020,748],[-21,53],[42,6]],[[1254,645],[-72,-54]],[[1182,591],[-78,162]],[[1104,753],[-33,39]],[[1104,753],[-54,9]],[[1182,591],[-85,-61],[-47,-10]],[[1050,520],[-27,208],[-9,13]],[[1014,741],[6,7]],[[977,744],[37,-3]],[[1050,520],[-81,18],[-54,41]],[[915,579],[10,151],[52,14]],[[977,744],[8,64],[-58,23],[-12,51],[3,124]],[[915,579],[-47,29],[-28,49],[-77,15],[-83,68],[-18,73],[41,84],[65,66],[89,49],[51,2]]],"transform":{"scale":[0.0003787153002741092,0.0003496445479239424],"translate":[-171.141181,-14.601339]},"objects":{"Tract_60_2020":{"type":"GeometryCollection","geometries":[{"arcs":[[[0,1,2]],[[3,4,5,6]]],"type":"MultiPolygon","properties":{"id":"14000US60010950100"}},{"arcs":[[-2,7,8]],"type":"Polygon","properties":{"id":"14000US60010950200"}},{"arcs":[[9,-4,10,-3,-9,11,12,13]],"type":"Polygon","properties":{"id":"14000US60010950300"}},{"arcs":[[-5,-10,14,15]],"type":"Polygon","properties":{"id":"14000US60010950500"}},{"arcs":[[-6,-16,16,17,18]],"type":"Polygon","properties":{"id":"14000US60010950600"}},{"arcs":[[-17,-15,-14,19]],"type":"Polygon","properties":{"id":"14000US60010950700"}},{"arcs":[[-18,-20,-13,20,21,22,23,24,25]],"type":"Polygon","properties":{"id":"14000US60010950900"}},{"arcs":[[26]],"type":"Polygon","properties":{"id":"14000US60020951800"}},{"arcs":[[27]],"type":"Polygon","properties":{"id":"14000US60030951900"}},{"arcs":[[28]],"type":"Polygon","properties":{"id":"14000US60040952000"}},{"arcs":[[29,-23,30,31,32]],"type":"Polygon","properties":{"id":"14000US60050951000"}},{"arcs":[[-33,33,34,35]],"type":"Polygon","properties":{"id":"14000US60050951100"}},{"arcs":[[-22,36,37,38,-31]],"type":"Polygon","properties":{"id":"14000US60050951201"}},{"arcs":[[-32,-39,39,-34]],"type":"Polygon","properties":{"id":"14000US60050951202"}},{"arcs":[[-35,-40,-38,40,41,42]],"type":"Polygon","properties":{"id":"14000US60050951203"}},{"arcs":[[43,-42,44,45]],"type":"Polygon","properties":{"id":"14000US60050951300"}},{"arcs":[[-24,-30,-36,-43,-44,46]],"type":"Polygon","properties":{"id":"14000US60050951500"}},{"arcs":[[-25,-47,-46,47]],"type":"Polygon","properties":{"id":"14000US60050951600"}}]}}}