{"type":"Topology","arcs":[[[2701,9769],[226,-115],[116,-58],[11,34],[-54,27],[18,51],[134,-64],[204,-106]],[[3356,9538],[19,-454],[6,-184],[485,-121],[266,-65]],[[4132,8714],[-272,-348],[-186,-251]],[[3674,8115],[-359,124],[-164,67],[-171,63],[-536,171],[-255,78]],[[2189,8618],[-22,51],[2,24],[15,24],[36,1],[28,13],[5,34],[26,47],[21,24],[79,49],[21,31],[58,34],[22,38],[1,48],[7,30],[-14,73],[14,27],[29,1],[22,8],[21,19],[28,43],[-12,31],[16,20],[35,22],[-37,12],[-48,6],[-16,-17],[-17,0],[-8,19],[10,42],[-2,43],[5,40],[-27,42],[2,16],[23,15],[19,26],[32,23],[-12,51],[2,19],[31,17],[26,-8],[-4,33],[11,34],[19,6],[31,-23],[18,13],[4,40],[12,10]],[[1971,6511],[219,455]],[[2190,6966],[52,82]],[[2242,7048],[55,-28],[173,-72],[330,-143],[50,-23],[185,-80]],[[3035,6702],[-157,-237],[-122,-189]],[[2756,6276],[-121,-179],[-104,41],[-62,29],[78,111],[-113,45],[-146,62],[-107,43]],[[2181,6428],[-210,83]],[[4311,11540],[42,37],[203,172],[8,10],[117,93]],[[4681,11852],[181,134]],[[4862,11986],[56,32],[565,-233]],[[5483,11785],[64,-368],[386,61],[9,-54],[204,32],[150,-78],[155,-272]],[[6451,11106],[-60,-9],[75,-318]],[[6466,10779],[-452,139],[-251,81],[-155,-390],[-94,-236],[-425,176],[-398,164]],[[4691,10713],[-338,128],[-346,107],[304,592]],[[3356,9538],[75,216],[182,524],[29,100]],[[3642,10378],[310,-144],[358,-178],[18,70],[107,-51]],[[4435,10075],[306,-145],[436,-207]],[[5177,9723],[-66,-172],[-242,-589],[-203,79]],[[4666,9041],[-393,150],[-141,-477]],[[2721,7656],[351,-110],[192,-73],[104,-33],[164,-44]],[[3532,7396],[-84,-68],[-206,-316],[-80,-125],[-127,-185]],[[2242,7048],[24,37],[145,187],[310,384]],[[2923,10693],[236,-105],[277,-118],[95,-40],[111,-52]],[[2701,9769],[25,20],[-23,46],[-3,19],[18,27],[57,29],[21,3],[-4,21],[-34,18],[20,26],[47,1],[19,40],[32,48],[-23,29],[4,20],[46,16],[26,-18],[38,10],[-1,20],[-68,37],[-1,19],[52,5],[20,26],[6,44],[-13,22],[-30,13],[-22,-16],[-5,-30],[-27,-5],[-27,36],[-2,25],[-14,44],[12,26],[1,37],[15,6],[30,32],[46,3],[19,53],[-21,8],[-26,28],[3,20],[-8,74],[17,42]],[[5771,3901],[38,-3],[29,-13],[29,11],[10,-25],[-38,-24],[5,-16]],[[5844,3831],[12,-37],[-16,-18],[-36,-24]],[[5804,3752],[-46,-5],[-57,-30]],[[5701,3717],[-10,41]],[[5691,3758],[-3,17],[31,14],[-11,18],[55,14],[9,14],[-7,39],[6,27]],[[5834,4439],[106,-199],[279,-195]],[[6219,4045],[-9,-25],[-24,-4],[7,-26],[-5,-25]],[[6188,3965],[-30,-32],[-22,-3]],[[6136,3930],[-27,16],[-18,-6],[-80,-45],[-36,-16],[-131,-48]],[[5771,3901],[-12,-2],[-37,-30],[-29,7],[-11,22],[-6,68],[-42,22],[-6,18],[23,91]],[[5651,4097],[20,16],[-3,21],[-33,36],[-26,41],[-36,9],[0,41],[-7,25],[-83,27],[-6,13]],[[5477,4326],[70,36],[261,127],[26,-50]],[[6257,4018],[129,166],[257,334]],[[6643,4518],[94,-67],[171,-119],[-22,-23],[-17,-2],[-12,-43],[-26,-2],[-33,-31],[-40,-45]],[[6758,4186],[-115,-242],[-128,-250]],[[6515,3694],[-106,73],[-221,154],[69,97]],[[6758,4186],[129,-28],[433,-98]],[[7320,4060],[-4,-6],[-73,-171],[-29,-60]],[[7214,3823],[-196,-414],[-12,2]],[[7006,3411],[-433,94]],[[6573,3505],[-126,25],[68,164]],[[6829,4761],[190,-132],[130,-94],[319,-225]],[[7468,4310],[-59,-62],[-5,-10]],[[7404,4238],[-27,-82],[-29,-54],[-28,-42]],[[6643,4518],[186,243]],[[5834,4439],[150,195],[193,256],[52,80],[-2,40],[12,19],[-14,34],[-5,31],[10,33],[0,45]],[[6230,5172],[316,-217],[141,-98],[142,-96]],[[6257,4018],[-38,27]],[[6856,6833],[3,-3]],[[6859,6830],[62,-357],[27,-8],[46,5],[27,-7],[13,-31],[7,-45],[-8,-30],[-32,-5],[-47,18],[-11,-7],[8,-46]],[[6951,6317],[-39,23],[-15,26],[-28,20],[-27,12],[-22,19],[-47,4],[-51,27],[-35,29],[-28,33],[-28,3],[-19,-26],[-57,-23],[-126,-71],[-24,-9],[-58,-11],[-46,-25],[-35,-3]],[[6266,6345],[5,38],[63,-9],[46,261],[-34,37],[-98,78]],[[6248,6750],[26,23],[41,8],[47,-15],[39,5],[39,-10],[31,7],[27,44],[14,13],[53,18],[13,-3],[14,-37],[15,-16],[30,4],[5,12],[4,62],[-5,38],[26,11],[43,2],[21,-6],[33,-26],[36,-48],[26,-10],[30,7]],[[8724,2470],[101,-21],[131,-30],[85,-17],[-3,-7],[60,-33],[12,16],[69,-3]],[[9179,2375],[-1,-25],[-31,-29],[-5,-26],[12,-58],[-12,-21],[11,-24]],[[9153,2192],[-32,-16],[-14,-28],[-27,-18]],[[9080,2130],[-13,2],[-44,-68],[-90,-115],[-42,-45]],[[8891,1904],[-73,7]],[[8818,1911],[-21,10],[-27,-4]],[[8770,1917],[-12,69],[44,15],[-22,147],[-40,222]],[[8740,2370],[-16,100]],[[8730,1443],[15,1],[188,34],[-6,141],[-21,189],[-6,95]],[[8900,1903],[198,9]],[[9098,1912],[79,4],[43,16]],[[9220,1932],[19,-164],[24,-138],[4,-93]],[[9267,1537],[18,-147]],[[9285,1390],[-85,-12],[-110,-65],[-102,-54],[-172,-32]],[[8816,1227],[-24,26],[8,24],[-33,28],[22,30],[-76,35],[40,47],[-23,26]],[[9547,2258],[87,14],[219,-40]],[[9853,2232],[93,-18],[-80,-92],[25,-5],[106,-33],[44,-41],[-8,-7],[77,-45],[33,-15]],[[10143,1976],[-23,-52],[-19,-28],[-42,-36]],[[10059,1860],[-32,9],[-93,18]],[[9934,1887],[-193,35]],[[9741,1922],[-142,37],[-88,29],[-76,20]],[[9435,2008],[112,250]],[[9179,2375],[-9,15],[1,42],[-13,29],[26,22],[40,47],[38,10],[12,12],[24,57]],[[9298,2609],[8,27],[18,24]],[[9324,2660],[159,-107],[60,-42],[-18,-32],[74,-53],[-25,-30],[27,-15],[-54,-123]],[[9435,2008],[-282,184]],[[10146,2794],[-2,36],[10,22]],[[10154,2852],[26,-44],[75,-16],[28,-31]],[[10283,2761],[-20,-19],[-63,-10],[-63,-49],[-41,-3]],[[10096,2680],[22,16],[4,25],[23,24],[11,23],[-10,26]],[[10096,2680],[-18,-6]],[[10078,2674],[-16,36]],[[10062,2710],[50,53],[34,31]],[[7214,3823],[4,-6],[48,-7],[66,-28],[-50,-78],[25,4],[21,-26],[5,-18],[42,-31],[-23,-28],[-6,-35],[38,-3],[532,-123]],[[7916,3444],[-116,-168],[100,-62],[-75,-102],[-89,75],[-101,-143],[95,-19],[-70,-127],[-6,2],[-56,-115]],[[7598,2785],[-56,13]],[[7542,2798],[-43,10]],[[7499,2808],[-114,28],[-360,78],[-124,30],[-112,25]],[[6789,2969],[91,177],[59,106],[67,159]],[[7598,2785],[267,-60],[197,-46]],[[8062,2679],[-106,-287]],[[7956,2392],[-32,-21],[-32,6],[-30,26],[-11,-2],[8,-42],[-37,-8],[-16,6],[-43,0],[-65,29],[-4,52],[-8,36],[37,27],[-23,5],[-35,18],[-22,24],[-18,31],[-19,12],[-18,35],[-28,14],[-14,25],[-11,74],[7,59]],[[9220,1932],[136,48]],[[9356,1980],[20,-19],[12,-32],[37,-22],[36,-36],[-1,-8],[34,-32],[-1,-26],[19,-47],[21,-3],[21,-25],[34,-20],[33,-13],[-7,-16],[21,-12]],[[9635,1669],[5,-26],[30,-55],[18,-4],[21,18],[7,-22],[27,-1],[54,-43],[11,-23],[-3,-43]],[[9805,1470],[-45,4],[-2,-30],[11,-13],[-8,-23]],[[9761,1408],[-23,39],[-38,38],[-52,10],[-17,15],[-34,12],[-47,-10]],[[9550,1512],[-71,0],[-83,13],[-48,-21],[-40,14],[-12,19],[-29,0]],[[6744,712],[72,64],[22,10],[51,10],[30,0],[91,-30],[45,-10],[31,9],[36,29],[119,23],[32,1],[51,-11],[34,19],[15,-14],[32,-14]],[[7405,798],[-210,-336]],[[7195,462],[-378,89],[7,14],[-17,28],[8,20],[-14,18]],[[6801,631],[-23,15],[-26,-15],[-10,15]],[[6742,646],[2,66]],[[7060,1746],[225,-51],[274,-61]],[[7559,1634],[2,-56]],[[7561,1578],[6,-63]],[[7567,1515],[-51,6],[-51,-7],[-41,-20],[-22,3],[-58,-14],[-77,-13]],[[7267,1470],[-18,-2],[-20,-22],[-37,4],[-61,-5]],[[7131,1445],[-3,1]],[[7128,1446],[-13,47],[-24,56],[4,12]],[[7095,1561],[5,16],[-11,35],[-21,11],[-28,32],[-36,10],[49,65],[7,16]],[[7567,1515],[37,-210],[19,-116]],[[7623,1189],[9,-51]],[[7632,1138],[-201,-31]],[[7431,1107],[-3,19],[-121,-18]],[[7307,1108],[-39,13],[-27,21],[3,15],[-19,26],[-13,70],[6,35],[21,29],[-4,17],[13,67],[19,56],[0,13]],[[7173,2377],[151,-39]],[[7324,2338],[-35,-99],[272,-73],[-2,-12],[105,4],[86,-29],[103,-22]],[[7853,2107],[-65,-176]],[[7788,1931],[-172,22],[-79,12],[10,-131],[12,-200]],[[7060,1746],[-16,4]],[[7044,1750],[62,250],[9,-2],[25,93],[-23,4],[18,57],[28,137],[10,88]],[[7131,1445],[12,-76],[-30,2],[-27,-14],[14,-25],[-40,-13],[-36,-23],[-62,-50],[-14,-35],[-20,-18],[-15,-26]],[[6913,1167],[-9,135]],[[6904,1302],[24,25],[51,35],[16,24],[48,49],[38,3],[28,13],[19,-5]],[[6763,747],[18,3],[3,21],[17,26],[22,8],[16,23],[-5,16],[20,37],[-10,15],[14,24],[-28,14]],[[6830,934],[11,22],[-7,29],[8,38],[-16,19],[95,13]],[[6921,1055],[386,53]],[[7431,1107],[31,-190],[-21,-51],[-31,-57]],[[7410,809],[-5,-11]],[[6744,712],[19,35]],[[7095,1561],[-21,-6],[-21,-30],[-47,-15],[-48,-64],[-33,24],[-40,12]],[[6885,1482],[-43,312]],[[6842,1794],[202,-44]],[[7324,2338],[38,104],[137,366]],[[7956,2392],[-3,-16]],[[7953,2376],[-11,-21],[-89,-248]],[[8891,1904],[9,-1]],[[8730,1443],[-35,14],[-29,-12]],[[8666,1445],[-15,120],[-16,69],[-29,156],[143,84],[50,24],[19,13]],[[7416,798],[50,-6],[60,-15],[30,1],[29,21],[58,-14],[52,-16],[41,0],[43,-7],[37,5]],[[7816,767],[-59,-70]],[[7757,697],[-39,8],[-41,-10],[-21,-30]],[[7656,665],[-37,-13],[-17,-13],[-97,-17]],[[7505,622],[-34,64],[-9,36],[-46,76]],[[6904,1302],[-7,66]],[[6897,1368],[-12,114]],[[6921,1055],[-8,112]],[[6590,2521],[295,-73],[288,-71]],[[6842,1794],[-172,39]],[[6670,1833],[-21,117],[-63,328]],[[6586,2278],[-2,11]],[[6584,2289],[-23,56],[-7,61],[-30,116],[60,-13],[6,12]],[[6590,2521],[101,226],[98,222]],[[7788,1931],[169,-5]],[[7957,1926],[12,-371],[6,-85]],[[7975,1470],[-103,11]],[[7872,1481],[-178,73],[0,12],[-133,12]],[[9123,2870],[54,11],[234,-45],[3,-6],[92,-20]],[[9506,2810],[-101,-93],[-29,-21]],[[9376,2696],[-101,6],[-35,35],[-23,14],[-14,27],[-22,-1],[-11,15],[-41,-11],[-35,-20],[-20,1]],[[9074,2762],[-10,10],[8,28],[38,39],[13,31]],[[880,5176],[26,-6],[45,-59],[77,-15],[40,-2],[45,-10],[34,-13],[5,-26],[-3,-26],[19,-34],[28,-13]],[[1196,4972],[8,-18],[-13,-94],[-2,-52],[18,-23],[-27,-71],[-11,-85],[-23,-27]],[[1146,4602],[14,73],[-309,20]],[[851,4695],[32,62],[37,38],[25,36],[-17,14],[-58,-2],[-24,20],[-30,13],[-15,27],[3,31],[-7,35],[4,39],[27,45],[39,38],[2,36],[11,49]],[[910,5364],[25,-3],[371,-19],[38,-3],[133,-5],[148,-7]],[[1625,5327],[3,-328],[2,-85]],[[1630,4914],[-91,-24],[-34,-1],[-58,14],[-15,-4],[-28,-24],[-27,-2],[-56,40],[-40,60],[-22,3],[-24,-22],[-13,14],[-26,4]],[[880,5176],[8,58],[0,30],[22,100]],[[7957,1926],[183,-5],[140,1]],[[8280,1922],[-10,-117],[-10,-340],[-60,-11]],[[8200,1454],[-146,8],[-79,8]],[[7953,2376],[395,-2]],[[8348,2374],[-38,-371],[-6,-81]],[[8304,1922],[-24,0]],[[7404,4238],[186,-151],[46,-33],[182,-153],[229,-188]],[[8047,3713],[32,-26]],[[8079,3687],[-115,-173],[-48,-70]],[[8079,3687],[48,-36],[524,-419]],[[8651,3232],[-100,-156],[-161,-256]],[[8390,2820],[-277,-3],[-51,-138]],[[8390,2820],[341,2]],[[8731,2822],[-4,-215]],[[8727,2607],[-3,-137]],[[8740,2370],[-392,4]],[[8770,1917],[-107,4],[-359,1]],[[3236,12015],[325,-152],[367,-166],[136,-54],[247,-103]],[[4691,10713],[-256,-638]],[[2923,10693],[-23,17],[11,25],[-25,-1],[-15,29],[-15,9],[-25,66],[-9,33],[-13,28],[-33,40],[9,60],[22,17],[15,44],[-12,29],[26,22],[15,37],[-7,37],[6,35],[17,54],[10,21],[-9,41],[-29,32],[-28,62],[-8,45],[13,33],[-5,22],[-42,-13],[-8,19],[24,63],[32,52],[29,28],[40,12],[14,25],[38,15],[25,35],[1,60],[7,36],[-13,20],[5,18],[22,14],[55,-16],[60,17],[111,53],[12,10],[13,37]],[[3532,7396],[495,-137],[-10,-7],[-43,-62],[145,-76],[-1,-8],[161,-83],[43,41]],[[4322,7064],[62,-145],[44,-115]],[[4428,6804],[130,-335],[-61,-75],[3,-12]],[[4500,6382],[-94,-111],[-17,48],[-28,18],[-24,-18],[-20,-5],[-24,7],[-23,-23],[-15,-25],[-23,0],[-11,-15],[-27,1],[-28,-15],[-165,457],[-243,-268],[-73,-109],[-131,-169],[-40,-57]],[[3514,6098],[-556,81],[-189,29],[-13,68]],[[1650,7414],[43,16],[41,59],[-65,12],[-15,27],[3,18],[27,44],[-16,19]],[[1668,7609],[70,41],[16,13],[64,21],[21,17],[5,18],[47,70],[9,24],[22,25],[33,10],[34,25]],[[1989,7873],[180,-54],[336,-100],[144,-41],[72,-22]],[[2242,7048],[-247,77],[-257,79],[-109,32]],[[1629,7236],[-2,43],[16,-9],[18,15],[17,63],[0,36],[-21,4],[-7,26]],[[3674,8115],[187,-62],[234,-76],[317,-106]],[[4412,7871],[-45,-115],[100,-35],[-64,-145],[127,-60],[40,-82],[84,-189]],[[4654,7245],[-183,-101],[-149,-80]],[[1989,7873],[-1,42],[8,19],[-9,38],[52,46],[18,33],[9,33],[33,29],[13,46],[-20,45],[-11,48],[29,56],[7,27],[-4,78],[-27,76],[16,43],[4,26],[20,12],[30,2],[43,20],[-10,26]],[[9187,3361],[162,-52],[152,-72],[135,-65]],[[9636,3172],[20,-17]],[[9656,3155],[11,-10]],[[9667,3145],[-49,6],[-36,-16],[-13,-22]],[[9569,3113],[-38,13],[-20,-1],[-25,13],[-28,42],[-33,8],[-17,-6],[-75,22],[-28,1],[-43,-24]],[[9262,3181],[-12,15],[-22,5]],[[9228,3201],[-9,45],[-32,115]],[[1284,6621],[312,-55],[134,-17],[241,-38]],[[2181,6428],[-107,-171],[-3,-96],[0,-165],[-76,-110],[-62,-80],[-86,31],[-80,-148],[-101,40],[-6,-20],[-34,8],[-14,-150],[13,-240]],[[910,5364],[1,61],[13,54],[13,28],[4,44],[-12,92],[54,61],[9,36],[7,89],[-28,62],[-64,57],[-13,31],[26,108],[21,1],[35,46],[22,54],[-6,42],[4,23],[-13,98],[18,27],[-2,44],[36,44],[97,54],[40,10],[37,29],[55,53],[20,9]],[[706,3392],[146,-14],[-56,263],[57,6],[-3,21],[177,26],[188,26],[-48,243],[-33,148],[100,14],[-29,33],[-22,64],[-20,18],[-14,28],[-2,43],[-14,29],[-21,-1],[-7,26],[37,216]],[[1142,4581],[81,4],[-5,43],[21,-6],[1,34],[153,4],[243,-9]],[[1636,4651],[46,-8],[531,-162]],[[2213,4481],[33,-201],[-452,-75],[58,-345],[54,-358]],[[1906,3502],[-187,-26],[-102,-17],[-346,-45],[10,-56],[-260,19],[24,-188]],[[1045,3189],[-337,26],[-2,177]],[[1146,4602],[-4,-21]],[[706,3392],[-114,12]],[[592,3404],[2,32],[-6,43],[4,17],[41,30],[4,34],[-30,46],[-5,27],[66,63],[3,37],[-14,54],[-2,33],[11,38],[24,45],[4,18],[-23,58],[-7,43],[3,40],[10,36],[24,23],[62,29],[6,17],[28,35],[38,79],[38,145],[-2,12],[20,29],[23,54],[-11,24],[-25,18],[-44,65],[-6,20],[23,47]],[[1630,4914],[6,-263]],[[2704,4703],[153,275],[10,30]],[[2867,5008],[200,23],[84,19],[260,61]],[[3411,5111],[263,62]],[[3674,5173],[38,-88],[94,-193]],[[3806,4892],[145,-355],[56,-155],[-209,-44],[-220,-43]],[[3578,4295],[-185,-41],[-242,-68],[-372,-95]],[[2779,4091],[-140,494],[65,118]],[[2845,5454],[239,-31],[15,28]],[[3099,5451],[19,-10],[20,-42],[32,-45],[-22,-34],[64,-96],[25,-53],[28,-15],[36,-47],[28,4],[38,33],[15,-3],[29,-32]],[[2867,5008],[6,40],[11,185],[-4,13],[-58,71],[0,15],[23,122]],[[3578,4295],[39,-88],[25,-49],[49,-108],[128,-265]],[[3819,3785],[-180,-46]],[[3639,3739],[-274,-70]],[[3365,3669],[-214,-55],[-54,-16]],[[3097,3598],[-183,255],[-21,235],[-114,3]],[[6573,3505],[-8,-25],[-49,-42],[3,-20],[-22,-30],[5,-32],[-33,-44],[-24,-4],[-12,24],[-17,12],[-24,-79],[-18,-23]],[[6374,3242],[-22,23],[-42,-2],[-21,-6],[-8,37],[-36,50],[20,7],[35,28],[-16,28],[-32,36],[-98,133],[-49,-32],[-9,7],[-47,-29],[-2,-24],[-17,-11]],[[6030,3487],[-12,24],[-38,-10],[-21,14],[17,22],[31,8],[21,23],[-23,86],[22,42],[25,-18],[29,9],[33,26],[-12,14],[14,25],[-27,2],[6,58],[11,28],[-3,20],[32,11],[32,56],[23,29],[-2,9]],[[3099,5451],[52,96],[52,82]],[[3203,5629],[106,-60],[77,-71],[97,-43],[61,-22],[52,-38],[-81,-131],[159,-91]],[[6374,3242],[-2,-15],[-37,-30],[-12,-22],[-15,12],[-27,-8],[-16,-14],[-23,0],[-10,12],[-32,-7],[-28,-15]],[[6172,3155],[19,45],[-15,46],[-17,24],[-53,51],[-37,29],[-40,10],[-26,21]],[[6003,3381],[12,17],[0,34],[-15,4],[-4,23],[48,7],[-14,21]],[[9498,3552],[17,15],[36,9],[12,12],[19,-13],[22,-2],[12,36],[-42,49],[-1,7]],[[9573,3665],[38,-13],[58,-36],[19,-7],[35,-40],[29,-11],[34,-49],[5,-22]],[[9791,3487],[-16,-17],[-6,-87],[-23,-62],[-3,-29],[21,-62],[4,-45],[10,-27],[41,-39]],[[9819,3119],[-32,-33],[-46,0],[-23,11],[-51,48]],[[9656,3155],[5,41],[15,26],[-8,89],[-38,57],[-2,32],[-38,33],[-15,42],[-62,46],[-20,12]],[[9493,3533],[5,19]],[[1578,1873],[-2,-45],[10,-32],[-12,-62]],[[1574,1734],[-53,-8]],[[1521,1726],[-54,9]],[[1467,1735],[15,72],[6,10],[63,33],[27,23]],[[1095,2049],[88,22]],[[1183,2071],[7,-10],[21,-65],[25,-47],[38,-35],[82,-29],[-26,-30],[58,-56],[33,-25],[30,-36],[16,-3]],[[1521,1726],[1,-43],[-17,-31],[-97,9],[-22,6],[-60,35],[-26,9],[-29,-2],[-106,-35],[-32,-1],[-66,15]],[[1067,1688],[-38,155],[-45,177],[111,29]],[[8010,9279],[156,5],[0,-201],[2,-86],[170,8],[-5,181]],[[8333,9186],[-2,101],[169,1],[14,-284],[326,0]],[[8840,9004],[5,-140],[0,-143],[4,-69]],[[8849,8652],[-16,-41],[-254,-67],[-243,-57],[-75,-8],[-102,-33],[-20,26],[-29,-8],[-346,-137]],[[7764,8327],[-34,-13]],[[7730,8314],[-8,49],[-121,634],[246,276],[163,6]],[[5393,3431],[52,-97],[301,148]],[[5746,3482],[46,22]],[[5792,3504],[12,-34],[-20,-12],[-18,-40],[6,-73],[-3,-34],[-16,-35],[0,-15],[-41,-49],[-16,-29],[5,-85],[-3,-31],[10,-45],[-11,-39],[3,-60]],[[5700,2923],[-171,122],[-7,44],[42,55],[-47,29],[17,16],[-205,146],[-78,60]],[[5251,3395],[142,36]],[[6234,3097],[178,-42],[377,-86]],[[6584,2289],[-26,6]],[[6558,2295],[-25,50],[-40,55],[-23,73],[-7,11],[-43,34],[-101,95]],[[6319,2613],[-42,92],[-27,37],[-18,12],[-24,42],[-10,48],[36,43],[15,57],[-53,11],[-22,12],[21,39],[47,65],[-8,26]],[[5410,4274],[12,-28],[47,-47],[69,-106]],[[5538,4093],[-37,-8],[-33,-20],[1,-41],[8,-25],[-27,-30],[-6,-35],[-44,-35],[-1,-16],[14,-49]],[[5413,3834],[-30,0],[-15,-8],[-177,-21]],[[5191,3805],[-62,117]],[[5129,3922],[26,0],[55,44],[57,10],[38,55],[1,37],[-23,47],[8,25],[35,10],[48,41],[4,31],[32,52]],[[5804,3752],[24,1],[63,25],[54,6],[-3,25],[96,57],[76,65],[22,-1]],[[6003,3381],[-21,22],[-43,28],[-34,3],[-41,11],[-30,29],[4,45],[11,13]],[[5849,3532],[55,-14],[3,30],[-64,84],[12,33],[-45,41],[-7,19]],[[5803,3725],[1,27]],[[8041,7135],[68,-45],[31,17],[327,-221]],[[8467,6886],[-71,-83],[-69,-87],[-132,-153],[-116,-144]],[[8079,6419],[-140,-184],[-57,-64]],[[7882,6171],[-208,148],[-25,-49],[-28,-14],[-68,67]],[[7553,6323],[43,181],[32,0],[14,47],[29,29],[3,27],[53,38],[29,32],[42,26],[18,38],[56,70],[36,27],[7,12],[2,55],[-6,31],[-19,54],[3,38],[42,33],[54,20],[32,29],[18,25]],[[5792,7827],[194,23],[95,10],[271,33]],[[6352,7893],[6,-25],[25,-22],[0,-19],[26,-32],[26,-19],[3,-41],[26,-39],[22,-24],[-17,-12],[-13,-56],[-32,-32],[-26,-7],[-29,-22],[-12,-37],[44,-13],[19,-11],[31,-33],[23,-44],[19,-19],[28,-10],[39,-43],[25,-12],[67,-19],[20,-17],[34,-15],[61,-75],[2,-51],[25,-14],[22,0],[23,-21],[-5,-14],[129,-87]],[[6963,7008],[12,-31],[-6,-19],[-32,-16],[-23,-26],[2,-17],[19,-44],[1,-21],[-15,-16],[-31,4],[-15,-7]],[[6875,6815],[-16,15]],[[6856,6833],[-130,118],[-411,368]],[[6315,7319],[-130,117],[-107,105],[-189,176],[-93,82]],[[5796,7799],[-4,28]],[[8849,8652],[8,-227],[2,-175],[4,-223]],[[8863,8027],[-32,2],[-16,18],[-19,4],[-5,-24],[-13,-11],[-43,-14],[-47,5],[-38,-3],[-45,40],[-24,34],[-54,11],[-69,-50],[-43,21],[-1,27],[-34,0],[-32,-20]],[[8348,8067],[-22,10],[-37,50],[-48,13],[-9,-5],[3,-49],[-3,-24],[-23,-36],[-19,-2],[-13,-51],[-34,1],[-78,16],[-70,23],[-11,16],[-21,63],[-37,39],[-50,20],[-29,6],[-2,41],[-11,51],[-11,7],[-28,49],[-23,5],[-8,17]],[[6352,7893],[406,47],[189,19],[272,-58]],[[7219,7901],[196,-33]],[[7415,7868],[-88,-108],[-60,-83],[-169,-221],[-161,-193],[22,-41],[18,-10],[49,3],[19,-5],[31,-25],[14,-31],[15,-64],[-4,-23],[-25,-29],[-51,-8],[-31,-21],[-31,-1]],[[6451,11106],[119,19],[60,-263],[157,-95],[74,-311],[-2,-230],[44,-46],[67,42],[69,2],[53,334],[-20,-1],[258,663]],[[7330,11220],[47,122],[454,-34],[414,-31]],[[8245,11277],[4,-656],[1,-160]],[[8250,10461],[-49,-2],[-1,26],[-228,-8],[-80,6],[-5,34],[-130,23],[-22,12],[8,-47],[-11,-17],[6,-31],[28,-65],[22,-30],[-25,-3],[17,-28],[26,5],[19,-22],[-38,-13],[-25,7],[-17,-18],[-43,12],[-24,-4],[-5,-39],[-22,-12],[-23,-28],[-27,-15],[-26,15],[-39,-17],[-33,-4],[-39,4],[-82,-34],[-11,-17],[-32,0],[-13,9],[-24,-18],[-18,6],[-48,-12],[-9,26],[-34,5],[-28,-32],[-36,-16],[-52,19],[-33,17],[-16,-19],[-36,-14],[11,-64],[-106,-36],[-55,34]],[[6842,10056],[-111,-3],[-87,215],[29,46],[0,108],[-60,267],[-147,90]],[[6633,9717],[356,16],[792,-19],[142,18]],[[7923,9732],[46,-230]],[[7969,9502],[41,-223]],[[7730,8314],[-100,-43]],[[7630,8271],[-6,81],[11,65],[-14,45],[-44,13],[-80,8],[-64,64],[-31,21],[-34,-13],[-49,-31],[-20,-1],[-28,-27],[-54,-8],[-63,12],[-21,-3],[-25,10],[-77,7],[-20,-7],[-22,48],[-18,14],[-43,2],[-52,21],[-54,1],[-66,342]],[[6756,8935],[-98,615],[-25,167]],[[8017,10114],[96,-12],[216,1],[0,25],[-68,-7],[-11,340]],[[8245,11277],[159,15],[159,0],[1,274],[-9,0],[-4,65],[194,8]],[[8745,11639],[4,-129],[11,-301],[9,-162],[6,-292],[10,-236],[5,-183],[13,-327],[9,-187],[2,-112]],[[8814,9710],[-36,16],[-66,-86],[-45,-66],[-53,-17],[-26,2],[-46,18],[-34,65],[-25,1],[-30,-16],[-62,-4],[-49,-27],[-23,-6]],[[8319,9590],[-66,47],[-38,45],[9,3],[-48,190],[-31,14],[-48,-15],[-2,39],[-30,48],[-41,29],[-20,22],[-11,32],[7,42],[17,28]],[[8319,9590],[-17,-4],[0,-48],[29,-40],[-70,-54],[-19,-11]],[[8242,9433],[-44,-26],[-66,-12],[2,22],[-12,32],[-20,15],[9,68],[-25,22],[-20,33],[-9,-1],[14,-61],[-24,-16],[-78,-7]],[[7923,9732],[-35,171],[-30,209],[159,2]],[[8863,8027],[12,-155],[10,-110],[10,-160],[9,-175],[0,-69],[9,-122]],[[8913,7236],[-94,70],[-14,-13],[-81,-97]],[[8724,7196],[-307,236],[-98,77],[-222,173],[-37,27]],[[8060,7709],[2,10],[286,348]],[[5610,8768],[372,51],[693,105],[81,11]],[[7630,8271],[-206,-86],[-205,-284]],[[5792,7827],[-32,232],[-32,-3]],[[5728,8056],[-34,210],[-61,369]],[[5633,8635],[-23,133]],[[6633,9717],[37,46],[153,256],[19,37]],[[8724,7196],[-257,-310]],[[8041,7135],[-102,68],[-65,-86],[-125,80]],[[7749,7197],[-87,175]],[[7662,7372],[31,3],[45,-6],[33,10],[28,26],[24,41],[5,40],[35,41],[49,25],[19,51],[9,33],[18,26],[-30,86],[25,39],[27,0],[43,-38],[24,-37],[13,-3]],[[8242,9433],[14,-26],[18,-13],[1,-60],[48,-92],[10,-56]],[[7662,7372],[-174,347],[-73,149]],[[8814,9710],[6,-151],[5,-162],[6,-137],[9,-256]],[[7553,6323],[-40,37],[-169,48]],[[7344,6408],[-146,127]],[[7198,6535],[37,24],[56,12],[11,10],[-5,49],[25,50],[9,55],[11,18],[48,-26],[62,86],[297,384]],[[9918,2885],[67,-76],[46,-45]],[[10031,2764],[14,-15],[17,-39]],[[10062,2710],[-51,-51],[-14,-21],[-55,-117],[-66,-148]],[[9876,2373],[-31,232],[-43,219],[38,16],[78,45]],[[9635,1669],[30,33],[37,24]],[[9702,1726],[59,-42]],[[9761,1684],[29,-21],[55,-58],[51,-27]],[[9896,1578],[-7,-19],[-11,-62],[0,-66],[-10,-27]],[[9868,1404],[-63,66]],[[6208,2025],[19,-4]],[[6227,2021],[90,6],[21,-3],[48,6]],[[6386,2030],[19,-28],[22,-56],[9,-8]],[[6436,1938],[-64,-17],[-84,-37]],[[6288,1884],[-32,50],[-48,91]],[[6198,1835],[24,7],[40,31],[26,11]],[[6436,1938],[23,1],[30,-11],[30,-35]],[[6519,1893],[92,-92],[20,-32]],[[6631,1769],[-233,-34]],[[6398,1735],[-25,55],[13,25],[-32,12],[-8,25],[-34,-5],[10,-15],[-20,-36],[-43,-14],[12,-16],[-12,-13],[0,-37]],[[6259,1716],[-8,-5],[17,-100]],[[6268,1611],[26,-151]],[[6294,1460],[7,-43]],[[6301,1417],[-62,104]],[[6239,1521],[4,48]],[[6243,1569],[-8,62],[3,59],[-14,56],[-16,35],[-10,54]],[[5982,789],[22,2],[10,-22],[-14,-30],[10,-21],[29,-10],[26,1],[45,-22],[35,22],[9,50]],[[6154,759],[29,-30]],[[6183,729],[18,-12],[16,-29],[4,-46],[-3,-22]],[[6218,620],[-47,-24],[-41,-6],[-14,-17],[-54,-2],[-7,-12],[-39,25]],[[6016,584],[-34,205]],[[5954,2307],[32,5],[35,-27],[29,-33],[29,-5],[35,13]],[[6114,2260],[33,-13]],[[6147,2247],[-23,-18],[4,-16],[20,-16],[0,-19]],[[6148,2178],[-18,-2]],[[6130,2176],[-24,22],[-82,-2],[0,-12]],[[6024,2184],[-23,-14]],[[6001,2170],[2,18],[-31,22]],[[5972,2210],[-18,97]],[[6130,2176],[-53,0],[-47,-7],[-6,15]],[[5912,566],[26,11],[77,-23]],[[6015,554],[-2,-62]],[[6013,492],[-12,-25],[-32,-20],[-16,-22],[-4,-27],[-36,-34],[-21,-7]],[[5892,357],[-17,26],[-3,19],[12,38],[19,20],[11,-29],[30,21],[-15,21],[-3,32],[9,22],[-23,39]],[[5823,367],[12,180],[-5,12]],[[5830,559],[32,-8],[50,15]],[[5892,357],[-18,-3],[-24,-34],[-36,-9]],[[5814,311],[9,56]],[[6201,2272],[9,-57]],[[6210,2215],[4,-28]],[[6214,2187],[-18,-3]],[[6196,2184],[-8,62],[-32,-3]],[[6156,2243],[-1,22],[46,7]],[[6201,2272],[14,1],[24,38]],[[6239,2311],[26,19],[18,-105]],[[6283,2225],[-73,-10]],[[6015,554],[1,30]],[[6218,620],[-1,-18],[12,-35]],[[6229,567],[54,-59]],[[6283,508],[-30,-3]],[[6253,505],[-11,16],[-21,-3],[-8,18],[-67,-10],[-28,-36]],[[6118,490],[-13,-29],[-41,-2],[-16,21],[-15,42],[-20,-30]],[[6164,488],[56,-9],[11,10],[-1,24],[23,-8]],[[6283,508],[30,-69],[4,-18]],[[6317,421],[-8,-46]],[[6309,375],[-17,1],[-5,22],[-37,-27],[-31,15]],[[6219,386],[11,10],[-13,19],[-5,42],[-16,-5],[-10,31],[-20,0]],[[6166,483],[-2,5]],[[2100,5199],[155,-41],[84,-23],[98,-24]],[[2437,5111],[-3,-173]],[[2434,4938],[-30,-14],[-24,3],[-20,-13],[-25,0],[-200,-50],[-45,69],[-3,54],[-47,58],[-64,9],[-16,11],[-1,23],[33,-1],[21,7],[62,-15],[42,-2],[3,40],[-20,82]],[[1625,5327],[325,-90],[150,-38]],[[2434,4938],[-6,-301]],[[2428,4637],[0,-21],[-88,15],[-46,-120],[-45,14],[-18,-49],[-18,5]],[[6219,386],[-20,0]],[[6199,386],[-25,46]],[[6174,432],[-25,30],[17,21]],[[6049,115],[25,8],[13,38],[18,24],[-5,16],[12,31],[14,10],[7,24]],[[6133,266],[18,-3],[34,11],[25,0],[26,-19],[10,-23]],[[6246,232],[9,-26],[5,-56],[-7,-70]],[[6253,80],[-58,0],[-32,8],[3,-38],[-7,-22]],[[6159,28],[-116,3]],[[6043,31],[-7,40],[19,33],[-6,11]],[[6018,366],[27,25],[76,33],[7,-14]],[[6128,410],[17,3],[10,-37],[17,1]],[[6172,377],[-9,-28],[-26,-24],[5,-31],[-9,-28]],[[6133,266],[-70,45]],[[6063,311],[-26,19],[-19,36]],[[6172,377],[27,9]],[[6309,375],[3,-23]],[[6312,352],[7,-42],[25,-40],[3,-27],[-23,-46]],[[6324,197],[-31,-9],[-25,46],[-22,-2]],[[5755,111],[12,15],[52,25],[6,39],[17,-11],[8,25],[-41,19],[37,58],[52,43],[43,21]],[[5941,345],[20,-35],[20,-9],[-17,-43],[-5,-51],[-15,-31],[-10,-42],[29,-26],[67,19],[15,-12]],[[6045,115],[4,0]],[[6043,31],[-175,7],[-134,3]],[[5734,41],[11,28],[10,42]],[[2911,2824],[240,48],[146,34],[359,82]],[[3656,2988],[7,-23],[-20,-7],[-9,-36],[8,-22],[-8,-28],[4,-25],[-9,-14],[1,-64],[23,-24],[-7,-27],[19,-29],[-1,-25],[-14,-15],[10,-37],[-25,-34],[-33,-19],[4,-14],[-41,-9],[-12,-26],[10,-31],[-26,-44],[22,-29],[-18,-38],[-65,-10]],[[3476,2358],[-261,-37],[-64,-7],[-158,-28],[-3,24],[-24,-8],[3,-20],[-153,-24]],[[2816,2258],[5,101],[90,465]],[[6272,2365],[43,-11]],[[6315,2354],[24,-36],[10,-27],[9,-46],[16,-27]],[[6374,2218],[-35,-21]],[[6339,2197],[-12,-7],[-41,-2]],[[6286,2188],[-3,37]],[[6239,2311],[14,29],[19,25]],[[6315,2354],[243,-59]],[[6586,2278],[-75,-36],[-20,-13],[-46,-44]],[[6445,2185],[-14,10],[-57,23]],[[6670,1833],[9,-57],[-48,-7]],[[6519,1893],[-29,43],[-17,37],[-18,111],[-3,84],[-7,17]],[[7872,1481],[-15,-18],[42,-27],[-3,-20],[25,-20],[-49,-39],[-17,-22],[-24,-16],[-53,-18],[6,-21],[16,-12],[23,-45],[-7,-53]],[[7816,1170],[-38,-5],[-29,32],[-24,-37],[-41,84],[-25,-5],[-16,-15],[-20,-35]],[[8200,1454],[-21,-22],[-85,-108]],[[8094,1324],[-64,-126]],[[8030,1198],[-41,-51],[-66,18],[-40,-4],[-67,9]],[[6897,1368],[-45,-24],[-15,25],[-54,61],[-17,26],[-22,52],[-37,-28],[-60,-13],[-33,8]],[[6614,1475],[-47,-16],[-58,-4],[-45,18]],[[6464,1473],[-48,6],[-31,12],[-26,-3],[-65,-28]],[[6268,1611],[31,3],[100,-21],[11,11],[4,28],[-16,80],[0,23]],[[6464,1473],[51,-139],[32,-62],[1,-34],[21,-29],[-6,-37],[-14,-32],[8,-31],[-8,-15],[6,-47],[1,-51]],[[6556,996],[-60,-64]],[[6496,932],[-108,5]],[[6388,937],[-26,143]],[[6362,1080],[-61,337]],[[6556,996],[27,26],[34,19],[102,23],[38,30]],[[6757,1094],[1,1]],[[6758,1095],[3,-29],[-7,-43],[-15,-37],[-3,-34],[23,-65],[23,2],[48,45]],[[6763,747],[-150,180],[-117,5]],[[6614,1475],[28,-94],[6,-51],[56,-144],[22,-26],[31,-66]],[[6758,1095],[18,24],[17,58],[49,69],[44,31],[18,25]],[[9506,2810],[37,33],[25,14],[12,20],[8,37],[0,57],[-6,67],[11,36],[-24,39]],[[9819,3119],[65,-40],[50,-49],[90,-69],[6,-10]],[[10030,2951],[-16,-10]],[[10014,2941],[-96,-56]],[[9876,2373],[0,-5]],[[9876,2368],[-30,-53],[54,-27],[-47,-56]],[[9324,2660],[52,36]],[[4995,1060],[71,-13],[34,-26],[29,4]],[[5129,1025],[7,-58],[15,-63],[-2,-24]],[[5149,880],[-31,6],[-28,18],[-47,41],[-73,33],[-86,28],[-3,16],[67,44],[34,5],[13,-11]],[[5093,710],[62,8],[19,-154]],[[5174,564],[24,-188],[18,-156]],[[5216,220],[21,-166]],[[5237,54],[-239,6]],[[4998,60],[29,28],[21,28],[9,34],[-1,43],[-13,52],[-27,32],[14,84],[-32,54],[-12,52],[10,68],[17,19],[20,36],[35,42],[25,78]],[[5113,2934],[63,-316]],[[5176,2618],[37,-151],[-21,-5]],[[5192,2462],[-703,-138]],[[4489,2324],[-14,62],[-87,-21],[-68,316]],[[4320,2681],[37,12],[77,-57],[26,20],[53,7],[48,29],[29,-10],[20,21],[34,13],[22,-9],[51,11],[8,9],[32,-63],[7,-32],[24,-21],[101,-21],[24,57],[32,30],[5,12],[-7,44],[36,39],[-4,24],[40,11],[0,25],[37,-43],[23,-38],[26,-10],[-12,34],[-8,59],[4,39],[14,26],[-1,21],[15,14]],[[3802,1109],[-19,69],[70,16],[-21,137]],[[3832,1331],[150,23]],[[3982,1354],[116,18],[23,-140]],[[4121,1232],[58,-331],[40,-236]],[[4219,665],[-61,-11],[34,-213],[10,-52],[28,-181]],[[4230,208],[19,-121]],[[4249,87],[-104,4]],[[4145,91],[-2,21],[-40,64],[-43,22],[-23,6],[-63,44],[-7,18],[-39,44],[-24,35],[-36,94],[-21,29],[-82,17],[-25,29],[-26,62],[-29,41],[-22,49],[-199,4]],[[3464,670],[-172,7]],[[3292,677],[-54,326]],[[3238,1003],[123,21],[174,34],[112,17],[108,21],[47,13]],[[6122,2479],[95,52],[14,12],[7,-42]],[[6238,2501],[16,-100]],[[6254,2401],[-92,-23],[-9,-33],[4,-52],[-17,-18],[14,-31]],[[6154,2244],[-7,3]],[[6147,2247],[-23,49],[-8,34],[-28,65],[4,30],[30,54]],[[6254,2401],[4,-33],[14,-3]],[[6156,2243],[-2,1]],[[5657,699],[27,34],[14,31],[33,21]],[[5731,785],[11,7],[42,-24],[27,6],[19,-16],[17,13],[40,-11]],[[5887,760],[-10,-30],[-34,-26],[62,-47],[64,-39],[47,-34]],[[5830,559],[-20,17],[-14,34],[-39,-13],[-78,-12],[29,35],[-39,38],[-21,-8],[-20,23],[29,26]],[[6118,490],[13,-19],[23,3],[10,14]],[[6174,432],[-46,-22]],[[6018,366],[-5,126]],[[6183,729],[172,30],[52,6]],[[6407,765],[-9,-17],[19,-32],[24,-27],[22,-71],[31,6],[10,14],[49,37],[54,-14],[21,8],[27,-9],[0,-25]],[[6655,635],[-42,-26],[-60,-27],[-58,-35]],[[6495,547],[-60,42],[-44,-15],[-42,12],[-41,34],[-34,-6],[-13,-30],[-32,-17]],[[5814,311],[-18,-26],[-10,-30],[-7,-53],[-9,-10],[-15,-81]],[[5734,41],[-333,10],[-164,3]],[[5216,220],[35,11],[19,29],[66,20],[58,47],[67,10],[44,-4],[51,20],[37,-12],[92,-16],[66,10],[32,19],[40,13]],[[4145,91],[-595,19]],[[3550,110],[-68,466],[-18,94]],[[5887,760],[47,35],[48,-6]],[[6495,547],[-42,-32],[2,-30],[-29,-36]],[[6426,449],[-44,-32],[-33,17],[-11,-13],[-21,0]],[[6655,635],[26,18],[63,59]],[[6742,646],[-3,-73],[-18,-87],[-23,-97],[-84,-375]],[[6614,14],[-7,0]],[[6607,14],[-14,26],[-32,20],[-2,38],[-19,29],[-11,54],[-15,29],[7,55],[-15,28],[-26,14],[-25,28],[22,17],[-16,34],[-39,2]],[[6422,388],[19,16],[-12,16],[-3,29]],[[5174,564],[82,28],[25,61],[27,4],[69,36],[-9,52]],[[5368,745],[280,36]],[[5648,781],[9,-82]],[[5616,1003],[16,22],[14,36],[0,47],[31,12],[41,29],[36,-8],[23,4],[46,22],[24,24]],[[5847,1191],[10,18],[54,13],[11,-32],[37,-24],[25,4]],[[5984,1170],[15,-75]],[[5999,1095],[1,-45],[-49,-6],[-29,9],[-15,25],[-30,19],[-32,6],[-7,-17],[2,-49],[-6,-54],[-53,-74],[-10,-10],[13,-38],[-31,-40],[-30,-16],[8,-20]],[[5648,781],[-32,222]],[[5972,2210],[24,-116]],[[5996,2094],[-131,-19]],[[5865,2075],[-32,98],[4,52],[-15,38],[-3,37],[-8,11]],[[5811,2311],[25,25],[34,-22],[24,-44],[43,-26],[35,-34]],[[3639,3739],[220,-456],[103,-218]],[[3962,3065],[-188,-49]],[[3774,3016],[-36,56],[-18,13],[-19,35],[-18,18],[-10,47],[-19,17],[-22,34],[-33,1],[-30,8],[-35,25],[-55,61],[-2,47],[-38,17],[-18,47],[5,36],[-29,41],[6,22],[-23,26],[-18,55],[3,47]],[[6312,352],[55,-14],[21,-11],[4,52],[30,9]],[[6607,14],[-249,8]],[[6358,22],[-19,39],[-15,136]],[[6858,368],[17,0],[33,-16],[12,-31],[26,-29],[30,-22],[37,-7]],[[7013,263],[-17,-63],[-2,-69],[10,-14],[20,-76],[6,-39]],[[7030,2],[-216,4]],[[6814,6],[-9,19],[12,41],[2,31],[16,56],[-5,71],[9,26],[-3,37],[17,47],[5,34]],[[7195,462],[103,-23]],[[7298,439],[-23,-41],[-22,-24],[-77,-30],[-56,0],[-14,-7],[-82,-56],[-11,-18]],[[6858,368],[1,33],[20,36],[5,32],[-6,11],[-46,29],[-17,23],[-11,58],[-3,41]],[[5129,1025],[14,3],[18,-25],[29,-1],[19,-11]],[[5209,991],[39,-5],[11,-16],[30,-23],[25,2]],[[5314,949],[8,-14]],[[5322,935],[-48,-32],[-42,-17],[-34,-8],[-49,2]],[[5999,1095],[14,-98],[-1,-16],[-29,-157],[-1,-35]],[[6362,1080],[-29,-21],[-26,1],[-13,9],[-33,-4],[-36,-27],[-83,-28],[-21,7],[-24,-7],[-17,-17]],[[6080,993],[-20,44],[18,56],[-1,32],[-24,81]],[[6053,1206],[8,34],[29,35],[6,20],[43,58],[42,45],[24,58],[25,33],[9,32]],[[3238,1003],[-37,229]],[[3201,1232],[-24,142],[-12,87]],[[3165,1461],[42,-48],[36,-1],[23,30],[10,-12],[96,-41],[27,-22],[20,52],[-8,57],[28,9],[59,-7],[12,-74],[-12,-37],[21,-138],[31,-8],[19,-13],[20,-26],[24,-9],[29,-34],[17,-5],[53,6],[57,-12],[33,-19]],[[6179,1558],[64,11]],[[6053,1206],[-24,6],[-25,-32],[-20,-10]],[[5984,1170],[-19,62],[4,38],[22,25],[44,25],[41,37],[53,78],[45,58],[8,22],[-3,43]],[[6814,6],[-200,8]],[[4769,525],[128,15],[-20,143],[216,27]],[[4998,60],[-161,5]],[[4837,65],[-46,324],[-22,136]],[[6388,937],[29,-171],[-10,-1]],[[6154,759],[-29,44],[1,48],[-7,33],[-27,22],[0,45],[-12,42]],[[3129,1709],[22,10],[202,41],[106,17]],[[3459,1777],[185,30],[111,15],[32,-214],[45,-277]],[[3165,1461],[-16,127],[-20,121]],[[5865,2075],[-188,-28]],[[5677,2047],[-5,41],[-16,52],[-33,36],[-7,44],[-23,27],[-32,71]],[[5561,2318],[-3,14],[32,12],[38,-8],[20,4],[74,0],[1,-21],[30,-2],[22,-14],[36,8]],[[4221,3132],[80,24],[359,89]],[[4660,3245],[367,94]],[[5027,3339],[86,-405]],[[4320,2681],[-55,272],[-44,179]],[[2933,3165],[83,230],[-76,163],[157,40]],[[3774,3016],[-58,-16],[-11,-14],[-24,33],[-24,-12],[-1,-19]],[[2911,2824],[-8,-2],[53,343],[-23,0]],[[6045,115],[-8,33],[-33,25],[31,91],[-7,5],[35,42]],[[6018,366],[-36,-1],[-41,-20]],[[5017,7959],[711,97]],[[5796,7799],[58,-463],[-339,-43]],[[5515,7293],[-2,95],[-146,130],[-114,108],[-82,86],[-197,-15]],[[4974,7697],[-10,20],[-25,11],[-10,15],[-3,48]],[[4926,7791],[-3,26],[37,33],[7,49],[24,19],[26,41]],[[5515,7293],[-218,-29],[-160,-26]],[[5137,7238],[6,44],[-11,29],[-32,36],[-12,25],[15,56],[-24,53]],[[5079,7481],[-8,11],[2,37],[-8,30],[-36,26],[-5,22],[-32,19],[-18,20],[0,51]],[[4428,6804],[11,9],[48,17],[42,-7],[18,-11],[46,-13],[45,-67],[16,21],[6,31],[-18,33],[-1,45],[161,82],[39,-68],[71,34],[37,-71],[26,12],[17,-31],[-3,-21],[100,54]],[[5089,6853],[32,-79],[-29,-23],[-31,-15],[-19,-18],[-1,-17],[12,-23],[-4,-25],[-37,-1],[-62,-47],[-38,-23],[-60,-5],[-28,3],[-23,46],[-33,-4],[-35,-38],[-30,4],[-17,-6],[-21,-36],[6,-19],[34,-13],[49,-51],[-14,-37],[-36,-23],[4,-31],[-19,-21]],[[4689,6351],[-17,31],[-31,12],[-31,-5],[-16,-25],[-30,18],[-35,-16],[-29,16]],[[4654,7245],[164,91],[108,55],[153,90]],[[5137,7238],[-17,-31],[14,-51],[-10,-48],[-25,-36],[5,-60],[19,-63],[-17,-28],[9,-31],[-26,-37]],[[4412,7871],[53,-18],[12,28]],[[4477,7881],[19,-14],[24,4],[174,4],[27,-4],[44,-41],[35,-16],[43,-27],[35,-5],[36,-12],[12,21]],[[6386,2030],[-24,46]],[[6362,2076],[-10,53]],[[6352,2129],[-13,68]],[[6352,2129],[-66,-1]],[[6286,2128],[0,26]],[[6286,2154],[0,34]],[[6951,6317],[31,-183]],[[6982,6134],[-35,-33],[-47,-6],[-47,7],[-33,114],[-34,28],[-50,58],[-46,44],[-30,9],[-55,1],[-31,-17],[-7,-30],[-44,-37],[-31,-45],[-47,-29],[-39,-6],[-44,-26],[-40,-46],[-64,-5]],[[6258,6115],[5,20],[-53,14],[8,36],[25,77],[23,83]],[[6982,6134],[26,-179]],[[7008,5955],[-86,-34],[-237,-95],[-93,-33],[-33,-44]],[[6559,5749],[-200,137],[-77,57],[-17,-27]],[[6265,5916],[30,121],[-56,6],[19,72]],[[5577,1460],[315,52]],[[5892,1512],[33,-69],[-25,-4],[-14,-37],[27,-44],[-12,-47],[-16,-33],[-13,-43],[-27,-19],[2,-25]],[[5616,1003],[-79,451],[40,6]],[[6214,2187],[72,1]],[[6286,2154],[-45,0]],[[6241,2154],[-25,0]],[[6216,2154],[-2,33]],[[6216,2154],[0,-70]],[[6216,2084],[-32,0]],[[6184,2084],[13,27],[-1,73]],[[6286,2128],[0,-44]],[[6286,2084],[-18,0]],[[6268,2084],[-27,0]],[[6241,2084],[0,70]],[[6362,2076],[-16,8],[-60,0]],[[6227,2021],[14,27],[27,7],[0,29]],[[7468,4310],[160,168],[82,119],[191,227]],[[7901,4824],[295,-233],[55,-46],[152,-130]],[[8403,4415],[91,-71]],[[8494,4344],[-280,-394]],[[8214,3950],[-167,-237]],[[9267,4170],[109,157]],[[9376,4327],[12,-15],[52,-19],[25,-28],[-4,-41],[54,-12],[6,-21],[17,-21],[30,-2],[21,-22],[8,-40],[24,-16],[19,12],[50,-18],[18,-18],[-5,-30],[10,-23]],[[9713,4013],[-49,-29]],[[9664,3984],[-57,91],[-50,-32],[-53,-10],[-21,16],[-25,44],[-24,13],[-9,26],[-90,32],[-68,6]],[[8319,5331],[181,223],[165,207]],[[8665,5761],[140,177],[173,210],[38,39]],[[9016,6187],[-2,-50],[24,-19],[8,-27],[-2,-23],[18,-19],[1,-23],[-17,-46],[12,-26],[-19,-9],[-4,-63],[-32,-18],[0,-26],[-22,-29],[-6,-24],[8,-34],[-39,-34],[24,-22],[18,-1],[35,-31],[5,-25],[-16,-60],[-18,-34],[3,-41],[24,-33],[4,-29],[-12,-21],[-31,-12],[0,-40],[-7,-18],[-30,-34],[-37,-12],[-25,-41],[-4,-63],[6,-35],[19,-25],[-2,-27],[-26,-8],[-4,-26],[14,-32],[-1,-47]],[[8883,5000],[-32,-39]],[[8851,4961],[-46,30],[-213,152]],[[8592,5143],[-107,78],[-6,-8],[-111,92],[-7,-8],[-42,34]],[[4690,1038],[21,-6],[29,33],[74,2],[56,14],[33,26],[4,-18],[73,12],[-3,-21],[18,-20]],[[5322,935],[24,-193],[22,3]],[[4769,525],[-32,208]],[[4737,733],[-47,305]],[[5192,2462],[-5,-63],[37,-1],[8,-14],[37,-156],[48,-232]],[[5317,1996],[15,-97]],[[5332,1899],[19,-120]],[[5351,1779],[-174,-31]],[[5177,1748],[-543,-97]],[[4634,1651],[-18,74],[-40,192]],[[4576,1917],[-33,158],[-54,249]],[[3519,2127],[76,-31],[10,2],[262,35],[31,-179],[286,39],[5,-25],[-39,-7],[10,-63],[34,7],[22,-50],[18,3]],[[4234,1858],[7,-43],[11,2],[13,-35],[-57,-9],[18,-85],[-62,-11],[7,-42],[-50,-7],[11,-51],[-77,-17],[30,-126],[-117,-16],[14,-64]],[[3459,1777],[-16,13],[14,17],[-8,28],[20,23],[21,4],[0,35],[48,12],[2,21],[-5,60],[-6,31],[4,51],[-13,35],[-1,20]],[[5610,8768],[-24,-3],[-134,402],[-129,384],[-72,210],[-21,-63],[-53,25]],[[4566,8103],[31,-14],[11,-19],[27,1],[4,-28],[25,2],[4,-33],[17,-8],[28,4],[2,-51],[282,-1],[20,3]],[[4477,7881],[-1,31],[47,119],[43,72]],[[4666,9041],[33,-355]],[[4699,8686],[17,-194],[-150,-389]],[[5633,8635],[-370,-39],[-234,-23],[26,-34],[-128,-16],[-25,24],[-26,51],[-46,23],[-27,58],[-33,6],[-8,-14],[-39,15],[-24,0]],[[4024,12073],[39,-28],[26,-10],[30,-21],[84,-74],[23,1],[6,13],[34,-51],[15,-10],[35,-48],[32,-14],[17,8],[38,-23],[11,17],[35,-10],[23,-19],[11,7],[87,-28],[18,28],[19,17],[44,5],[30,19]],[[3236,12015],[18,9],[109,-6],[23,6],[70,3],[36,-14],[23,-1],[33,13],[23,32],[46,35],[37,13],[30,-1],[37,-13],[34,-21],[39,-10],[72,-40],[16,1],[48,24],[50,5],[44,23]],[[4024,12073],[65,44],[60,21],[25,1],[32,20],[2,19],[-20,60],[20,44],[-17,18],[7,51],[39,13],[25,-3],[18,20],[-22,34],[9,21],[48,43],[21,6],[68,-2],[69,46]],[[4473,12529],[73,-105],[18,-20],[70,-104],[228,-314]],[[1452,7379],[47,-10],[23,2],[74,29],[54,14]],[[1629,7236],[-130,39]],[[1499,7275],[-75,22]],[[1424,7297],[0,21],[19,31],[9,30]],[[2802,1970],[14,288]],[[3476,2358],[14,-91],[-10,-2],[8,-48],[15,-37],[-57,-10],[5,-17],[58,7],[10,-33]],[[3129,1709],[-15,100],[-147,2],[-170,5],[5,154]],[[5861,7130],[124,117],[110,95],[33,-35],[35,-23],[33,-31],[24,22],[12,-12],[83,56]],[[6248,6750],[-71,60]],[[6177,6810],[-43,48],[-20,30],[-20,48],[-40,68],[-35,29],[-39,7],[-30,-23],[-14,-19],[-18,4],[-1,27],[-23,17],[2,14],[-36,13],[15,24],[-14,33]],[[6137,5236],[41,16],[64,89],[64,79],[124,173],[129,156]],[[7008,5955],[58,-333],[10,-72],[223,-145],[-86,-117]],[[7213,5288],[-21,-28],[-266,-367],[-97,-132]],[[6230,5172],[-93,64]],[[5964,6697],[44,48],[53,36]],[[6061,6781],[47,-74],[35,-20],[35,-26],[49,-15],[-8,-28],[-34,-19],[-21,-19],[-3,-27],[11,-49],[25,-29],[34,-57],[9,-33],[-33,-22],[-2,-35],[-18,-94],[-19,-49],[15,-37],[1,-21]],[[6184,6127],[-45,-27]],[[6139,6100],[-47,85],[-33,42],[-23,44],[0,22],[17,62],[-11,38],[-24,35],[-13,33],[11,77],[-21,52],[-5,68],[-26,39]],[[5861,7130],[-153,-135],[-229,-222],[-196,-182],[-115,-104]],[[5168,6487],[-359,-325]],[[4809,6162],[-23,33],[0,20],[-30,47],[-37,12],[-39,58],[9,19]],[[5168,6487],[103,-32],[57,-15],[176,-54],[87,-25],[99,-23],[109,-33],[119,-30]],[[5918,6275],[-3,-50],[12,-43],[23,-30],[22,-40]],[[5972,6112],[-1,-52],[-47,-76],[-9,-24],[8,-27],[-6,-28]],[[5917,5905],[-220,-83],[-321,-122],[-102,-35]],[[5274,5665],[-20,60],[-14,-5],[-45,105],[-87,-30],[-8,32],[-53,31],[-34,7],[-45,32],[-12,32],[-26,36],[-21,16],[-16,23],[2,13]],[[4895,6017],[20,51],[-6,32],[-77,52],[-23,10]],[[6139,6100],[40,-80],[26,-26],[1,-20],[-12,-43]],[[6194,5931],[-129,88],[-20,50],[-40,33],[-33,10]],[[5918,6275],[-3,40],[-15,45],[-32,25],[-26,28],[-28,22],[-25,48],[-15,72],[3,15],[37,18],[-5,9],[109,51],[46,49]],[[6177,6810],[-36,24],[-80,-53]],[[6258,6115],[-51,14],[-23,-2]],[[5917,5905],[-28,-43],[-36,-30],[15,-22],[-6,-31],[-21,-28],[-15,-6],[-41,14],[-13,-8],[1,-26],[17,-43],[-2,-27],[-12,-27],[-25,-34],[4,-16],[-59,-41]],[[5696,5537],[-34,19],[-25,3],[-12,-36],[-33,15],[-16,-6],[-26,-38],[-27,-16],[-31,-1],[-10,-18],[-29,11],[-15,-10],[0,-25],[-34,-26],[-12,37],[-26,5],[-26,-20],[-15,35],[-28,8]],[[5297,5474],[-12,22]],[[5285,5496],[-34,86],[17,7],[-22,67],[28,9]],[[7213,5288],[242,-164],[125,-81],[178,-121],[143,-98]],[[8696,4773],[155,188]],[[8883,5000],[28,-48],[-2,-14],[26,-26],[11,-30],[-20,-30],[33,-30],[-7,-36],[33,-4],[-6,-21],[12,-25],[45,-22],[8,-28]],[[9044,4686],[8,-30],[-5,-39],[15,-17],[34,-18],[-37,-44],[-38,-31]],[[9021,4507],[-31,23],[-48,80],[-8,25],[-60,-27],[-32,-33]],[[8842,4575],[-11,12],[-11,35],[-22,33],[10,46],[-37,19],[-36,-11],[-27,30],[-12,34]],[[8180,5162],[107,-72],[54,-34],[37,-14],[77,-65],[47,57],[47,-53],[30,3],[27,33],[-73,54],[59,72]],[[8696,4773],[-201,-254],[-64,-68],[-28,-36]],[[7901,4824],[212,256],[67,82]],[[9021,4507],[22,-21],[96,-74]],[[9139,4412],[-75,-4]],[[9064,4408],[-53,37],[-59,12],[-14,-6],[-23,9]],[[8915,4460],[1,31],[-26,20],[-8,23],[-26,-9],[-3,41],[-11,9]],[[9064,4408],[-19,-29],[-35,26],[-52,-63],[-22,-3]],[[8936,4339],[-8,28],[-16,18],[2,29],[13,28],[-12,18]],[[8494,4344],[47,-41],[144,-118]],[[8685,4185],[147,-120],[13,-13],[97,-74],[127,-102]],[[9069,3876],[-50,-73]],[[9019,3803],[-52,-78]],[[8967,3725],[-22,8],[-41,30],[-37,-1],[-52,25],[-25,1],[-16,12],[-52,3],[-43,-6],[-86,35],[-32,9],[-38,29],[-35,35],[-29,19],[-39,-8],[-14,18],[-33,-14],[-108,14],[-29,16],[-22,0]],[[9284,3516],[131,102]],[[9415,3618],[37,-49],[46,-17]],[[9493,3533],[8,-28],[15,-10],[7,-44],[-17,-79],[-43,-43]],[[9463,3329],[-179,187]],[[6265,5916],[-14,-23],[-57,38]],[[8967,3725],[-71,-109],[-95,-150],[-150,-234]],[[9636,3172],[-173,157]],[[8180,5162],[139,169]],[[9044,4686],[24,-21],[16,17],[18,-7],[38,5],[15,15],[36,-7],[-6,-16],[10,-39],[39,-42],[25,8],[17,-35],[15,-11],[-11,-20],[23,-37],[-7,-21],[34,-21]],[[9330,4454],[-51,-66],[-43,32],[-97,-8]],[[8985,3207],[7,-13],[27,1],[14,-13],[42,21],[14,-7],[53,-8],[38,-27],[50,-16],[12,25],[20,11]],[[9123,2870],[-213,-45]],[[8910,2825],[75,382]],[[3514,6098],[-32,-48],[-101,-142],[-84,-133],[-94,-146]],[[2845,5454],[-349,42],[-15,-100],[-44,-285]],[[2704,4703],[-74,16],[-202,-82]],[[2933,3165],[-481,7],[-313,15]],[[2139,3187],[30,126],[34,84],[60,158],[-167,-26],[-190,-27]],[[9019,3803],[182,-198],[83,-89]],[[9187,3361],[-162,54],[-20,-111]],[[9005,3304],[-20,-97]],[[8910,2825],[-179,-3]],[[9415,3618],[64,50]],[[9479,3668],[3,-11],[58,9],[33,-1]],[[9479,3668],[47,23],[22,18],[20,30]],[[9568,3739],[31,-17],[59,-14],[22,13],[35,2],[13,-55],[25,-11],[67,7]],[[9820,3664],[-3,-38],[-30,-10],[-13,-28],[16,-40],[9,-50],[-8,-11]],[[9446,3860],[1,-1]],[[9447,3859],[76,-78],[25,-36],[20,-6]],[[9479,3668],[-19,37],[-45,4],[-28,26],[26,49],[-13,37],[46,39]],[[9069,3876],[115,169]],[[9184,4045],[27,45]],[[9211,4090],[171,-170],[64,-60]],[[9447,3859],[217,125]],[[9713,4013],[1,-10],[65,1],[28,-28],[22,-8],[16,-35],[-11,-26],[29,-10],[15,-23],[-22,-39],[6,-15],[-21,-20],[-24,-106],[3,-30]],[[9211,4090],[56,80]],[[9330,4454],[23,6],[27,-64],[-35,0],[-20,-25],[9,-13],[31,-1],[11,-30]],[[9184,4045],[-61,59],[-138,150],[-36,24],[-30,13]],[[8919,4291],[17,48]],[[8919,4291],[-26,17],[-47,64],[-9,19]],[[8837,4391],[-3,47],[-12,88],[1,17],[19,32]],[[8685,4185],[17,22],[29,87],[62,49],[44,48]],[[8079,6419],[19,-95],[74,-389],[28,41],[25,-40],[29,36],[21,-32],[21,39],[26,-44],[98,151],[25,-23],[38,29],[22,-25],[34,37],[11,-36],[37,37],[78,-344]],[[7901,4824],[-30,150],[-53,349]],[[7818,5323],[-30,197],[-32,233],[-33,243],[159,175]],[[5151,4885],[238,85],[604,217],[63,24],[81,25]],[[5477,4326],[-1,1]],[[5476,4327],[4,30],[-17,23],[3,15],[26,29],[-12,23],[-48,-17],[-18,0],[-21,22],[19,22],[11,26],[19,17],[-6,20],[-69,-11],[-70,35],[34,22],[10,23],[-16,20],[-18,2],[-36,-26],[-18,28],[12,38],[-39,44],[-8,31],[12,43],[-15,40],[-23,12],[-19,21],[-20,11],[-2,15]],[[4751,4863],[218,105],[47,21]],[[5016,4989],[121,57]],[[5137,5046],[-9,-48],[-12,-28],[8,-38],[29,-33],[-2,-14]],[[5476,4327],[-77,-35]],[[5399,4292],[-271,-120]],[[5128,4172],[-113,226],[-32,-8],[-13,50],[-47,97],[-35,32],[-25,46],[-24,8],[10,40],[-9,41],[-30,41],[-32,28],[5,42],[-32,48]],[[3819,3785],[529,135]],[[4348,3920],[216,-460],[96,-215]],[[4221,3132],[-259,-67]],[[1578,1873],[31,29],[37,17],[16,17],[6,34],[30,20],[54,-5],[47,13],[58,-10],[64,24]],[[1921,2012],[-14,-15],[-27,-4],[-38,-28],[17,-5],[-3,-38],[-17,-2],[10,-29],[-14,-22],[-19,-2],[-4,-46],[-26,-14],[-9,-33],[4,-34],[11,-32],[-13,-9],[10,-45],[53,1],[52,9]],[[1894,1664],[-4,-90]],[[1890,1574],[-35,32],[-24,2],[-31,-17],[-20,-1],[-39,11],[-21,-5],[-58,5],[-1,55],[-77,42],[-10,36]],[[11,1181],[269,-24],[170,-13]],[[450,1144],[122,-770],[26,-157]],[[598,217],[-41,2],[-11,38],[-41,69],[-34,39],[-10,71],[-8,30],[-14,20],[-25,12],[-39,57],[-27,7],[-20,-12],[-3,-23],[-48,-32],[-31,-3],[-17,28],[4,17],[30,26],[10,19],[-4,30],[-16,28],[-27,31],[-139,136],[-5,60],[-24,77],[-2,93],[-13,35],[-18,18],[-25,49],[11,42]],[[450,1144],[498,-37]],[[948,1107],[223,-15],[36,-246],[128,-29]],[[1335,817],[-107,-97],[47,-309],[29,-222]],[[1304,189],[-587,22],[-119,6]],[[1183,2071],[228,56],[295,83],[32,11]],[[1738,2221],[23,-146],[160,-61],[0,-2]],[[551,2372],[159,-4],[121,-5],[192,-23],[91,-7]],[[1114,2333],[-6,-112],[-13,-172]],[[1067,1688],[30,-122],[92,1]],[[1189,1567],[-134,-262],[-107,-198]],[[11,1181],[4,18],[-7,52],[2,57],[13,46],[1,24],[70,33],[28,28],[23,35],[-2,66],[16,43],[24,14],[1,30],[-15,69],[4,51],[-10,71],[-36,32],[14,40],[27,18],[50,43],[68,9],[13,11],[67,13],[28,28],[31,18],[27,-16],[22,5],[60,68],[4,18],[-20,36],[4,34],[30,50],[15,5],[37,-9],[33,37],[3,35],[-47,42],[-30,15],[-12,22]],[[1045,3189],[59,-430],[55,-429],[-45,3]],[[551,2372],[-18,38],[-2,23],[10,40],[5,49],[-4,16],[-25,24],[-11,26],[0,27],[26,33],[45,35],[28,42],[22,11],[33,39],[26,39],[6,42],[-24,38],[0,20],[-24,43],[9,40],[44,33],[8,40],[-5,36],[-52,63],[9,53],[-15,8],[-25,-4],[-30,17],[-23,52],[3,21],[26,28],[-1,60]],[[4869,5481],[23,7],[45,2],[19,-7],[37,8],[21,16],[33,-26],[39,-23],[34,2],[9,12],[55,23],[53,5],[48,-4]],[[5297,5474],[-46,-5],[10,-50],[18,5],[14,-49],[-51,-6],[26,-165],[-93,-9],[-6,-42],[7,-19],[-15,-61],[-24,-27]],[[5016,4989],[-8,51],[-58,19],[-4,27],[-29,-3],[-14,30],[-10,90],[-50,-20],[2,45],[13,112],[40,17],[-29,124]],[[5027,3339],[224,56]],[[5700,2923],[204,-145]],[[5904,2778],[8,-47],[-36,-5]],[[5876,2726],[-175,-29],[-298,-45]],[[5403,2652],[-227,-34]],[[4348,3920],[216,55],[135,36],[14,-27],[223,105],[89,39]],[[5025,4128],[104,-206]],[[5191,3805],[202,-374]],[[5413,3834],[7,-29],[56,-19],[52,20],[39,3],[35,-35],[23,4],[46,-36],[20,16]],[[5701,3717],[12,-30],[34,4]],[[5747,3691],[-1,-45]],[[5746,3646],[-91,-54],[-25,-21],[35,-41],[26,-11],[14,9],[41,-46]],[[4895,6017],[-241,-108]],[[4654,5909],[-90,-41],[-645,-290],[-172,-64],[137,-301],[77,-141]],[[3961,5072],[-5,-42],[-117,-88],[-33,-50]],[[5904,2778],[261,339]],[[6165,3117],[3,-34],[66,14]],[[6319,2613],[15,-32],[4,-46],[10,-23],[-28,0],[-64,29],[-18,-40]],[[6122,2479],[-11,18],[-23,13]],[[6088,2510],[-20,17],[-31,73],[-134,-16]],[[5903,2584],[-27,142]],[[5696,5537],[72,-48]],[[5768,5489],[259,-175],[110,-78]],[[5538,4093],[17,-25],[82,34],[14,-5]],[[4869,5481],[-61,211],[-12,-6],[-61,142],[-81,81]],[[4751,4863],[-393,-192],[-118,-51],[-157,-73],[-2,68],[-18,503],[-102,-46]],[[5128,4172],[-103,-44]],[[6165,3117],[7,38]],[[5746,3646],[34,6],[16,-14],[14,20],[9,-140]],[[5819,3518],[-27,-14]],[[5747,3691],[56,34]],[[5849,3532],[-30,-14]],[[5768,5489],[93,1],[85,-13],[39,15],[52,3],[49,-2],[13,-6],[36,23],[31,70],[-11,51],[4,49],[29,110],[-10,37],[16,104]],[[7298,439],[34,-9],[82,-97]],[[7414,333],[-54,-43],[-72,-78],[-63,-107],[-89,-105],[-106,2]],[[6875,6815],[29,-39],[30,-9],[264,-232]],[[7344,6408],[-46,-76],[-68,-91],[-91,-13],[-35,-47],[25,-17],[32,7],[50,-16],[23,-15],[14,-29],[9,-71],[37,-46],[7,-64],[7,-21],[50,-74],[24,-41],[41,-23],[10,-12],[16,-54],[22,-38],[20,-5],[29,-65],[20,-14],[24,-32],[44,-28],[-2,-33],[19,-21],[9,-61],[-11,-52],[27,-62],[-3,-33],[128,16],[24,15],[19,31]],[[8913,7236],[21,-330],[22,-505],[16,-13],[19,6],[18,-39],[32,-17],[12,-20],[4,-37],[23,-18],[-10,-45],[-18,-27],[-36,-4]],[[1499,7275],[-15,-49],[-3,-58],[-36,-50],[60,-51],[40,-152],[4,-25]],[[1549,6890],[-25,-13],[-55,-7],[-86,-21],[-24,-1],[-42,9],[-31,18]],[[1286,6875],[13,14],[63,28],[10,15],[-4,44],[9,64],[56,77],[6,83],[-20,30],[5,67]],[[1549,6890],[59,43]],[[1608,6933],[35,-26],[2,-17],[40,2],[22,-6],[40,1],[31,-16],[68,-73],[38,44],[13,51]],[[1897,6893],[30,-5],[41,-18],[18,5],[29,22],[51,13],[12,13],[5,41],[13,16],[28,5],[66,-19]],[[1284,6621],[11,21],[-4,31],[-26,21],[-11,43],[16,66],[18,13],[9,32],[-11,27]],[[1452,7379],[5,22],[25,16],[46,62],[13,27],[20,24],[31,24],[24,47],[37,-1],[15,9]],[[1897,6893],[-55,4],[-23,14],[-28,35],[-58,-14],[-24,2],[7,53],[-22,5],[-31,-11],[-55,-48]],[[6135,2031],[10,25]],[[6145,2056],[4,10]],[[6149,2066],[16,0],[19,18]],[[6216,2084],[25,0]],[[6208,2025],[-40,2],[-4,-40],[-33,-6],[13,46],[-9,4]],[[6088,2095],[2,16],[57,2]],[[6147,2113],[6,-17],[-4,-30]],[[6145,2056],[-34,25]],[[6111,2081],[-23,14]],[[6148,2178],[-5,-55],[4,-10]],[[6088,2095],[-30,37],[-23,5],[-34,33]],[[6111,2081],[-9,-17],[-46,-11],[-38,-31]],[[6018,2022],[-11,73],[-11,-1]],[[6135,2031],[-23,-56]],[[6112,1975],[-85,-16],[-9,63]],[[6198,1835],[-11,15],[-48,34],[-27,91]],[[7395,12839],[348,7]],[[7743,12846],[143,3]],[[7886,12849],[2,-86],[210,3],[598,13]],[[8696,12779],[17,-412],[3,-82],[7,-116],[9,-200],[6,-212],[7,-118]],[[7330,11220],[-33,52],[-2,43],[16,39],[-5,53],[10,54],[22,30],[76,36],[17,29],[6,78],[13,22],[-7,192],[16,0],[37,197],[-82,-2],[-5,257],[-14,539]],[[2139,3187],[-55,-231],[-63,-344],[-306,-41],[-34,-9],[57,-341]],[[2371,1259],[77,-3],[194,-11],[158,-7],[99,1],[302,-7]],[[3292,677],[-257,11],[-402,18]],[[2633,706],[-219,5],[-15,122]],[[2399,833],[-41,262],[-27,165],[40,-1]],[[3550,110],[-297,9],[-549,22]],[[2704,141],[-28,248],[-43,317]],[[1335,817],[67,-11]],[[1402,806],[57,-10],[45,83],[298,-14]],[[1802,865],[19,-88],[84,-4],[8,-86],[127,-2],[-5,31],[57,1],[-6,49],[117,-4],[-7,71],[203,0]],[[2704,141],[-183,7],[-783,26],[-434,15]],[[1802,865],[23,73],[-5,52],[32,9],[-8,73],[46,-2],[-6,115],[1,120],[4,107],[-74,22],[46,96],[-36,10]],[[1825,1540],[17,30],[48,4]],[[1894,1664],[0,28],[142,15],[216,28]],[[2252,1735],[59,-355],[42,-3],[18,-118]],[[4234,1858],[342,59]],[[4634,1651],[29,-118],[8,-63],[15,-25],[57,1],[15,-22],[38,5],[3,-35],[-9,-50],[9,0],[14,-43],[-1,-20],[10,-44],[16,-25],[37,5]],[[4875,1217],[10,-51],[-50,-14],[-92,-18],[-66,-8]],[[4677,1126],[-29,179],[-234,-32],[-293,-41]],[[4340,682],[219,29],[178,22]],[[4837,65],[-278,12],[-310,10]],[[4230,208],[175,26],[-31,194],[-34,254]],[[5033,1242],[12,2],[-9,56],[24,3],[-8,54],[103,16],[33,11],[24,-2],[-26,86],[-13,32],[23,3],[-19,99],[-9,59],[28,6],[-19,81]],[[5351,1779],[160,26],[55,-286]],[[5566,1519],[-58,-34],[-63,-10],[-42,-2],[-18,-12],[-27,-38],[6,-38],[-19,-56],[-13,-51],[1,-43],[14,-63],[1,-32],[-43,-85],[-3,-30],[12,-76]],[[5209,991],[-18,72],[-59,10],[-18,66],[-70,-10],[-11,113]],[[4875,1217],[0,4],[158,21]],[[4690,1038],[-13,88]],[[5892,1512],[287,46]],[[5317,1996],[360,51]],[[6198,1835],[-32,-5],[-91,50],[-32,25],[-78,21],[-32,-25],[-23,-38],[-18,-47],[-65,-52]],[[5827,1764],[-10,53],[-30,75],[-62,77],[-78,-9],[-34,-13],[-80,-12],[-27,3],[-68,-30],[-66,-19],[-40,10]],[[5892,1512],[-10,14],[4,53],[-34,111],[-1,14],[-20,28],[-4,32]],[[5577,1460],[-11,59]],[[4340,682],[-121,-17]],[[6358,22],[-95,2]],[[6263,24],[-9,27],[-1,29]],[[6263,24],[-104,4]],[[6398,1735],[-139,-19]],[[9550,1512],[-16,-27],[-13,-53],[8,-33],[23,-53],[-28,-40]],[[9524,1306],[-75,56],[-102,29],[-62,-1]],[[1189,1567],[313,1]],[[1502,1568],[44,-113],[-21,-38],[-3,-24],[19,-12],[-9,-56],[-20,24],[-27,13],[-19,-23],[-26,-1],[-27,-16],[-37,-9],[-22,-24],[-18,-7],[10,-20],[32,-31],[13,-22],[4,-30],[17,9],[29,-35],[-1,-16],[-22,-21],[-2,-38],[12,-61],[-24,3],[-27,-21],[14,-30],[-7,-56],[9,-49],[-18,-16],[3,-24],[24,-18]],[[2252,1735],[-14,100],[1,58],[-39,1],[3,53],[172,-10],[3,46],[-7,10],[73,-1],[224,-8],[0,-4],[134,-10]],[[1825,1540],[-11,-21],[-25,20],[-45,0],[5,31],[-247,-2]],[[10078,2674],[23,-38],[-3,-43],[43,-1],[63,12],[24,22],[32,-8]],[[10260,2618],[-197,-261]],[[10063,2357],[-28,-37],[-111,23],[-48,25]],[[9080,2130],[2,-16],[43,-42],[-3,-40],[23,-26],[-10,-16],[3,-21],[-24,-10],[-6,-41],[-10,-6]],[[9896,1578],[11,18],[24,15],[35,2],[-11,26],[0,44]],[[9955,1683],[18,81],[29,-7],[12,30]],[[10014,1787],[29,32],[16,41]],[[10143,1976],[13,41],[2,31],[21,52],[19,20],[35,21],[28,25],[30,58],[137,-47],[139,-68],[28,-4],[75,-37],[165,-74],[47,-17],[64,-5],[55,22],[30,23]],[[11031,2017],[55,-79],[47,-90],[33,-79],[38,-156],[-64,-23],[-37,-7],[-72,-5],[-47,4],[-43,9],[-81,30],[-82,18],[-64,27],[-63,45],[-65,72],[-35,58],[-21,63],[-34,-71],[-49,-66],[-59,-48],[-37,-22],[7,-80],[-5,-58],[-7,-29],[3,-26],[-5,-63],[-9,-36],[-26,-69],[-9,-34],[-82,0],[-243,-10],[-121,-7]],[[9854,1285],[1,62],[13,57]],[[5399,4292],[11,-18]],[[7632,1138],[1,-13],[114,-152],[-7,-2],[-23,-122],[106,18],[37,-47]],[[7860,820],[-44,-53]],[[7416,798],[-6,11]],[[7505,622],[51,-92]],[[7556,530],[-41,-22],[-35,-41],[-25,35],[-47,-4],[-39,-22],[-40,-16],[-31,-21]],[[7556,530],[50,-88],[18,-22],[61,-99]],[[7685,321],[-149,41],[-76,-11],[-46,-18]],[[8354,1177],[61,85],[2,75],[68,103],[15,2],[104,1],[62,2]],[[8816,1227],[-106,-20],[-85,-19],[-77,-77],[-51,-112]],[[8497,999],[-180,113]],[[8317,1112],[-6,4],[43,61]],[[8030,1198],[100,-133],[11,-28],[-10,-41],[17,-12],[15,-44]],[[8163,940],[5,-14],[-21,-42]],[[8147,884],[-96,28],[-85,-39],[-106,-53]],[[8354,1177],[-68,16],[-106,112],[-37,35],[-49,-16]],[[9435,2008],[-79,-28]],[[5903,2584],[51,-277]],[[5561,2318],[-48,11],[-25,-2],[-65,10],[-15,34],[0,75],[11,53],[-16,40],[0,19],[25,53],[-25,41]],[[6088,2510],[-27,-29],[-8,-17],[-14,-72],[15,-31],[46,-53],[14,-48]],[[9228,3201],[-72,42],[-151,61]],[[10014,1787],[-32,11],[-16,-8],[-38,2],[-35,-16],[-66,-7]],[[9827,1769],[14,34],[42,24],[51,60]],[[9798,1717],[16,5],[46,-9],[26,-13],[69,-17]],[[9761,1684],[16,12],[3,23],[18,-2]],[[9798,1717],[20,24],[9,28]],[[10030,2951],[17,-25],[62,-16],[30,-27],[15,-31]],[[10031,2764],[31,27],[13,23],[17,51],[-78,76]],[[7454,13411],[210,6],[210,3]],[[7874,13420],[21,-53],[0,-33],[10,-44],[-7,-52],[-19,-84],[-24,-50],[-1,-16],[-24,-47],[-20,-13],[-15,13],[-24,-13]],[[7771,13028],[-21,-12],[-13,30],[-17,19],[-81,54],[-87,71],[-21,32],[-12,34],[-15,66],[-50,89]],[[6766,15381],[101,501],[129,62],[4,22],[59,290]],[[7059,16256],[75,369],[14,-3],[14,66],[374,-68],[404,-72],[21,114],[268,17],[253,4]],[[8482,16683],[41,-558],[24,-394],[11,-119],[27,-439],[5,-115],[22,-393],[27,-564],[9,-314],[6,-210],[9,-138],[10,-222],[7,-114],[16,-324]],[[7886,12849],[140,369],[37,103],[38,101],[-185,0],[-42,-2]],[[7454,13411],[-269,-10],[-400,-12]],[[6785,13389],[80,202],[57,141]],[[6922,13732],[49,124],[44,120],[-13,-1],[-22,254],[-19,-2],[-8,105],[20,3],[-3,94],[-6,241],[-15,611],[-200,20],[17,80]],[[7743,12846],[9,87],[41,57],[-22,38]],[[5070,12783],[179,-225],[482,257]],[[5731,12815],[75,-470],[31,-189],[-407,-62],[53,-309]],[[4473,12529],[21,6],[39,-8],[43,-36],[33,7],[17,40],[18,19],[55,7],[65,-11],[63,27],[53,46],[50,28],[10,26],[35,0],[6,15],[-19,40],[10,8],[46,3],[33,14],[19,23]],[[7059,16256],[-354,69],[-181,32],[-288,47],[-231,40],[-116,17]],[[5889,16461],[-16,22],[17,95],[-7,43],[-38,-5],[2,44],[-16,-1],[-11,26],[-26,22],[-5,27],[-23,5],[1,24],[-10,25],[15,56],[31,32],[35,21],[24,2],[34,14],[30,26],[23,3],[19,-10],[16,-22],[15,5],[42,-28],[14,11],[30,0],[12,38],[12,14],[59,19],[5,12],[-198,-2],[-8,31],[21,91],[20,11],[11,34],[7,52],[-13,19],[-20,-8],[-35,4],[-13,27],[5,25],[28,1],[13,24],[-11,19],[20,47],[-11,15],[-1,27],[19,6],[26,-5],[3,23],[16,14],[3,25],[14,2],[34,35],[40,-5],[18,13],[16,60],[13,-2],[22,44],[37,24],[16,40],[-8,19],[23,22],[25,-3],[9,22],[60,46],[17,34],[-13,48],[-21,33],[-19,12],[14,64],[39,31],[2,20],[15,39],[-5,18],[16,40],[17,14],[1,18],[24,44],[-9,13],[7,30],[21,10],[22,30],[15,34],[-9,19],[33,21],[13,36],[-31,74],[-72,22],[-9,25],[-118,80],[-26,41],[18,6],[31,-5],[39,-31],[42,-11],[17,23],[26,8],[27,32],[30,10],[33,-6],[40,-50],[29,-11],[22,38],[8,30],[16,17],[45,9],[30,14],[22,20],[13,21],[0,20],[-16,41],[-21,34],[16,26],[26,-13],[30,7],[15,18],[19,-5],[45,11],[19,22],[13,33],[56,12],[31,34],[44,7],[18,36],[22,31],[24,18],[30,-3],[17,16],[32,-10],[-2,-18],[12,-18],[44,14],[44,-20],[-7,-17],[14,-49],[8,-65],[20,-30],[19,1],[29,-17],[26,-6],[57,-58],[24,-51],[-10,-18],[14,-15],[52,26],[5,-17],[62,-1],[14,18],[26,10],[36,-3],[6,-20],[42,-27],[4,-23],[25,-14],[14,-19],[18,30],[19,13],[26,4],[37,29],[30,-15],[13,-16],[38,-26],[50,2],[35,13],[18,29],[11,38],[21,11],[-1,17],[29,41],[0,29],[16,17],[0,34],[32,10],[20,22],[4,23],[-26,21],[18,38],[21,22],[-6,17],[32,31],[8,19],[32,16],[49,10],[38,-405],[15,-335],[20,-290],[36,-601],[29,-503],[7,-173],[9,-129]],[[6766,15381],[-278,-35],[-171,-24],[-339,-44],[-580,-76]],[[5398,15202],[13,19],[27,14],[-5,21],[19,32],[54,19],[25,2],[15,28],[14,8],[13,29],[-9,35],[25,58],[-26,31],[-22,14],[0,15],[21,41],[46,24],[21,1],[24,73],[33,20],[-2,43],[-21,29],[-1,20],[46,49],[-13,21],[1,22],[20,29],[33,18],[28,4],[33,30],[5,34],[36,19],[19,33],[44,39],[-16,33],[30,14],[4,20],[23,15],[17,25],[25,-8],[0,31],[16,27],[-29,-4],[-28,52],[-50,58],[-6,23],[-14,19],[-2,23],[-30,24],[30,13],[5,20]],[[6922,13732],[-210,-111],[-331,-172],[2,-65],[-224,-118],[-1,16],[-48,-1],[0,-34],[-57,27],[-285,140],[-198,86],[-3,-2]],[[5567,13498],[-24,28],[-53,32],[-69,57],[8,41],[31,39],[88,-3],[41,-16],[39,4],[18,17],[-4,24],[12,12],[40,-8],[11,14],[-24,29],[-16,40],[18,0],[11,-18],[22,-3],[48,40],[11,28],[-28,14],[14,24],[-12,7],[-20,-15],[-22,3],[12,38],[-46,-27],[-5,33],[-40,20],[-2,20],[33,4],[12,14],[-1,30],[-15,62],[9,53],[16,18],[30,6],[-15,17],[-24,-4],[-25,28],[-27,16],[-4,19],[23,2],[11,20],[-24,38],[-5,38],[-24,7],[-11,-22],[-46,3],[15,26],[-16,14],[-22,-5],[-19,10],[-17,31],[15,18],[-1,18],[-15,24],[35,23],[-3,12],[-36,5],[-10,12],[-26,5],[-11,13],[15,20],[0,17],[-14,25],[-8,33],[20,39],[-37,17],[14,28],[-15,27],[-15,5],[-26,47],[-23,19],[0,19],[-35,22],[10,44],[-33,-6],[-19,8],[7,66],[-8,22],[7,17],[-11,31],[-23,11],[-6,18],[13,19],[30,3],[39,13],[27,24],[10,48],[28,9],[23,30]],[[7395,12839],[-47,-1],[-745,-24]],[[6603,12814],[-49,-1],[163,406],[68,170]],[[6603,12814],[13,-274],[-188,72],[-2,2],[-54,315],[-394,-56],[-184,-25],[-63,-33]],[[5070,12783],[18,56],[1,36],[10,31],[16,23],[45,-4],[19,15],[7,30],[-34,18],[-11,20],[7,17],[45,30],[26,23],[8,21],[22,3],[22,-15],[-10,-16],[-48,-16],[0,-14],[26,-17],[32,10],[29,68],[13,12],[43,-14],[53,12],[30,63],[1,41],[50,0],[-2,23],[36,-12],[11,27],[-28,22],[-21,50],[-29,20],[-13,30],[66,13],[19,19],[31,51],[7,39]],[[10283,2761],[179,12],[29,-221]],[[10491,2552],[-11,5]],[[10480,2557],[-49,32],[-23,38],[-48,3],[-32,22],[-28,1],[-40,-35]],[[7656,665],[-13,-70],[10,-46],[24,-44],[44,-12],[41,10]],[[7762,503],[12,-208],[-89,26]],[[8317,1112],[-18,-25],[-105,-122],[-31,-25]],[[7757,697],[-7,-9],[12,-185]],[[9854,1285],[-52,-11]],[[9802,1274],[-10,2],[-17,33],[-31,12],[-12,31],[25,39],[4,17]],[[9702,1726],[14,14],[2,54],[21,24],[12,26],[-10,78]],[[9802,1274],[-37,-16],[-40,-29],[-62,-28],[-139,105]],[[8727,2607],[159,-8],[-10,-26],[67,-6],[-3,29],[190,-10],[43,4]],[[9173,2590],[125,19]],[[10063,2357],[34,-38],[22,16],[45,4],[45,-17],[28,-5],[22,36],[59,-9],[33,4],[13,34],[48,47],[68,128]],[[10491,2552],[390,-431],[46,-32],[73,-22],[31,-50]],[[8497,999],[-59,-198],[-291,83]],[[9173,2590],[-30,49],[2,26],[-45,38],[-25,-5],[-52,34],[51,30]]],"transform":{"scale":[0.00017688736165655036,0.00013642036717401504],"translate":[-72.55694,42.697042]},"objects":{"Tract_33_2020":{"type":"GeometryCollection","geometries":[{"arcs":[[0,1,2,3,4]],"type":"Polygon","properties":{"id":"14000US33009960700"}},{"arcs":[[5,6,7,8,9,10]],"type":"Polygon","properties":{"id":"14000US33009961500"}},{"arcs":[[11,12,13,14,15,16,17]],"type":"Polygon","properties":{"id":"14000US33009960200"}},{"arcs":[[18,19,20,21,22,-2]],"type":"Polygon","properties":{"id":"14000US33009960500"}},{"arcs":[[23,24,-8,25]],"type":"Polygon","properties":{"id":"14000US33009961400"}},{"arcs":[[26,-19,-1,27]],"type":"Polygon","properties":{"id":"14000US33009960600"}},{"arcs":[[28,29,30,31,32]],"type":"Polygon","properties":{"id":"14000US33013032400"}},{"arcs":[[33,34,35,36,-29,37,38,39]],"type":"Polygon","properties":{"id":"14000US33013032800"}},{"arcs":[[40,41,42,43]],"type":"Polygon","properties":{"id":"14000US33013033000"}},{"arcs":[[-43,44,45,46,47,48]],"type":"Polygon","properties":{"id":"14000US33013034000"}},{"arcs":[[49,50,51,-45,-42,52]],"type":"Polygon","properties":{"id":"14000US33013035000"}},{"arcs":[[53,54,-53,-41,55,-34]],"type":"Polygon","properties":{"id":"14000US33013036000"}},{"arcs":[[56,57,58,59,60]],"type":"Polygon","properties":{"id":"14000US33001966401"}},{"arcs":[[61,62,63,64,65,66,67,68]],"type":"Polygon","properties":{"id":"14000US33015061001"}},{"arcs":[[69,70,71,72,73,74,75]],"type":"Polygon","properties":{"id":"14000US33015062500"}},{"arcs":[[76,77,78,79,80,81,82]],"type":"Polygon","properties":{"id":"14000US33015066000"}},{"arcs":[[83,84,85,-83,86,-63]],"type":"Polygon","properties":{"id":"14000US33015067000"}},{"arcs":[[87,88,89,90]],"type":"Polygon","properties":{"id":"14000US33015069100"}},{"arcs":[[-91,91,92,93]],"type":"Polygon","properties":{"id":"14000US33015069200"}},{"arcs":[[-47,94,95,96,97,98,99]],"type":"Polygon","properties":{"id":"14000US33015056000"}},{"arcs":[[-97,100,101,102]],"type":"Polygon","properties":{"id":"14000US33015055002"}},{"arcs":[[103,104,105,106,107,108,-73]],"type":"Polygon","properties":{"id":"14000US33015064000"}},{"arcs":[[109,110,111,112,113]],"type":"Polygon","properties":{"id":"14000US33015106102"}},{"arcs":[[114,115,116,117,118,119,120,121]],"type":"Polygon","properties":{"id":"14000US33015003301"}},{"arcs":[[-118,122,123,124,125,126]],"type":"Polygon","properties":{"id":"14000US33015003602"}},{"arcs":[[127,128,129,130,-115,131,132]],"type":"Polygon","properties":{"id":"14000US33015051000"}},{"arcs":[[-120,133,134,135]],"type":"Polygon","properties":{"id":"14000US33015003500"}},{"arcs":[[136,137,138,-126,139,140,-110,141]],"type":"Polygon","properties":{"id":"14000US33015106101"}},{"arcs":[[-132,-122,142,143,144]],"type":"Polygon","properties":{"id":"14000US33015003302"}},{"arcs":[[145,-98,-103,146,147,-129]],"type":"Polygon","properties":{"id":"14000US33015055001"}},{"arcs":[[-66,148,-70,149,150]],"type":"Polygon","properties":{"id":"14000US33015062000"}},{"arcs":[[151,152,153,154,155]],"type":"Polygon","properties":{"id":"14000US33015100200"}},{"arcs":[[-143,-121,-136,156,157]],"type":"Polygon","properties":{"id":"14000US33015003400"}},{"arcs":[[-134,-119,-127,-139,158]],"type":"Polygon","properties":{"id":"14000US33015003601"}},{"arcs":[[159,-133,-145,160,161,162,163]],"type":"Polygon","properties":{"id":"14000US33015004000"}},{"arcs":[[-99,-146,-128,-160,164]],"type":"Polygon","properties":{"id":"14000US33015050000"}},{"arcs":[[165,166,167,168,-116,-131]],"type":"Polygon","properties":{"id":"14000US33015052000"}},{"arcs":[[169,170,171,172]],"type":"Polygon","properties":{"id":"14000US33015067502"}},{"arcs":[[173,174,175,176]],"type":"Polygon","properties":{"id":"14000US33019975800"}},{"arcs":[[177,178,179,-174,180]],"type":"Polygon","properties":{"id":"14000US33019975901"}},{"arcs":[[181,182,183,-167]],"type":"Polygon","properties":{"id":"14000US33015053000"}},{"arcs":[[-148,184,185,186,-182,-166,-130]],"type":"Polygon","properties":{"id":"14000US33015054000"}},{"arcs":[[-46,-52,187,188,189,-95]],"type":"Polygon","properties":{"id":"14000US33015057000"}},{"arcs":[[-190,190,191,192,-101,-96]],"type":"Polygon","properties":{"id":"14000US33015058000"}},{"arcs":[[-102,-193,193,194,195,-69,196,-185,-147]],"type":"Polygon","properties":{"id":"14000US33015059000"}},{"arcs":[[-197,-68,197,-186]],"type":"Polygon","properties":{"id":"14000US33015060000"}},{"arcs":[[198,-18,199,-20,-27,200]],"type":"Polygon","properties":{"id":"14000US33009960300"}},{"arcs":[[-9,-25,201,202,203,204,205]],"type":"Polygon","properties":{"id":"14000US33009961300"}},{"arcs":[[206,207,208,-26,209,210]],"type":"Polygon","properties":{"id":"14000US33009961601"}},{"arcs":[[-4,211,212,213,-202,-24,-209,214]],"type":"Polygon","properties":{"id":"14000US33009960900"}},{"arcs":[[215,216,217,218,219,220,221]],"type":"Polygon","properties":{"id":"14000US33017080202"}},{"arcs":[[222,-11,223,-178,224]],"type":"Polygon","properties":{"id":"14000US33019975100"}},{"arcs":[[225,226,227,228,229,230]],"type":"Polygon","properties":{"id":"14000US33019975600"}},{"arcs":[[-176,231,-226,232,233]],"type":"Polygon","properties":{"id":"14000US33019975700"}},{"arcs":[[-175,-180,234,-227,-232]],"type":"Polygon","properties":{"id":"14000US33019975902"}},{"arcs":[[235,236,237,238,239,240,241]],"type":"Polygon","properties":{"id":"14000US33013040502"}},{"arcs":[[242,243,-237,244]],"type":"Polygon","properties":{"id":"14000US33013041001"}},{"arcs":[[-241,245,246,247,248,249]],"type":"Polygon","properties":{"id":"14000US33013040501"}},{"arcs":[[-35,-56,-44,-49,250,251,252]],"type":"Polygon","properties":{"id":"14000US33013003202"}},{"arcs":[[253,254,-238,-244]],"type":"Polygon","properties":{"id":"14000US33013041002"}},{"arcs":[[-252,255,256,257]],"type":"Polygon","properties":{"id":"14000US33013003201"}},{"arcs":[[258,259,260,261,-218,262,263]],"type":"Polygon","properties":{"id":"14000US33017081200"}},{"arcs":[[264,265,266,267]],"type":"Polygon","properties":{"id":"14000US33005971300"}},{"arcs":[[268,269,-267,270,271]],"type":"Polygon","properties":{"id":"14000US33005971402"}},{"arcs":[[272,273,274,275,276,277]],"type":"Polygon","properties":{"id":"14000US33003955500"}},{"arcs":[[278,279,280,281,282]],"type":"Polygon","properties":{"id":"14000US33013031002"}},{"arcs":[[283,-165,-164,284,285,286]],"type":"Polygon","properties":{"id":"14000US33013044200"}},{"arcs":[[287,288,289,290,291]],"type":"Polygon","properties":{"id":"14000US33013044300"}},{"arcs":[[292,-36,-253,-258,293,294,295]],"type":"Polygon","properties":{"id":"14000US33013044100"}},{"arcs":[[296,297,298,299,300]],"type":"Polygon","properties":{"id":"14000US33003956102"}},{"arcs":[[301,302,303,304,-57,305,306,307]],"type":"Polygon","properties":{"id":"14000US33003956301"}},{"arcs":[[-276,308,309,310]],"type":"Polygon","properties":{"id":"14000US33003955802"}},{"arcs":[[311,312,313,-303]],"type":"Polygon","properties":{"id":"14000US33003956302"}},{"arcs":[[314,315,316,317,318,-16]],"type":"Polygon","properties":{"id":"14000US33003955101"}},{"arcs":[[319,320,321,-278,322,323,324]],"type":"Polygon","properties":{"id":"14000US33003955602"}},{"arcs":[[325,-317,326,327,328,329]],"type":"Polygon","properties":{"id":"14000US33003955301"}},{"arcs":[[-330,330,331,-321,332]],"type":"Polygon","properties":{"id":"14000US33003955302"}},{"arcs":[[-310,333,334,335,336]],"type":"Polygon","properties":{"id":"14000US33003955801"}},{"arcs":[[337,-324,338,-312,-302,339,340,341]],"type":"Polygon","properties":{"id":"14000US33003955601"}},{"arcs":[[-318,-326,-333,-320,342]],"type":"Polygon","properties":{"id":"14000US33003955102"}},{"arcs":[[-336,343,-297,344,345,346]],"type":"Polygon","properties":{"id":"14000US33003955902"}},{"arcs":[[347,-273,-322,-332]],"type":"Polygon","properties":{"id":"14000US33003955401"}},{"arcs":[[-339,-323,-277,-311,-337,-347,348,-313]],"type":"Polygon","properties":{"id":"14000US33003955901"}},{"arcs":[[-331,-329,349,-274,-348]],"type":"Polygon","properties":{"id":"14000US33003955402"}},{"arcs":[[-345,-301,350,351,352]],"type":"Polygon","properties":{"id":"14000US33003956101"}},{"arcs":[[353,354,355,356]],"type":"Polygon","properties":{"id":"14000US33015107400"}},{"arcs":[[357,358,359,360,361,-106]],"type":"Polygon","properties":{"id":"14000US33015065008"}},{"arcs":[[362,363,364,365,366]],"type":"Polygon","properties":{"id":"14000US33011002500"}},{"arcs":[[367,-366,368,369,370,371,372,373,374,375,376,377]],"type":"Polygon","properties":{"id":"14000US33011002600"}},{"arcs":[[378,379,380,381,382]],"type":"Polygon","properties":{"id":"14000US33011010100"}},{"arcs":[[383,384,385,386,387,388,389,390]],"type":"Polygon","properties":{"id":"14000US33011000202"}},{"arcs":[[391,-388]],"type":"Polygon","properties":{"id":"14000US33011000300"}},{"arcs":[[392,393,394,395]],"type":"Polygon","properties":{"id":"14000US33011010302"}},{"arcs":[[396,397,-396,398,399]],"type":"Polygon","properties":{"id":"14000US33011010301"}},{"arcs":[[400,401,402,403,404]],"type":"Polygon","properties":{"id":"14000US33011000600"}},{"arcs":[[405,406,407,-401]],"type":"Polygon","properties":{"id":"14000US33011000700"}},{"arcs":[[408,-382,409,410,411,412,413,-394]],"type":"Polygon","properties":{"id":"14000US33011010400"}},{"arcs":[[414,-412,415,416,417,418,419]],"type":"Polygon","properties":{"id":"14000US33011010600"}},{"arcs":[[420,421,422]],"type":"Polygon","properties":{"id":"14000US33019975401"}},{"arcs":[[423,-423,424,425,-228,-235,-179]],"type":"Polygon","properties":{"id":"14000US33019975402"}},{"arcs":[[-419,426,427,428]],"type":"Polygon","properties":{"id":"14000US33011010700"}},{"arcs":[[429,430,431,432,433,434]],"type":"Polygon","properties":{"id":"14000US33011011200"}},{"arcs":[[435,436,437,438,439]],"type":"Polygon","properties":{"id":"14000US33011010900"}},{"arcs":[[440,-427,-418,441,442,443,-431,-438]],"type":"Polygon","properties":{"id":"14000US33011011000"}},{"arcs":[[444,445,446,-435,447,448]],"type":"Polygon","properties":{"id":"14000US33011011401"}},{"arcs":[[449,450,451,452]],"type":"Polygon","properties":{"id":"14000US33011025000"}},{"arcs":[[453,454,455,456,457,-407,458]],"type":"Polygon","properties":{"id":"14000US33011000901"}},{"arcs":[[459,-285,-163,460,461,-455]],"type":"Polygon","properties":{"id":"14000US33011000902"}},{"arcs":[[-461,-162,462,-370,463]],"type":"Polygon","properties":{"id":"14000US33011001000"}},{"arcs":[[-169,464,465,-123,-117]],"type":"Polygon","properties":{"id":"14000US33015104102"}},{"arcs":[[-168,-184,466,467,468,-465]],"type":"Polygon","properties":{"id":"14000US33015104101"}},{"arcs":[[-371,-463,-161,-144,-158,469,470,471,-374,472]],"type":"Polygon","properties":{"id":"14000US33015003703"}},{"arcs":[[-472,473,474,475,476,477,-375]],"type":"Polygon","properties":{"id":"14000US33015003802"}},{"arcs":[[478,479,480,-137,481,-475]],"type":"Polygon","properties":{"id":"14000US33015003902"}},{"arcs":[[-471,482,-479,-474]],"type":"Polygon","properties":{"id":"14000US33015003801"}},{"arcs":[[483,-135,-159,-138,-481]],"type":"Polygon","properties":{"id":"14000US33015003901"}},{"arcs":[[-157,-484,-480,-483,-470]],"type":"Polygon","properties":{"id":"14000US33015003701"}},{"arcs":[[-171,484,-219,-262,485,486,487,-357,488,489,-77,-86,490]],"type":"Polygon","properties":{"id":"14000US33015107500"}},{"arcs":[[491,492,493]],"type":"Polygon","properties":{"id":"14000US33011016204"}},{"arcs":[[494,495,496,497,498]],"type":"Polygon","properties":{"id":"14000US33011018002"}},{"arcs":[[499,500,501,502,503]],"type":"Polygon","properties":{"id":"14000US33011021002"}},{"arcs":[[504,505,506,507,508,509,510,511,512,513,514]],"type":"Polygon","properties":{"id":"14000US33011022502"}},{"arcs":[[515,516,517,518,519]],"type":"Polygon","properties":{"id":"14000US33011000103"}},{"arcs":[[520,-459,-406,-405,521,-518]],"type":"Polygon","properties":{"id":"14000US33011000104"}},{"arcs":[[522,523,524,-409,-393,-398,525]],"type":"Polygon","properties":{"id":"14000US33011010202"}},{"arcs":[[-414,526,-420,-429,527,-436,528]],"type":"Polygon","properties":{"id":"14000US33011010802"}},{"arcs":[[529,530,531,532,-410,-381]],"type":"Polygon","properties":{"id":"14000US33011012101"}},{"arcs":[[-400,533,-449,534,-497,535]],"type":"Polygon","properties":{"id":"14000US33011017101"}},{"arcs":[[-512,536,537]],"type":"Polygon","properties":{"id":"14000US33011022501"}},{"arcs":[[538,-383,-525]],"type":"Polygon","properties":{"id":"14000US33011010201"}},{"arcs":[[-533,539,540,-416,-411]],"type":"Polygon","properties":{"id":"14000US33011012202"}},{"arcs":[[-540,-532,541,-114,542,543,544,545]],"type":"Polygon","properties":{"id":"14000US33011012301"}},{"arcs":[[546,547,548,-526,-397,-536,-496]],"type":"Polygon","properties":{"id":"14000US33011017102"}},{"arcs":[[549,550,551,552,-523,-549,553]],"type":"Polygon","properties":{"id":"14000US33011014302"}},{"arcs":[[554,555,556,557]],"type":"Polygon","properties":{"id":"14000US33011002802"}},{"arcs":[[-248,558,559,560]],"type":"Polygon","properties":{"id":"14000US33011025501"}},{"arcs":[[561,-545,562,563,-443]],"type":"Polygon","properties":{"id":"14000US33011012302"}},{"arcs":[[564,565,566,567]],"type":"Polygon","properties":{"id":"14000US33011200201"}},{"arcs":[[-112,568,569,-565,570]],"type":"Polygon","properties":{"id":"14000US33011200500"}},{"arcs":[[571,572,573,574,-493]],"type":"Polygon","properties":{"id":"14000US33011016203"}},{"arcs":[[575,-539,-524,-553]],"type":"Polygon","properties":{"id":"14000US33011014301"}},{"arcs":[[-376,-478,576,577,578]],"type":"Polygon","properties":{"id":"14000US33011013102"}},{"arcs":[[-515,579,580,581]],"type":"Polygon","properties":{"id":"14000US33011023001"}},{"arcs":[[582,-377,-579,583,584]],"type":"Polygon","properties":{"id":"14000US33011014101"}},{"arcs":[[-543,-113,-571,-568,585]],"type":"Polygon","properties":{"id":"14000US33011200101"}},{"arcs":[[586,-499,587,588]],"type":"Polygon","properties":{"id":"14000US33011018001"}},{"arcs":[[-577,-477,589,-530,-380,590]],"type":"Polygon","properties":{"id":"14000US33011013101"}},{"arcs":[[-476,-482,-142,-542,-531,-590]],"type":"Polygon","properties":{"id":"14000US33011012102"}},{"arcs":[[591,592,-505,-582,593]],"type":"Polygon","properties":{"id":"14000US33011023002"}},{"arcs":[[-528,-428,-441,-437]],"type":"Polygon","properties":{"id":"14000US33011010801"}},{"arcs":[[-557,594,595,596]],"type":"Polygon","properties":{"id":"14000US33011002801"}},{"arcs":[[597,598,599,-504,600]],"type":"Polygon","properties":{"id":"14000US33011021001"}},{"arcs":[[601,-249,-561,602,-450,603]],"type":"Polygon","properties":{"id":"14000US33011025502"}},{"arcs":[[-552,-584,-578,-591,-379,-576]],"type":"Polygon","properties":{"id":"14000US33011014102"}},{"arcs":[[-417,-541,-546,-562,-442]],"type":"Polygon","properties":{"id":"14000US33011012201"}},{"arcs":[[-439,-430,-447,604]],"type":"Polygon","properties":{"id":"14000US33011011300"}},{"arcs":[[-399,-395,-529,605,-445,-534]],"type":"Polygon","properties":{"id":"14000US33011011500"}},{"arcs":[[606,-340,-308,607,608,609,610]],"type":"Polygon","properties":{"id":"14000US33009961102"}},{"arcs":[[-609,611,612,613]],"type":"Polygon","properties":{"id":"14000US33009961101"}},{"arcs":[[614,615,616,-204]],"type":"Polygon","properties":{"id":"14000US33009961201"}},{"arcs":[[-214,617,-613,618,-615,-203]],"type":"Polygon","properties":{"id":"14000US33009961202"}},{"arcs":[[619,620,-610,-614,-618,-213]],"type":"Polygon","properties":{"id":"14000US33009961002"}},{"arcs":[[-456,-462,-464,-369,-365,621,622,623]],"type":"Polygon","properties":{"id":"14000US33011001100"}},{"arcs":[[-457,-624,624,625,626]],"type":"Polygon","properties":{"id":"14000US33011001200"}},{"arcs":[[-59,627,628,629]],"type":"Polygon","properties":{"id":"14000US33001966403"}},{"arcs":[[-629,630,631,632,633]],"type":"Polygon","properties":{"id":"14000US33001966404"}},{"arcs":[[634,635,-550,636]],"type":"Polygon","properties":{"id":"14000US33011014201"}},{"arcs":[[637,-627,638,639,640]],"type":"Polygon","properties":{"id":"14000US33011001300"}},{"arcs":[[-403,-641,641,642,643]],"type":"Polygon","properties":{"id":"14000US33011001400"}},{"arcs":[[-639,-626,644,645,646,647]],"type":"Polygon","properties":{"id":"14000US33011001600"}},{"arcs":[[-625,-623,648,-645]],"type":"Polygon","properties":{"id":"14000US33011001700"}},{"arcs":[[-646,-649,-622,-364,649]],"type":"Polygon","properties":{"id":"14000US33011001800"}},{"arcs":[[650,651,652,653,654,-188,-51]],"type":"Polygon","properties":{"id":"14000US33017086000"}},{"arcs":[[655,656,657,658]],"type":"Polygon","properties":{"id":"14000US33017083001"}},{"arcs":[[659,660,661,662,663,664]],"type":"Polygon","properties":{"id":"14000US33017088000"}},{"arcs":[[665,-494,-575,666,-547,-495,-587,667,668]],"type":"Polygon","properties":{"id":"14000US33011016202"}},{"arcs":[[-502,669,670,671,672,673,674,675]],"type":"Polygon","properties":{"id":"14000US33011020000"}},{"arcs":[[676,677,-506,-593,678]],"type":"Polygon","properties":{"id":"14000US33011022000"}},{"arcs":[[-17,-319,-343,-325,-338,679,-21,-200]],"type":"Polygon","properties":{"id":"14000US33009960402"}},{"arcs":[[680,-611,-621,681]],"type":"Polygon","properties":{"id":"14000US33009961001"}},{"arcs":[[-23,682,683,-682,-620,-212,-3]],"type":"Polygon","properties":{"id":"14000US33009960802"}},{"arcs":[[-22,-680,-342,684,-683]],"type":"Polygon","properties":{"id":"14000US33009960401"}},{"arcs":[[685,-12,-199,686]],"type":"Polygon","properties":{"id":"14000US33009960102"}},{"arcs":[[687,688,-13,-686]],"type":"Polygon","properties":{"id":"14000US33009960101"}},{"arcs":[[-684,-685,-341,-607,-681]],"type":"Polygon","properties":{"id":"14000US33009960801"}},{"arcs":[[689,-211,690,691,692]],"type":"Polygon","properties":{"id":"14000US33009961604"}},{"arcs":[[693,-452,694,-679,-592,695]],"type":"Polygon","properties":{"id":"14000US33011024000"}},{"arcs":[[696,-306,-61,697,698]],"type":"Polygon","properties":{"id":"14000US33001965200"}},{"arcs":[[699,-632,700,701,-55,702]],"type":"Polygon","properties":{"id":"14000US33001965600"}},{"arcs":[[703,704,705,706]],"type":"Polygon","properties":{"id":"14000US33001966100"}},{"arcs":[[-619,-612,-608,-307,-697,707,708,709,-616]],"type":"Polygon","properties":{"id":"14000US33001965100"}},{"arcs":[[710,711,712,713,714,715,-709]],"type":"Polygon","properties":{"id":"14000US33001965400"}},{"arcs":[[-707,716,717,-712,718]],"type":"Polygon","properties":{"id":"14000US33001966000"}},{"arcs":[[-708,-699,719,-704,-719,-711]],"type":"Polygon","properties":{"id":"14000US33001965300"}},{"arcs":[[-698,-60,-630,720,-705,-720]],"type":"Polygon","properties":{"id":"14000US33001966200"}},{"arcs":[[-714,721,722,723,724]],"type":"Polygon","properties":{"id":"14000US33001965598"}},{"arcs":[[-702,725,-651,-50]],"type":"Polygon","properties":{"id":"14000US33001965700"}},{"arcs":[[726,-663,727,728,729,730]],"type":"Polygon","properties":{"id":"14000US33017084201"}},{"arcs":[[731,-664,-727,732,-652,733]],"type":"Polygon","properties":{"id":"14000US33017087002"}},{"arcs":[[-730,734,735,736,737]],"type":"Polygon","properties":{"id":"14000US33017084302"}},{"arcs":[[-737,738,739]],"type":"Polygon","properties":{"id":"14000US33017084301"}},{"arcs":[[740,741,742,743,744,-654]],"type":"Polygon","properties":{"id":"14000US33017085001"}},{"arcs":[[745,746,-264,747,748]],"type":"Polygon","properties":{"id":"14000US33017081101"}},{"arcs":[[-706,-721,-634,749,-717]],"type":"Polygon","properties":{"id":"14000US33001965900"}},{"arcs":[[-655,-745,750,-191,-189]],"type":"Polygon","properties":{"id":"14000US33017085002"}},{"arcs":[[-263,-217,751,-748]],"type":"Polygon","properties":{"id":"14000US33017081102"}},{"arcs":[[-665,-732,752]],"type":"Polygon","properties":{"id":"14000US33017087001"}},{"arcs":[[753,754,-735,-729]],"type":"Polygon","properties":{"id":"14000US33017084202"}},{"arcs":[[755,-220,-485,-170,756,757]],"type":"Polygon","properties":{"id":"14000US33017080100"}},{"arcs":[[-10,-206,758,-254,-243,759,-421,-424,-224]],"type":"Polygon","properties":{"id":"14000US33019975200"}},{"arcs":[[-422,-760,-245,-236,760,-425]],"type":"Polygon","properties":{"id":"14000US33019975300"}},{"arcs":[[-426,-761,-242,-250,-602,761,762,-229]],"type":"Polygon","properties":{"id":"14000US33019975500"}},{"arcs":[[-751,-744,763,-749,-752,-216,764,765,-758,766,-194,-192]],"type":"Polygon","properties":{"id":"14000US33017080500"}},{"arcs":[[767,768,-259,-747]],"type":"Polygon","properties":{"id":"14000US33017081300"}},{"arcs":[[769,770,771,-260,-769]],"type":"Polygon","properties":{"id":"14000US33017081400"}},{"arcs":[[772,773,-770,774]],"type":"Polygon","properties":{"id":"14000US33017081500"}},{"arcs":[[-743,775,776,777,-775,-768,-746,-764]],"type":"Polygon","properties":{"id":"14000US33017081600"}},{"arcs":[[778,-658,779,-771,-774]],"type":"Polygon","properties":{"id":"14000US33017082000"}},{"arcs":[[780,-659,-779,-773,-778]],"type":"Polygon","properties":{"id":"14000US33017083002"}},{"arcs":[[-739,-736,-755,781,-656,-781,-777,782,783]],"type":"Polygon","properties":{"id":"14000US33017084100"}},{"arcs":[[-738,-740,-784,784,785]],"type":"Polygon","properties":{"id":"14000US33017084400"}},{"arcs":[[-785,-783,-776,-742,786]],"type":"Polygon","properties":{"id":"14000US33017084500"}},{"arcs":[[-731,-786,-787,-741,-653,-733]],"type":"Polygon","properties":{"id":"14000US33017084600"}},{"arcs":[[-299,787,-660,-753,-734,788,789]],"type":"Polygon","properties":{"id":"14000US33017088500"}},{"arcs":[[-30,-37,-293]],"type":"Polygon","properties":{"id":"14000US33013032900"}},{"arcs":[[790,-703,-54,-40,791,792]],"type":"Polygon","properties":{"id":"14000US33013037000"}},{"arcs":[[793,794,795,-793,796,797,798]],"type":"Polygon","properties":{"id":"14000US33013038000"}},{"arcs":[[-247,799,800,-598,801,-559]],"type":"Polygon","properties":{"id":"14000US33013040000"}},{"arcs":[[-265,802,803,804,805]],"type":"Polygon","properties":{"id":"14000US33005971100"}},{"arcs":[[806,807,808]],"type":"Polygon","properties":{"id":"14000US33005971600"}},{"arcs":[[809,810,811,812,-808]],"type":"Polygon","properties":{"id":"14000US33005971700"}},{"arcs":[[813,814,-803,-268,-270]],"type":"Polygon","properties":{"id":"14000US33005971000"}},{"arcs":[[815,816,-272,817,818,-810,-807,819]],"type":"Polygon","properties":{"id":"14000US33005971500"}},{"arcs":[[-233,-231,820,-816,821]],"type":"Polygon","properties":{"id":"14000US33005970200"}},{"arcs":[[822,-724,823,-795,824]],"type":"Polygon","properties":{"id":"14000US33013043001"}},{"arcs":[[825,-282,826,827,828,829,-500,-600]],"type":"Polygon","properties":{"id":"14000US33013030000"}},{"arcs":[[830,831,-291,832,-283,-826,-599,-801]],"type":"Polygon","properties":{"id":"14000US33013039000"}},{"arcs":[[833,-32,834,835,836,-279,-833,-290]],"type":"Polygon","properties":{"id":"14000US33013032500"}},{"arcs":[[-205,-617,-710,-716,837,838,839,-239,-255,-759]],"type":"Polygon","properties":{"id":"14000US33013041500"}},{"arcs":[[-828,840,841,-287,842,-516,843,844,845]],"type":"Polygon","properties":{"id":"14000US33013003001"}},{"arcs":[[-824,-723,846,847,-791,-796]],"type":"Polygon","properties":{"id":"14000US33013044000"}},{"arcs":[[848,-38,-33,-834,-289]],"type":"Polygon","properties":{"id":"14000US33013032600"}},{"arcs":[[-838,-715,-725,-823,849]],"type":"Polygon","properties":{"id":"14000US33013043002"}},{"arcs":[[-850,-825,-794,850,-839]],"type":"Polygon","properties":{"id":"14000US33013042500"}},{"arcs":[[-840,-851,-799,851,-831,-800,-246,-240]],"type":"Polygon","properties":{"id":"14000US33013038500"}},{"arcs":[[-256,-251,-48,-100,-284,-842,852]],"type":"Polygon","properties":{"id":"14000US33013003100"}},{"arcs":[[853,854,-280,-837]],"type":"Polygon","properties":{"id":"14000US33013032100"}},{"arcs":[[855,-295,856,-854,-836]],"type":"Polygon","properties":{"id":"14000US33013032200"}},{"arcs":[[-296,-856,-835,-31]],"type":"Polygon","properties":{"id":"14000US33013032300"}},{"arcs":[[-750,-633,-700,-848,857]],"type":"Polygon","properties":{"id":"14000US33001965802"}},{"arcs":[[-570,858,859,-566]],"type":"Polygon","properties":{"id":"14000US33011200300"}},{"arcs":[[-713,-718,-858,-847,-722]],"type":"Polygon","properties":{"id":"14000US33001965801"}},{"arcs":[[-305,860,-352,861,-789,-726,-701,-631,-628,-58]],"type":"Polygon","properties":{"id":"14000US33001966501"}},{"arcs":[[-351,-300,-790,-862]],"type":"Polygon","properties":{"id":"14000US33001966502"}},{"arcs":[[-344,-335,862,-661,-788,-298]],"type":"Polygon","properties":{"id":"14000US33003956000"}},{"arcs":[[-692,863,864,865]],"type":"Polygon","properties":{"id":"14000US33009961702"}},{"arcs":[[-865,866,867,868,-6,-223,869]],"type":"Polygon","properties":{"id":"14000US33009961801"}},{"arcs":[[-207,-690,870]],"type":"Polygon","properties":{"id":"14000US33009961603"}},{"arcs":[[-691,-210,-7,-869,871,-867,-864]],"type":"Polygon","properties":{"id":"14000US33009961701"}},{"arcs":[[-872,-868]],"type":"Polygon","properties":{"id":"14000US33009961802"}},{"arcs":[[872,873,874,-643,875,-647,-650,-363,876]],"type":"Polygon","properties":{"id":"14000US33011001900"}},{"arcs":[[877,878,-874,879,880]],"type":"Polygon","properties":{"id":"14000US33011002000"}},{"arcs":[[-389,-392,-387,881,-878,882]],"type":"Polygon","properties":{"id":"14000US33011002100"}},{"arcs":[[-390,-883,-881,883,884,-555]],"type":"Polygon","properties":{"id":"14000US33011002200"}},{"arcs":[[-884,-880,-873,885,886]],"type":"Polygon","properties":{"id":"14000US33011002300"}},{"arcs":[[-877,-367,-368,887,-886]],"type":"Polygon","properties":{"id":"14000US33011002400"}},{"arcs":[[888,889,890,891,-327,-316,892]],"type":"Polygon","properties":{"id":"14000US33007950900"}},{"arcs":[[-763,893,-814,-269,-817,-821,-230]],"type":"Polygon","properties":{"id":"14000US33005970100"}},{"arcs":[[894,-580,-514,895,896,897]],"type":"Polygon","properties":{"id":"14000US33005970500"}},{"arcs":[[-896,-513,-538,898,899]],"type":"Polygon","properties":{"id":"14000US33005970600"}},{"arcs":[[900,901,902,-897,-900,903,-812]],"type":"Polygon","properties":{"id":"14000US33005970700"}},{"arcs":[[904,905,-805,906,907,-898,-903]],"type":"Polygon","properties":{"id":"14000US33005970800"}},{"arcs":[[908,-675,909,910,911,-507,-678]],"type":"Polygon","properties":{"id":"14000US33011019501"}},{"arcs":[[912,-668,-589,913,-510,914]],"type":"Polygon","properties":{"id":"14000US33011018502"}},{"arcs":[[915,-673,916,917,-573,918]],"type":"Polygon","properties":{"id":"14000US33011015100"}},{"arcs":[[-911,919,-919,-572,-492,-666,920]],"type":"Polygon","properties":{"id":"14000US33011016100"}},{"arcs":[[921,-585,-551,-636]],"type":"Polygon","properties":{"id":"14000US33011014202"}},{"arcs":[[922,-595,-556,-885,-887,-888,923,924,-671]],"type":"Polygon","properties":{"id":"14000US33011002902"}},{"arcs":[[-408,-458,-638,-402]],"type":"Polygon","properties":{"id":"14000US33011000800"}},{"arcs":[[-415,-527,-413]],"type":"Polygon","properties":{"id":"14000US33011010500"}},{"arcs":[[-924,-378,-583,-922,925]],"type":"Polygon","properties":{"id":"14000US33011002901"}},{"arcs":[[-451,-603,-560,-802,-601,-503,-676,-909,-677,-695]],"type":"Polygon","properties":{"id":"14000US33011021500"}},{"arcs":[[-640,-648,-876,-642]],"type":"Polygon","properties":{"id":"14000US33011001500"}},{"arcs":[[-606,-440,-605,-446]],"type":"Polygon","properties":{"id":"14000US33011011402"}},{"arcs":[[-925,-926,-635,926,-917,-672]],"type":"Polygon","properties":{"id":"14000US33011002903"}},{"arcs":[[-912,-921,-669,-913,927,-508]],"type":"Polygon","properties":{"id":"14000US33011019000"}},{"arcs":[[-444,-564,928,929,-432]],"type":"Polygon","properties":{"id":"14000US33011011102"}},{"arcs":[[-674,-916,-920,-910]],"type":"Polygon","properties":{"id":"14000US33011019502"}},{"arcs":[[-930,930,-433]],"type":"Polygon","properties":{"id":"14000US33011011101"}},{"arcs":[[-928,-915,-509]],"type":"Polygon","properties":{"id":"14000US33011018501"}},{"arcs":[[931,-372]],"type":"Polygon","properties":{"id":"14000US33011980101"}},{"arcs":[[-519,-522,-404,-644,-875,-879,-882,-386]],"type":"Polygon","properties":{"id":"14000US33011200400"}},{"arcs":[[-932,-473,-373]],"type":"Polygon","properties":{"id":"14000US33015980011"}},{"arcs":[[-109,932,933,-74]],"type":"Polygon","properties":{"id":"14000US33015063001"}},{"arcs":[[-819,934,935,-901,-811]],"type":"Polygon","properties":{"id":"14000US33005970902"}},{"arcs":[[-696,-594,-581,-895,-908,936]],"type":"Polygon","properties":{"id":"14000US33005970401"}},{"arcs":[[-762,-604,-453,-694,-937,-907,-804,-815,-894]],"type":"Polygon","properties":{"id":"14000US33005970402"}},{"arcs":[[-266,-806,-906,937,-935,-818,-271]],"type":"Polygon","properties":{"id":"14000US33005971403"}},{"arcs":[[-938,-905,-902,-936]],"type":"Polygon","properties":{"id":"14000US33005970901"}},{"arcs":[[-93,938,939,940,-489,-356]],"type":"Polygon","properties":{"id":"14000US33015107200"}},{"arcs":[[941,-71,-149,-65]],"type":"Polygon","properties":{"id":"14000US33015106200"}},{"arcs":[[-361,942,943,944,-79,945,946,947]],"type":"Polygon","properties":{"id":"14000US33015990000"}},{"arcs":[[-927,-637,-554,-548,-667,-574,-918]],"type":"Polygon","properties":{"id":"14000US33011015200"}},{"arcs":[[-852,-798,948,-292,-832]],"type":"Polygon","properties":{"id":"14000US33013032701"}},{"arcs":[[-797,-792,-39,-849,-288,-949]],"type":"Polygon","properties":{"id":"14000US33013032706"}},{"arcs":[[-855,-857,-294,-257,-853,-841,-827,-281]],"type":"Polygon","properties":{"id":"14000US33013031001"}},{"arcs":[[-843,-286,-460,-454,-521,-517]],"type":"Polygon","properties":{"id":"14000US33013003006"}},{"arcs":[[-140,-125,949,950,-152,951]],"type":"Polygon","properties":{"id":"14000US33015100100"}},{"arcs":[[-141,-952,-156,952,953,-569,-111]],"type":"Polygon","properties":{"id":"14000US33015100301"}},{"arcs":[[954,955,-859,-954]],"type":"Polygon","properties":{"id":"14000US33015100302"}},{"arcs":[[956,-150,-76,957,958,959]],"type":"Polygon","properties":{"id":"14000US33015102100"}},{"arcs":[[-466,-469,960,961,962,-950,-124]],"type":"Polygon","properties":{"id":"14000US33015103100"}},{"arcs":[[-183,-187,-198,-67,-151,-957,963,-467]],"type":"Polygon","properties":{"id":"14000US33015105100"}},{"arcs":[[-314,-349,-346,-353,-861,-304]],"type":"Polygon","properties":{"id":"14000US33003956400"}},{"arcs":[[-64,-87,964,-104,-72,-942]],"type":"Polygon","properties":{"id":"14000US33015106400"}},{"arcs":[[-829,-846,965,-391,-558,-597,966]],"type":"Polygon","properties":{"id":"14000US33011002702"}},{"arcs":[[-830,-967,-596,-923,-670,-501]],"type":"Polygon","properties":{"id":"14000US33011002701"}},{"arcs":[[-845,967,-384,-966]],"type":"Polygon","properties":{"id":"14000US33011000204"}},{"arcs":[[-844,-520,-385,-968]],"type":"Polygon","properties":{"id":"14000US33011000203"}},{"arcs":[[-222,968,-765]],"type":"Polygon","properties":{"id":"14000US33017080204"}},{"arcs":[[-969,-221,-756,-766]],"type":"Polygon","properties":{"id":"14000US33017080203"}},{"arcs":[[-80,-945,969,970]],"type":"Polygon","properties":{"id":"14000US33015065006"}},{"arcs":[[971,-943,-360,972]],"type":"Polygon","properties":{"id":"14000US33015065007"}},{"arcs":[[973,-970,-944,-972]],"type":"Polygon","properties":{"id":"14000US33015065005"}},{"arcs":[[974,-88,-94,-355,975,-487]],"type":"Polygon","properties":{"id":"14000US33015069300"}},{"arcs":[[976,977,978]],"type":"Polygon","properties":{"id":"14000US33007950700"}},{"arcs":[[979,980,981,-891,982,-977,983,984,985]],"type":"Polygon","properties":{"id":"14000US33007950300"}},{"arcs":[[-978,-983,-890,986]],"type":"Polygon","properties":{"id":"14000US33007950600"}},{"arcs":[[987,988,-14,-689,989]],"type":"Polygon","properties":{"id":"14000US33007951100"}},{"arcs":[[-981,990,991]],"type":"Polygon","properties":{"id":"14000US33007950100"}},{"arcs":[[-991,-980,992,993]],"type":"Polygon","properties":{"id":"14000US33007950200"}},{"arcs":[[-993,-986,994,995]],"type":"Polygon","properties":{"id":"14000US33007950400"}},{"arcs":[[-984,-979,-987,-889,996,997]],"type":"Polygon","properties":{"id":"14000US33007950800"}},{"arcs":[[-995,-985,-998,998,-988,999]],"type":"Polygon","properties":{"id":"14000US33007950500"}},{"arcs":[[-999,-997,-893,-315,-15,-989]],"type":"Polygon","properties":{"id":"14000US33007951000"}},{"arcs":[[-976,-354,-488]],"type":"Polygon","properties":{"id":"14000US33015107100"}},{"arcs":[[-90,1000,1001,1002,-939,-92]],"type":"Polygon","properties":{"id":"14000US33015069700"}},{"arcs":[[-155,1003,1004,-955,-953]],"type":"Polygon","properties":{"id":"14000US33015100401"}},{"arcs":[[-964,-960,1005,-961,-468]],"type":"Polygon","properties":{"id":"14000US33015101102"}},{"arcs":[[-154,1006,-1004]],"type":"Polygon","properties":{"id":"14000US33015100402"}},{"arcs":[[-107,-362,-948,1007,1008]],"type":"Polygon","properties":{"id":"14000US33015063004"}},{"arcs":[[1009,-81,-971,-974,-973,-359]],"type":"Polygon","properties":{"id":"14000US33015065009"}},{"arcs":[[-108,-1009,1010,-933]],"type":"Polygon","properties":{"id":"14000US33015063003"}},{"arcs":[[1011,1012,-84,-62,-196]],"type":"Polygon","properties":{"id":"14000US33015067505"}},{"arcs":[[-941,1013,-1002,1014,-946,-78,-490]],"type":"Polygon","properties":{"id":"14000US33015071001"}},{"arcs":[[-962,-1006,-959,1015]],"type":"Polygon","properties":{"id":"14000US33015101101"}},{"arcs":[[-172,-491,-85,-1013,1016]],"type":"Polygon","properties":{"id":"14000US33015067503"}},{"arcs":[[-767,-757,-173,-1017,-1012,-195]],"type":"Polygon","properties":{"id":"14000US33015067504"}},{"arcs":[[-940,-1003,-1014]],"type":"Polygon","properties":{"id":"14000US33015071002"}},{"arcs":[[-965,-82,-1010,-358,-105]],"type":"Polygon","properties":{"id":"14000US33015065010"}}]}}}