{"type":"Topology","arcs":[[[9654,26310],[6,-34],[-30,-57],[14,-15],[-9,-22],[11,-16],[5,-38],[-1,-36],[18,-5],[17,-33],[28,-26],[-13,-25],[35,-3],[23,-28],[22,-4],[25,-38],[21,-18],[8,-21],[-15,-12],[19,-42],[-10,-23],[61,6],[41,-49],[15,-4],[50,-52],[4,-16],[22,-14],[12,-24],[-6,-38],[11,-24],[20,-11],[-11,-16],[17,-24],[-16,-31],[30,-11],[-12,-63],[43,-52],[-5,-25],[12,-47],[12,-22],[3,-40],[-11,-10],[-1,-29],[-17,-20],[-29,-16],[-19,-31],[42,-97],[34,-67],[16,-14],[90,-43],[14,-35],[0,-32],[-19,1],[-6,-40],[-27,7],[-25,19],[-30,-11],[-27,-55],[-14,-5],[17,-32],[-33,-1],[-67,-13],[-21,-15],[-25,6],[-26,-8],[-28,12],[-29,-3],[-31,-11],[-33,-41],[-38,-8],[-28,-16],[47,-61],[6,-47],[16,-33],[-29,-19],[-5,-17],[-32,-17],[-14,-26],[4,-49],[21,-37],[-1,-25],[20,-10],[17,-45],[4,-31],[-15,-33],[33,-12],[35,-49],[50,-17],[41,1],[52,8],[40,-14],[33,-24],[26,-9],[42,7],[21,-28],[68,1],[16,-23],[1,-30],[-25,-26],[6,-21],[-15,-19],[-8,-55],[-12,-25],[3,-17],[-20,-21],[-2,-33],[13,-45],[21,-14],[3,-22],[-36,-26],[8,-67],[-48,-7],[-9,-23],[13,-14],[-9,-19]],[[10140,23556],[-51,-1],[-15,-21],[-28,-9],[-17,-26],[-28,-2],[-58,-80]],[[9943,23417],[-22,4],[-12,-19],[-38,-10],[-7,-15],[-25,1],[-6,-15],[-53,-40],[-31,11],[-32,-39],[-10,-4],[-52,6],[-4,-26],[-21,-13]],[[9630,23258],[-45,-19],[-29,-18],[-18,6],[-26,-45],[-24,10],[-11,-10],[-7,-30],[-13,-14],[-23,18],[-5,17],[-25,9],[-1,-27],[29,-14],[7,-21]],[[9439,23120],[-79,-20],[-40,14],[-87,-22],[-21,7],[-48,0],[-29,-9],[-38,-2],[-19,-7],[-32,-41],[-18,-6],[-33,3],[-35,-10],[-116,2],[-120,33],[-41,-1],[-111,-20],[-53,-28],[-23,-7],[-61,-31],[-29,-20],[-30,-9],[-44,0],[0,-57],[35,12],[57,-8],[17,-23],[3,-27],[-13,-29],[-21,-24],[2,-25],[-28,-26],[-17,-37],[-43,-26],[-10,-55],[-25,-55],[-66,-49],[-132,-113],[-180,-75],[-94,-31],[-14,5],[-96,5],[-24,-3],[-47,-24],[-71,-42],[-34,-6],[-35,17],[-120,-13],[-48,-12],[-87,-59],[-91,-54],[-59,-10],[-75,-17],[-8,-14],[-4,-55],[6,-112],[-98,-105],[-260,-189],[-23,-5],[-40,2],[-25,-14],[8,-48],[-21,-26],[-39,-24],[-101,-42],[-16,-53],[-38,-35],[-49,-27],[-28,25],[-140,-32],[-102,-26],[-22,-13],[-13,-30],[-17,-69],[-21,-61],[-22,-39],[1,-18],[-15,-34],[-11,-40],[-57,-38],[-38,-4],[-31,-21],[-40,-8],[-81,-2],[-33,-7],[-34,12],[-54,-6],[-14,-13],[-41,-10],[-51,-26],[-29,-26],[-29,-34],[-18,-76],[-31,-16],[-13,-26],[-14,-4],[-20,-26],[-4,-22],[-19,-16],[-24,-4],[-20,-26],[-48,-24],[-26,-7],[-14,-20],[-73,-35],[-26,-4],[-28,-19],[-54,-13],[-12,25],[-27,-5],[-52,-25],[-17,9],[-5,27]],[[4841,20511],[-1,103],[-318,0],[-21,53],[-14,108],[-7,14],[34,17],[4,56],[-11,32],[36,29],[31,-1],[14,40],[-44,-5],[-25,3],[53,53],[-12,40],[-21,7],[-19,-9],[-15,19],[-2,24],[33,30],[21,-7],[-11,46],[-22,-2],[-23,-14],[-26,64],[-20,16],[9,26],[-32,40],[1,15],[21,14],[-5,23],[13,35],[-26,-1],[-31,33],[-6,26],[13,11],[9,26],[-37,18],[-13,33],[40,9],[7,22],[-23,14],[3,33],[-26,42],[-21,23],[-56,45],[-14,-24],[-31,12],[12,17],[-4,23],[-46,-15],[-13,6],[-20,-16],[-39,40],[-18,-8],[-19,30],[-14,34],[17,16],[20,34],[-8,31],[-15,11],[-59,18],[-27,24],[-11,44],[10,38],[-14,26],[-7,46],[7,18],[-13,61],[5,19],[-34,54],[-26,17],[-11,18],[-52,19],[2,46],[-7,49],[-25,31],[-58,25],[-29,5],[-43,37],[-5,24],[-42,53],[3,28],[19,20],[-2,31],[18,54],[-7,57],[3,34],[-6,33],[29,15],[15,39],[-12,73],[30,57],[-9,47],[4,34],[13,32],[-12,28],[-33,42],[-24,15],[-22,-5],[-15,15],[16,32],[-1,17],[23,3],[2,31],[-34,37],[-57,39],[-31,12],[-77,-17],[-1,-31],[-38,0],[-67,23],[-34,8],[-16,17],[-103,59],[31,21],[18,1],[10,40],[-21,37],[8,18],[-429,1],[-178,-2],[-604,-1],[-204,1],[3,277],[-2,271],[-377,1],[-24,3],[-367,-2],[-234,-2],[-608,-1],[-125,2],[-130,-1]],[[5,24120],[-2,394],[-1,490],[-2,698],[0,617],[524,-2],[217,0],[537,2],[415,-58],[158,1],[505,2],[291,0],[296,7],[187,38],[396,2],[196,-16],[294,-4],[197,2],[374,43],[301,0],[192,-1],[861,-1],[192,-9],[120,0],[337,3],[132,0],[323,4],[156,0],[177,3],[391,7],[196,1],[388,5],[198,0],[357,2],[526,1],[97,-41],[123,0]],[[9439,23120],[-1,-18],[9,-111],[26,-65],[-3,-23],[19,-6],[54,12],[6,20],[-21,18],[27,43],[-10,24],[4,24],[-9,23],[4,38],[34,1],[34,-19],[8,29],[43,-15],[19,-20],[35,-5],[40,-21],[10,-22],[29,-13],[15,4]],[[9811,23018],[39,25],[10,17],[-1,60],[-10,33],[17,30],[24,18],[-8,23]],[[9882,23224],[-1,28],[78,45],[12,77],[-4,21],[-24,22]],[[10140,23556],[16,-19],[-4,-30],[12,-57],[22,-35],[65,-31],[52,-2],[59,16],[65,54],[9,-33],[-38,-23],[5,-10],[16,-82],[10,-24],[36,-48],[-32,-54],[-21,-7],[-41,2],[-32,-27],[-26,-14],[-27,-34],[-6,-39],[83,-23],[179,-69],[129,-33],[33,-11],[55,-31],[46,-8],[74,11],[30,0],[403,-18],[171,-26],[189,-64],[19,-32],[16,-12],[90,13],[198,20]],[[11995,22776],[0,-439]],[[11995,22337],[-1,-267],[1,-685],[-1,-535],[112,0]],[[12106,20850],[-1,-286],[1,-143],[-1,-156]],[[12105,20265],[-506,2],[-20,-2],[-144,3],[-190,0],[-106,1],[-202,-3],[1,-523],[2,-59],[-406,1],[-195,-2],[16,-566],[-425,0],[-29,3],[-417,-4],[-1,-194],[3,-243],[-5,-134],[-192,-11],[-674,1],[0,-17],[-195,-1]],[[8420,18517],[-18,34],[-6,44],[-20,25],[2,33],[-20,24],[-19,5],[-25,22],[-29,-11],[-41,-2],[-26,11],[-55,8],[-10,41],[-19,26],[3,24],[-23,94],[13,19],[-2,24],[-30,35],[-56,-1],[-32,11],[-20,27],[4,24],[-22,46],[6,19],[-29,13],[-12,35],[-65,5],[-34,26],[-20,38],[-7,37],[-14,33],[-44,-6],[-15,-12],[-67,19],[-19,11],[9,43],[-10,42],[-28,19],[-43,5],[-22,-23],[-32,-19],[-23,-24],[-43,2],[-39,24],[-14,18],[-43,26],[-12,29],[-25,20],[-13,29],[-50,-5],[-35,-39],[-34,1],[-9,-25],[-29,-34],[-16,-34],[-30,-18],[-17,3],[-34,48],[-29,22],[-22,-7],[-9,-15],[10,-39],[-6,-20],[-32,-46],[-3,-14],[-31,-12],[-27,10],[-38,-12],[-14,-17],[-26,0],[-23,-33],[-7,-31],[-31,-39],[0,-43],[-8,-30],[15,-61],[-15,-36],[-26,-18],[-26,14],[-5,-41],[-22,-41],[14,-54],[18,-18],[0,-75],[-30,-4],[-22,-16],[-44,10],[-16,-30],[-29,-2],[-37,11],[-18,-29],[-37,-1],[-29,6],[-12,-29],[-45,1],[-19,-39],[-28,4],[-44,-45],[-10,-23],[-21,-1],[-35,19],[-7,-25],[-27,-21],[-39,-7],[-6,-33],[-45,-25],[-44,19],[-16,17],[-33,5],[-22,29],[-59,15],[-4,50],[-40,-10],[-29,-20],[-54,34],[-21,30],[6,38],[10,12],[-16,33],[7,43],[19,7],[17,26],[31,-3],[16,12],[59,5],[31,28],[25,11],[-35,40],[-35,-5],[-16,31],[15,25],[59,35],[-5,18],[-29,26],[-34,17],[-9,35],[-22,-3],[-52,37],[-55,8],[55,44],[-11,29],[8,29],[-5,27],[-23,19],[-33,14],[-55,12],[-7,37],[26,19],[19,24],[31,17],[1,41],[15,8],[-19,51],[-58,-31],[-30,-8],[-24,-19],[-56,-14],[-86,-6],[-52,0],[-27,26],[-29,11],[-8,23],[-19,19],[-29,1],[-66,41],[-38,-20],[-25,-38],[-49,-9],[-29,-29],[-28,-2],[-28,18],[-11,20],[8,37],[-6,36],[-76,2],[-7,10],[-1,73],[-24,25],[1,18],[-43,67],[7,25],[-11,17],[-51,13],[-24,28],[-21,-5]],[[4841,19796],[0,715]],[[9882,23224],[-25,-23],[-186,-2]],[[9671,23199],[-10,0],[-1,42],[-18,0],[-12,17]],[[9811,23018],[-4,86],[-61,2],[-52,12],[-22,26],[-1,55]],[[17816,23421],[114,-1],[239,-4]],[[18169,23416],[222,-3],[604,-2],[2,2],[350,-1]],[[19347,23412],[95,-1],[0,6],[158,-3],[19,2],[585,-8],[311,0],[293,-3],[194,1],[98,0],[128,-4],[159,4],[26,-2],[168,-3],[197,1],[239,-1],[347,0],[0,33],[257,2],[605,1],[345,-1],[-2,11],[327,-1],[254,1],[1,-5],[239,6]],[[24390,23448],[6,-282],[-29,0],[0,-138],[-10,-821],[-1,-464]],[[24356,21743],[1,-297],[0,-588],[25,0],[0,-294],[9,-272],[-2,-349]],[[24389,19943],[-1,-200],[1,-422],[4,-750],[-41,-1],[0,-144],[-3,-296],[1,-101],[-4,-750],[4,-35],[2,-290],[3,-287],[-2,-242]],[[24353,16425],[-293,-3]],[[24060,16422],[-339,-5],[-193,2],[-190,-5],[-717,-2],[-137,-1],[-290,-1],[-177,-2],[-80,-4],[-281,2],[-95,-4],[-386,4],[-95,0]],[[21080,16406],[-272,-1],[-399,1],[-205,2],[-403,-1],[-201,2],[-534,-1],[1,52]],[[19067,16460],[0,363],[-14,2],[0,372],[1,297],[-1,382],[3,92],[-4,36],[1,129],[0,402],[-67,-1],[-2,379],[-2,190],[3,93],[-1,128],[-5,419],[1,40],[1,378],[0,379],[2,131],[-2,161],[-88,0]],[[18893,20832],[3,453],[5,587],[-27,3],[-23,-14],[-20,18],[0,32],[14,12],[-18,18],[-38,7],[-21,-3],[-18,20],[1,29],[-17,23],[-26,2],[-19,12],[1,34],[19,35],[57,11],[46,50],[-9,38],[-38,8],[-16,11],[12,35],[7,47],[16,28],[-48,65],[-32,-9],[-13,-22],[-50,3],[-5,67],[-10,47],[9,34],[-19,24],[-1,24],[17,34],[-15,11],[18,41],[-9,28],[-40,-9],[-24,12],[-59,-34],[-55,-9],[-18,-12],[-61,21],[-15,29],[-47,24],[-23,-5],[-29,13],[19,35],[-18,19],[-36,-3],[-14,8],[-57,-5],[-13,37],[18,76],[-27,45],[32,10],[7,41],[-7,35],[21,30],[-35,37],[-46,16],[-21,46],[-48,39],[-9,13],[21,36],[-7,26],[-28,19],[-1,51],[-22,-22],[-92,11],[-9,20],[-23,12],[1,22],[-25,31],[-29,12],[9,19]],[[20895,21862],[-29,-13],[-10,-17],[-32,-6],[-16,-21],[-14,-35],[11,-47],[25,1],[16,-13],[13,-29],[50,23],[34,57],[8,-4],[-6,-47],[12,-15],[15,29],[52,48],[28,18],[13,-8],[75,-1],[1,20],[42,19],[-2,13],[27,39],[-3,24],[5,60],[-33,25],[15,17],[-22,31],[3,27],[30,13]],[[21203,22070],[14,8],[15,28],[-45,19],[-53,43],[-22,25],[-103,77],[-13,14],[-73,121],[-60,-1],[-52,24],[-98,2],[-7,-68],[9,-31],[39,-26],[24,-25],[10,-51],[42,-29],[5,-30],[34,-12],[25,-22],[-131,-55],[-20,-2],[-35,13],[-57,-56],[-1,-32],[38,-7],[43,26],[21,-28],[-3,-26],[-64,-15],[5,-28],[43,6],[31,-23],[18,-5],[10,-24],[46,-4],[57,-14]],[[19909,24751],[0,242]],[[19909,24993],[0,37]],[[19909,25030],[-2,26],[-13,60],[-10,24]],[[19884,25140],[-14,15],[-173,124],[-15,13],[-24,48],[-12,75],[-17,51],[-52,91],[21,6],[29,-5],[42,-16],[8,34],[18,4],[53,-13],[91,0],[17,6],[15,23],[12,172],[-11,36],[8,17],[34,24],[2,44],[-40,70],[-1,18],[38,56],[17,52],[12,22],[60,70],[14,30],[33,17],[30,46],[-1,17]],[[20078,26287],[679,-4],[355,-1],[301,-3],[561,-2],[69,-1],[193,1],[99,-3],[101,2],[685,-4],[706,-3],[177,1],[313,0]],[[24317,26270],[0,-110],[9,-709],[26,0],[16,-73],[-1,-46],[-2,-662],[0,-282],[21,-91],[0,-448],[4,-401]],[[19347,23412],[28,38],[19,78],[3,67],[14,18],[0,46],[6,6],[-10,53],[5,14],[-8,26],[19,77],[36,28],[19,49],[50,43],[11,27],[18,3],[7,20],[29,23],[23,56],[21,2],[52,-18],[6,16],[77,-11],[27,12],[48,1],[70,-94],[57,-3],[55,5],[51,-19],[54,0],[-26,63],[-11,37],[-24,47],[96,-9],[16,3],[-39,62],[-49,51],[-12,19],[0,45],[-7,25],[-36,35],[-10,63],[-25,63],[-11,43],[-3,73],[-10,23],[-58,89],[-16,44]],[[19784,24595],[0,-52],[45,24],[29,24],[1,66],[39,12],[-6,32],[17,50]],[[18169,23416],[-16,27],[-10,37],[14,55],[15,17],[-10,36],[-3,84],[2,26],[-12,10],[-1,29],[38,93],[15,8],[23,40],[39,8],[11,-9],[23,9],[18,17],[15,56],[-14,39],[14,22],[31,10],[7,33],[47,42],[37,18],[8,21],[40,-5],[15,31],[59,59],[14,0],[24,20],[16,-2],[22,26],[-3,12],[79,73],[31,19],[44,11],[19,11],[57,65],[29,66],[-8,17],[8,37],[25,12],[42,65],[23,17],[49,3],[39,7],[40,16],[38,4],[80,52],[37,14],[54,13],[32,21],[4,-29],[-14,-39],[2,-17],[38,-47],[19,-17],[0,-24],[-41,-15],[17,-18],[14,11],[70,18],[64,-2],[39,-7],[27,6],[62,-13],[31,3],[10,-11],[39,-15],[38,3]],[[29992,783],[58,16],[72,0],[71,13]],[[30193,812],[0,-105]],[[30193,707],[-94,0]],[[30099,707],[-40,-25],[-65,6],[-2,95]],[[30028,1137],[3,0]],[[30031,1137],[27,-11],[44,-37]],[[30102,1089],[46,-54],[2,-42]],[[30150,993],[-90,1],[-17,5]],[[30043,999],[5,7],[0,74],[-64,1],[0,31],[32,0],[12,25]],[[26079,21351],[78,24],[74,42],[25,23],[57,83],[45,52],[50,87],[29,19],[51,2]],[[26488,21683],[142,-5],[80,-13],[31,-19],[66,-54]],[[26807,21592],[1,-82]],[[26808,21510],[0,-39]],[[26808,21471],[-89,-12],[-47,-22],[-27,8],[-24,-13],[-83,-5],[-31,-9],[-3,-35],[-93,-1],[-22,8],[-27,-10],[-76,0],[-20,-23],[-168,-4],[-19,-2]],[[26907,21802],[1,-137]],[[26908,21665],[-94,14],[-6,-10],[-1,-77]],[[26488,21683],[-1,87],[-41,60],[-14,37],[118,-60],[56,-22],[101,3],[-2,40],[6,67],[106,4],[25,-19],[15,-28],[15,0],[-1,-32],[36,-18]],[[26807,21592],[32,-13],[118,2],[-2,77]],[[26955,21658],[144,-22],[-2,47],[36,-1],[177,3],[88,0],[77,-14],[-21,-14],[-2,-32]],[[27452,21625],[-28,2],[-27,-13],[-1,-35],[-15,-37],[-26,-9],[-25,13],[-35,-8],[-2,-36],[-35,-5],[-22,18],[-23,1],[-28,-18],[-16,6],[-29,-22],[6,-16],[-11,-21],[-19,6],[1,26],[-28,-6],[-14,14],[-18,-25],[-41,7],[-42,23],[-32,11],[-58,-5],[0,15],[-76,-1]],[[26908,21665],[47,-7]],[[27452,21625],[25,9],[95,5],[31,-11],[40,16],[82,8],[41,14],[21,-2],[25,15],[24,-7],[31,4]],[[27867,21676],[-35,-47],[-5,-102],[-10,-99],[-8,-20],[-37,-43],[-11,-30],[2,-36],[-24,-5],[-17,-15],[-39,-1],[-37,18],[-30,7],[-24,-5],[0,-71],[-88,1],[-18,5],[-28,30],[-19,11],[-134,-2],[-30,-5],[-47,-20],[-138,1],[-32,-5],[45,-127],[16,-38],[-30,0],[-10,-12],[-22,6],[-44,-3],[-8,19],[-48,35],[-35,-5],[-14,6]],[[26908,21124],[1,48],[-16,51],[27,32],[-3,15],[-32,42],[-11,-25],[-34,31],[-32,47],[0,106]],[[36,9237],[70,22],[24,-2],[28,-22],[46,-4],[49,7],[44,-2],[17,18],[5,49],[18,63],[6,50],[-8,91],[8,40],[113,-2],[128,2],[245,-2],[217,2],[-3,-68],[3,-474],[3,-670],[3,-477],[120,-7],[4,-18],[-16,-160],[1,-34],[45,-1],[16,9],[33,-5],[3,55],[319,4],[2,-22],[56,24],[-1,-151],[138,1],[232,-1],[2,93],[94,2],[1,-177],[277,-1],[3,276],[-187,4],[0,90],[239,-1],[-16,34],[-24,26],[21,21],[10,27],[-7,35],[5,19],[0,42],[-23,85],[2,18],[-19,12],[-15,47],[-7,46],[6,55],[22,42],[-15,43],[24,3],[1,23],[-11,51],[11,29],[15,10],[42,-23],[24,3]],[[2479,8486],[1,-59],[99,0],[96,5],[370,11],[-1,-25],[239,-1],[303,-3],[313,5],[201,2],[-2,-39],[393,3],[348,-2]],[[4839,8383],[1,-381],[0,-378],[-1,-199],[-4,-775],[39,0],[0,-172]],[[4874,6478],[-1,-695],[1,-822],[-3,-434],[-3,-387],[-2,-308]],[[4866,3832],[-71,-4],[-613,4],[-296,1],[-604,5],[-606,1],[-405,0]],[[2271,3839],[-435,-1],[-185,0],[-558,2],[-464,0],[-369,3],[-218,1]],[[42,3844],[-1,514],[0,189],[-1,95],[-1,207],[0,557],[-1,285],[1,193],[-1,104],[1,400],[-2,279],[-1,474],[1,98],[-1,210],[0,203],[-1,221],[1,248],[-1,287],[2,483],[-2,150],[1,196]],[[2067,5381],[35,-21],[46,-16],[30,-20],[55,-54],[48,-17],[10,-37],[27,-34],[1,-21],[55,-110],[21,1],[7,27],[22,22],[49,-9],[24,-15],[8,-16],[-4,-51],[13,-32],[30,-29],[25,-16],[21,7],[26,34],[10,4],[50,-9],[17,-10],[21,6],[58,31],[16,28],[-63,36],[71,40],[28,26],[16,25],[-46,-6],[-28,26],[-29,16],[13,14],[29,49],[4,60],[-14,42],[-15,24],[40,1],[-13,23],[2,90],[-12,31],[-34,35],[-10,33],[-33,27],[-1,46],[-11,39],[11,3],[10,27],[-7,19],[-35,-4],[-70,18],[-18,0],[-19,-16],[-23,9],[-23,29],[-9,21],[-32,11],[-30,21],[-92,13],[-30,-23],[-8,-58],[42,-26],[27,-35],[4,-46],[-6,-31],[-23,-3],[-57,42],[-41,25],[-30,-3],[-55,20],[-59,-19],[1,-21],[26,-13],[12,-21],[4,-34],[-11,-58],[-27,-70],[-17,-29],[-5,-35],[15,-16],[-40,-17]],[[52,12236],[27,-16],[28,-32],[41,-16],[21,0],[32,-14],[19,-20],[2,-43],[14,-61],[34,-6],[9,16],[33,28],[18,28],[46,49],[-53,64],[9,8],[59,5],[42,-11],[19,0],[59,-26],[71,-1],[74,26],[32,25],[5,28],[38,-10],[20,-33],[4,-26],[21,-2],[4,-52],[-11,-44]],[[769,12100],[0,-4],[-136,3],[-2,-157],[1,-199],[9,-21],[9,-76],[-5,-47],[-8,-19],[21,-18],[0,-48],[-8,-31],[20,-17],[12,-25],[-1,-346],[1,-322],[50,1],[-3,-94],[50,-1],[0,-284],[87,0],[1,-290],[-146,1],[-2,335],[-47,0],[1,47],[-185,1],[3,45],[-89,0],[2,48],[-54,0],[2,85],[-51,1],[0,99],[-100,1],[5,95],[-159,2]],[[47,10865],[6,466],[-1,708],[0,197]],[[22808,12090],[0,42]],[[22808,12132],[44,22],[20,-8]],[[22872,12146],[0,-33]],[[22872,12113],[4,-28]],[[22876,12085],[-24,-3],[-31,-53],[-13,-6]],[[22808,12023],[0,67]],[[22432,12140],[49,2],[46,11],[30,14],[30,26],[49,-22],[71,-13],[4,-7]],[[22711,12151],[-19,-39],[-18,-11],[-20,10]],[[22654,12111],[-39,17],[-16,-17],[9,-23],[52,-21],[-2,-35],[-40,-33],[-24,-3],[-37,6],[-64,72],[-14,-4],[-13,-25],[-35,-7]],[[22431,12038],[11,39],[-10,63]],[[21203,22070],[-138,0],[-2,-35],[-38,-4],[-2,-36],[-13,-10],[-28,-47],[-25,-16],[-20,-28],[-42,-32]],[[38,1665],[26,-9],[80,0],[56,12],[27,15]],[[227,1683],[106,67]],[[333,1750],[-3,-38],[0,-86],[31,7],[-8,-59],[14,3],[32,-18],[33,8],[-11,-44],[-18,-28],[-52,-43],[39,-31],[12,-24],[45,-20],[79,-12],[43,24],[7,12],[68,48],[13,19],[1,26],[-48,63],[-48,95],[-32,75],[-15,20],[-32,9]],[[483,1756],[22,31],[24,6]],[[529,1793],[48,2],[72,-10],[99,-24],[15,30],[-14,22],[11,77],[-72,27],[-19,30],[-41,19],[-1,11],[25,31],[-69,0],[-24,7],[-41,0],[-26,-6],[-69,-2],[-35,-17],[-43,3],[-41,68],[-26,80],[-30,210],[-11,40],[-21,41],[-2,69],[-6,22],[5,56],[-3,34],[20,44],[0,20],[17,64],[0,39],[7,31],[-17,51],[0,57],[7,46],[11,27],[-2,47],[-15,38],[-4,48],[3,30],[-13,26],[-4,54],[-11,13],[-22,61],[-8,39],[34,10],[21,16],[34,39],[-9,26],[9,12],[-9,27],[-47,10],[-13,-13],[-28,-7],[-5,-14],[-28,10],[-96,-3]],[[42,3461],[0,383]],[[2271,3839],[-27,-73],[-6,-34],[0,-130],[-6,-42],[-96,-282],[-4,-16],[-33,-190],[-9,-156],[-3,-24],[-34,-72],[-4,-52],[-16,-40],[-176,-270],[-49,-54],[-20,-27],[-29,-53],[-144,-221],[-19,-23],[-53,-36],[-14,-20],[-18,-45],[-5,-46],[19,-10],[13,-26],[25,-35],[10,-30],[-11,-31],[23,-23],[50,15],[20,15],[76,16],[150,-42],[81,34],[76,47],[33,4],[39,12],[79,38],[21,34],[36,11],[67,-15],[26,1],[46,35],[42,-9],[126,-6],[7,-4],[-2,-418],[-28,-72],[-12,-39],[-29,-55],[34,-12],[24,-14],[38,-15],[36,-29],[66,-27],[61,-34],[39,2],[-26,-47],[-27,-22],[-38,-58],[-25,-21],[-38,-67],[-6,-27],[-35,-45],[0,-21],[-22,-49],[-29,-18],[-35,-39],[-34,-78],[3,-12],[-16,-28],[-5,-37],[-12,-10],[-19,-51],[-11,-6],[-23,-43],[3,-12],[-22,-33],[-3,-31],[-14,-18],[-14,-38],[-51,-84],[-13,-41],[5,-45],[19,-23],[-8,-42],[-26,13],[-15,-41],[8,-36],[-9,-57],[-21,-40],[-62,-19],[-1,-15]],[[2165,10],[-361,0],[-600,4],[-286,2],[-199,0],[-361,2],[-127,3],[-194,-1],[1,474],[0,301],[-1,410],[1,460]],[[529,1793],[-29,16],[-59,0],[-2,-8],[-61,57],[-44,9],[-35,-23],[-23,-41],[-42,-90],[-7,-30]],[[38,1665],[1,444],[1,843],[2,407],[0,102]],[[3464,2380],[89,38],[132,37],[132,20],[89,19],[34,13],[68,45],[48,20],[122,33],[29,-2],[-145,-155],[-24,-22],[-72,-48],[-22,-24],[-23,-40],[-73,-85],[-2,-115],[-217,-2],[-156,1],[0,231],[-9,36]],[[4866,3832],[-3,-500],[-1,-243]],[[4862,3089],[0,-413],[-1,-178],[1,-188],[0,-442],[2,-102],[-3,-113],[1,-412],[1,-176],[-2,-121],[2,-89],[0,-557],[1,-281]],[[4864,17],[-247,-2],[-406,-9],[-193,0],[-245,-6],[-627,0],[-489,0],[-198,10],[-294,0]],[[483,1756],[-23,-18],[-35,-7],[-27,6],[-31,21],[-34,-8]],[[12106,20850],[846,-2],[68,2],[722,-2],[713,0],[496,1],[187,-3],[254,2],[215,-1],[408,0],[97,-1],[44,-9],[193,-1],[294,1],[343,0],[196,4],[604,5],[461,-2],[646,-12]],[[19067,16460],[-305,1],[-115,1],[-159,-1],[-1,7],[-96,1],[-846,0],[-116,2],[-247,-4],[-166,0]],[[17016,16467],[-291,1]],[[16725,16468],[-1,718],[1,234],[-160,0],[-425,-4],[1,575],[-102,1],[-66,-1],[-604,1],[-391,0],[0,560],[-213,1],[-10,-2],[-360,1],[-467,2],[-12,25],[-46,7],[-51,30],[-7,-21],[-20,10],[13,33],[26,16],[8,32],[15,18],[18,42],[-31,-4],[-122,2],[-60,-5],[-103,-3],[-285,0],[0,172],[-2,14],[3,186],[-581,0],[12,583],[-301,-1],[-2,56],[-2,521],[-293,-2]],[[14919,19795],[98,0]],[[15017,19795],[102,4],[-2,185],[23,9],[2,42],[-22,20],[-4,31],[-26,22],[-18,34],[-43,0],[12,-23],[-7,-12],[-37,-9],[-29,-27],[16,-12],[4,-45],[-21,-23],[4,-21],[-25,-7],[-14,-38],[-28,-25],[10,-35],[-9,-36],[-35,-5],[-3,-39],[-27,-21],[8,-19],[-4,-45],[-45,-41],[15,-17],[-1,-19],[-23,-11],[6,-27],[51,69],[72,141]],[[15017,19795],[0,95],[-50,1],[-48,-96]],[[26458,2213],[26,0],[0,-44],[92,0],[0,-28]],[[26576,2141],[-26,0],[-17,-11],[-51,-3]],[[26482,2127],[-37,9]],[[26445,2136],[3,39],[10,38]],[[26454,2243],[130,-3],[71,8],[17,-7],[-1,-99]],[[26671,2142],[-95,-1]],[[26458,2213],[-4,30]],[[30402,881],[71,-4]],[[30473,877],[27,10],[146,101],[-81,1]],[[30565,989],[1,95]],[[30566,1084],[307,-3],[33,9],[73,46],[19,15],[21,36],[34,93],[26,32],[119,63],[20,8],[1,300],[4,64],[0,71],[-7,25],[5,18],[3,263],[-93,1],[2,225],[364,160],[655,289],[245,110],[36,28],[14,21],[10,37],[14,97],[0,37],[-38,99],[-11,115],[7,40],[56,99],[48,63],[42,76],[28,24],[96,62],[38,36]],[[32737,3743],[82,-2],[278,1],[95,-1],[280,2],[188,-2],[193,0]],[[33853,3741],[0,-539],[0,-20],[0,-399],[1,-134],[-2,-443],[1,-344],[-3,-185],[-1,-329]],[[33849,1348],[-33,4],[-12,9],[-23,-5],[-39,-54],[-40,-36],[-4,-19],[12,-49],[-18,-17],[6,-19],[-22,-40],[-60,-46],[-2,-102],[-91,1],[-1,-290],[-24,-8],[-26,4],[-9,-14],[-21,14],[-22,-2],[-11,12],[-30,0],[-42,16],[1,269],[-277,0],[-1,-89],[-29,-5],[-102,1],[-50,21],[0,174],[-374,0],[-72,-7],[-339,1],[-143,-8],[-395,11],[-230,0],[-315,3],[-75,-11],[-58,-22],[-35,-21],[-154,-108],[-88,-43],[-50,-17],[-61,-4]],[[30490,852],[-92,-2]],[[30398,850],[4,31]],[[30295,706],[55,1],[19,10],[27,31],[8,-16],[39,9],[6,23],[48,25],[13,25],[26,-12],[12,10],[-58,40]],[[33849,1348],[-1,-281],[0,-341],[2,-362],[-1,-320],[-66,2],[-106,-1],[-177,1],[-179,-1],[-53,1],[-184,-1],[-406,1],[-291,-2],[-541,0],[-95,1],[-304,-1],[-365,0],[-244,-3],[-469,-8]],[[30369,33],[-58,254],[-11,32],[-42,87]],[[30258,406],[-14,51],[-5,104],[8,9],[40,88],[8,48]],[[30102,1357],[0,17],[168,-1]],[[30270,1373],[-2,-34],[-26,-68],[-28,-42],[-18,-47],[-1,-23]],[[30195,1159],[-46,0],[0,24],[-48,0]],[[30101,1183],[1,174]],[[30031,904],[-2,35]],[[30029,939],[41,-25],[94,50]],[[30164,964],[26,-55]],[[30190,909],[-104,-54],[-43,-15],[-51,-31]],[[29992,809],[3,27],[32,45],[4,23]],[[30269,916],[18,-11],[48,0]],[[30335,905],[32,11],[24,29]],[[30391,945],[47,23],[13,22],[33,0]],[[30484,990],[-9,-30],[-2,-83]],[[30402,881],[-90,7],[-49,16]],[[30263,904],[6,12]],[[30215,817],[148,29],[35,4]],[[30295,706],[-59,1]],[[30236,707],[0,47],[-7,31],[-14,32]],[[30287,992],[93,-1]],[[30380,991],[11,0],[0,-46]],[[30335,905],[1,27],[-26,0],[0,24],[-23,0],[0,36]],[[30193,812],[22,5]],[[30236,707],[1,-56],[-44,1],[0,55]],[[13048,13828],[68,2],[1,-51],[70,-1],[28,8],[20,-4],[40,10],[5,-26],[-32,-8],[-4,-23],[30,-19],[-12,-31],[-21,-11],[-15,10],[-17,-12],[-2,-20],[-27,-16],[1,-24],[-38,-15],[13,-28],[-3,-21],[-16,-24],[-26,-1],[-2,-19],[20,-8],[18,-30],[9,-31],[-19,-6],[-6,-34],[-12,-27],[23,-23],[-9,-18],[-28,-4],[11,-33],[-20,-10]],[[13096,13280],[-21,22],[-51,0],[0,48],[-96,-1]],[[12928,13349],[-3,48]],[[12925,13397],[3,3],[-2,424]],[[12926,13824],[122,4]],[[8358,12311],[104,1],[92,-2],[83,1],[123,-2],[217,-2],[39,-5],[29,5],[71,2],[260,-1],[34,-11],[62,12],[262,1],[181,0],[15,-2],[554,3],[7,17],[35,9],[52,7],[12,12],[0,30],[24,44],[33,0],[28,13],[40,7],[38,16],[55,-20],[81,-6],[21,-14],[22,-3],[24,-18]],[[10956,12405],[48,-105],[24,-36],[18,-17],[70,-39],[-59,8],[-42,-21],[1,-22],[-16,-12]],[[11000,12161],[-22,10],[-28,-1],[-16,-11],[-25,3],[-33,-29],[-34,-18],[-28,-8],[-33,-20],[-58,-21],[-2,-10],[29,-35],[65,-57],[30,5],[37,-4],[31,6],[61,0],[25,16],[56,11],[16,20],[146,2],[36,25],[0,26]],[[11253,12071],[15,-7],[24,-29],[11,-32],[27,-33]],[[11330,11970],[60,-67],[64,-44],[23,-22],[98,-137],[18,-30],[15,-48],[9,-65],[23,-130],[2,-35],[80,6],[44,-25],[106,-124],[48,-42],[63,-28],[22,-21],[31,0],[41,14],[45,-10],[25,13],[28,1],[32,13],[103,17],[65,14],[73,8],[50,-18],[165,-133],[31,-15],[126,-37],[125,-32],[42,-23],[19,-22],[80,-127],[24,-28],[97,-81],[15,-28],[-18,-50],[3,-36],[47,-79],[9,-50],[23,-29],[42,-5],[45,14],[30,3],[38,-10],[33,-25],[114,-136],[102,-100],[43,-18],[107,12],[88,-17],[186,21],[45,0],[24,-6],[330,-118],[213,-52],[345,-28],[170,-26],[458,-120],[18,-4],[465,-26],[192,-15],[91,-5],[110,-18],[63,-23],[56,-37],[44,-37],[228,-94],[16,-10]],[[16982,9560],[0,-103],[92,0]],[[17074,9457],[0,-390],[1,-177],[0,-187],[0,-379]],[[17075,8324],[-188,0],[-374,-3],[-267,2],[-273,3],[-604,-2],[-573,2],[-606,2],[-360,2],[-230,4],[-648,2],[-726,-4],[-836,1],[-277,-2],[-499,4],[-80,2],[-156,-2],[-332,1],[-116,1],[-209,-1]],[[9721,8336],[2,29],[2,198],[-2,184],[1,155],[-3,551],[-124,-1],[-3,436],[-3,23],[-3,85],[2,346],[-2,85],[-1,233],[-3,134],[0,293],[-3,73],[-205,2],[-93,3],[3,27],[-19,44],[45,22],[-18,12],[-10,50],[-18,23],[-48,41],[22,37],[24,0],[21,16],[-29,20],[-19,23],[-25,7],[-37,-4],[-16,7],[-3,28],[-31,1],[-60,19],[-1,30],[-14,3],[-9,28],[-40,34],[-12,20],[-37,0],[-14,14],[-19,-2],[-18,-23],[-5,-33],[-45,2],[-51,38],[-14,58],[21,24],[0,14],[30,36],[4,19],[28,-4],[47,19],[-18,44],[-98,37],[-12,26],[-16,-5],[-17,-23],[-21,6],[-27,28],[-13,22],[-17,10],[-4,27],[-16,31],[-22,2],[-24,68],[-17,9],[-20,49],[12,8],[-24,23],[-8,-12],[-31,-4],[-41,25],[-6,13],[-68,29],[-39,51],[-11,32]],[[11408,12216],[13,32],[33,39],[6,35],[19,5],[63,-10],[-7,19],[27,13],[22,-10],[53,-4],[20,-14],[41,25],[32,38],[35,16],[14,-10],[13,36],[7,40],[14,-3],[11,41],[55,43],[42,7],[176,-1],[53,3],[119,-3],[78,-5],[529,6],[76,-5],[197,0],[212,-7],[144,7],[99,1],[418,0],[4,559],[-5,120],[-1,387],[-1,262],[2,116],[-4,662]],[[14017,14656],[-1,161],[2,29],[-4,491],[-4,303],[2,93],[0,460]],[[14012,16193],[0,72],[148,1],[559,1],[367,-1],[283,2],[605,5],[604,1],[147,2],[0,192]],[[17016,16467],[0,-188],[87,0],[4,-642],[-2,-113],[4,-380],[-1,-96],[1,-475],[-6,1],[1,-271],[0,-289],[70,1],[-2,-403],[3,-209],[1,-229],[0,-316],[2,-269],[-3,-237],[3,-138],[0,-476],[-203,0],[0,-207],[3,-394],[0,-427],[2,-107],[1,-715],[1,-328]],[[11330,11970],[28,19],[33,11],[23,34],[14,10],[2,35],[11,31],[-8,38],[-24,31],[-1,37]],[[12855,13301],[73,0],[0,48]],[[13096,13280],[-21,-3],[14,-35],[-26,-17],[-24,15],[-39,-22],[-31,-1],[-18,22],[-26,-9],[-28,37],[-51,-25],[-22,17]],[[12824,13259],[31,42]],[[8432,3697],[105,62],[60,31]],[[8597,3790],[97,51]],[[8694,3841],[25,29],[61,126],[14,16],[30,16]],[[8824,4028],[1,-44],[-8,-27],[29,-30]],[[8846,3927],[-9,-8],[-1,-43],[-20,-34],[-21,-16],[21,-13],[-28,-34],[-36,-2],[-24,-18],[-43,-14],[-36,-4],[-34,-18],[-33,-27],[-72,-21],[-32,-35],[-15,-9]],[[8463,3631],[-31,66]],[[8892,3906],[12,19],[27,21],[50,-17],[5,-20],[25,-8],[45,20],[59,20],[45,-22],[38,26],[28,6],[9,29],[44,18],[32,-1]],[[9311,3997],[16,-14],[36,-47],[8,-20],[-4,-70],[47,-231],[-2,-68],[-74,-5],[-38,12],[-31,46]],[[9269,3600],[-18,27],[-42,42]],[[9209,3669],[-37,37],[-26,17],[-47,16],[-52,39],[-89,42],[-25,4],[-20,40],[-18,24],[-3,18]],[[7690,3341],[48,0],[4,-12],[34,-22],[-10,-26],[-46,-22]],[[7720,3259],[-17,11],[-12,28],[-1,43]],[[4839,8383],[249,-5],[7,-2],[313,-7],[87,-3],[270,-4],[539,-12],[18,1],[233,-5],[252,-2],[189,-1],[516,-8],[130,0]],[[7642,8335],[475,2],[12,0],[615,-2],[491,0],[107,0],[379,1]],[[17075,8324],[-1,-78],[1,-589],[2,-232],[0,-243],[90,0],[0,-191],[-2,-488],[-2,-464],[-1,-64],[-1,-404],[-1,-78],[-1,-594],[-22,0],[1,-545],[-561,2],[-597,3],[-124,-1],[-188,4],[-299,2],[-66,0],[-195,4],[-2,-228],[1,-228],[0,-609],[0,-650],[62,-1],[0,-213],[0,-401],[-1,-492],[-2,-803],[-4,-695]],[[15162,48],[-251,0],[-146,-2],[-222,2],[-284,-5],[-101,0],[-266,-6],[-331,0],[-5,-2],[-604,-1],[-605,1],[-122,-3],[-153,0],[-21,2],[-308,0],[-26,1],[-527,0],[-253,1],[-444,-1],[-562,3],[-119,-1],[-121,2],[-186,0],[-128,1],[-308,0],[-92,2],[-75,6],[-93,0],[-85,-7],[-277,-3],[-449,-4],[-535,-6],[-158,-4],[-104,0]],[[7201,24],[20,16],[-11,36],[12,18],[3,29],[-12,15],[-20,43],[4,22],[53,42],[21,35],[-1,20],[-21,49],[-42,56],[68,66],[12,21],[15,96],[29,85],[40,52],[1,38],[-12,40],[-45,63],[-60,59],[6,72],[-1,65],[15,45],[74,63],[-16,57],[-9,58],[-11,93],[-30,40],[-31,16],[-95,27],[-32,17],[-44,32],[52,114],[28,52],[40,57],[35,39],[110,92],[20,33],[-4,66],[-9,35],[-7,66],[2,43],[14,43],[23,18],[84,9],[17,-5],[58,-29],[39,11],[64,5],[20,8],[32,31],[19,40],[7,39],[2,49],[13,34],[11,4],[59,2],[16,20],[32,58],[-1,50],[-18,17],[-58,12],[-18,13],[-6,19],[-11,111],[5,37],[12,18],[28,16],[27,-4],[63,-44],[40,15],[19,33],[14,71],[-8,25],[-57,49],[-5,23],[33,24],[43,3],[38,14],[31,4],[29,15],[11,54],[-7,41]],[[8062,3060],[9,32],[-9,44],[13,14],[31,3],[31,16],[3,-17],[35,12],[17,-13],[26,10],[42,-3],[32,-9],[2,33],[9,25],[44,6],[53,36],[38,17],[19,54],[-2,24]],[[8455,3344],[81,-34],[26,-21],[67,8],[18,-13],[-26,-42],[16,-26],[-6,-53],[8,-47],[-1,-41],[19,-80],[19,-23],[5,-22],[-3,-45],[10,-6],[69,26],[45,9],[28,21],[59,15],[104,58],[36,-4],[15,6],[14,31],[17,76],[94,244],[1,117],[7,14],[45,25],[33,52],[14,11]],[[9311,3997],[-17,6],[-7,35],[31,16],[1,18],[32,13],[24,98],[2,76],[20,158],[18,59],[3,48],[9,70],[-8,5],[-27,88],[4,88],[12,20],[0,31],[-32,19],[-26,-11],[-39,4],[-65,-3],[-48,-7],[-21,4],[-25,16],[-73,0],[-85,-32],[-34,4]],[[8960,4820],[-57,9],[-42,-10],[-87,14],[-23,-12],[-98,-9],[-46,-2],[-35,45],[-31,20],[-102,45],[-22,3],[-86,-14],[-20,8]],[[8311,4917],[-23,21],[-23,77],[-32,74],[9,25],[53,37],[22,104],[-41,413],[-53,228],[-22,55],[-64,112],[-24,19],[-328,-1],[-92,-1],[-33,-3],[-65,2],[-55,-7],[-235,0],[-7,-5],[-51,4],[-57,-7],[-18,9],[-159,0],[-166,1],[-51,22],[-11,23],[-53,23],[-81,57],[-55,13],[-7,13],[23,41],[-81,39],[-43,8],[-29,-8],[-40,-3],[-34,-13],[-71,-45],[-60,-62],[-19,-31],[-17,-40],[-28,-15],[-107,-35],[-59,-28],[-17,-13],[-22,0],[-34,18],[-18,16],[-61,77],[-61,56],[-149,57],[-38,17],[-95,47],[-156,48],[-82,28],[-99,56],[-53,20],[-42,25],[-32,32],[-28,7],[-147,-53],[-16,7]],[[8755,4169],[52,-55]],[[8807,4114],[17,-86]],[[8694,3841],[-16,7],[-18,23],[-24,14],[39,49],[9,45],[18,59],[16,8],[0,20],[37,103]],[[9209,3669],[-52,-6],[-14,-18],[-109,-13],[-18,8],[-54,-3],[-21,24],[-22,6],[-30,44],[-6,22],[11,18],[-16,33],[0,56],[-20,43]],[[8858,3883],[34,23]],[[8858,3883],[-12,44]],[[8807,4114],[-1,24],[20,101],[10,97],[9,14],[1,51],[13,76],[7,69],[19,70],[21,129],[28,69],[26,6]],[[7678,3445],[31,38],[24,-19],[24,-3],[22,15],[27,0],[52,26],[27,3],[56,-5],[61,11],[39,20],[29,6],[29,-5],[33,4],[128,70],[75,34],[97,57]],[[8463,3631],[7,-36],[26,-39],[10,-25],[-4,-35],[-47,-152]],[[8062,3060],[-19,25],[-28,10],[-25,0],[-39,-34],[-26,-8],[-25,3],[-32,23],[-23,-7],[-16,7],[-11,22],[-28,18],[-5,15],[22,36],[-63,5],[-7,17],[16,37],[-33,30]],[[7690,3341],[1,34],[-32,-4],[-19,13],[18,40],[20,21]],[[4862,3089],[42,34],[101,125],[61,65],[101,70],[311,209],[51,18],[39,0],[61,-14],[27,-2],[237,9],[749,-4],[30,1],[294,20],[41,16],[46,35],[31,16],[85,17],[86,39],[31,-2],[54,-21],[34,-6],[15,-46],[71,-29],[35,3],[23,11],[27,-3],[23,-19],[22,-38],[5,-23],[32,-48],[4,-32],[12,-18],[35,-27]],[[7201,24],[-328,-1],[-121,1],[-449,-2],[-271,-3],[-516,0],[-153,-1],[-107,0],[-392,-1]],[[8311,4917],[-58,9],[-37,25],[-34,4],[-14,-89],[42,-20],[15,-21],[44,3],[20,-6],[32,-26],[40,-7],[12,-18],[31,-5],[12,-14],[10,-54],[26,-102],[16,-29],[14,-52],[3,-52],[26,-58],[3,-60],[-14,-23],[4,-38],[-28,-47],[-29,-16],[-3,-32]],[[8444,4189],[23,-77],[2,-36],[-14,-60],[-28,-43],[-17,-44],[26,-11],[25,-35],[44,-14],[12,-25],[92,-6],[11,-27],[-23,-21]],[[8420,18517],[14,-48],[47,-12],[21,-18],[37,-1],[17,11],[32,-32],[18,-8],[1,-19],[28,-85],[31,-46],[28,-5],[40,-17],[14,-25],[49,-20],[6,-12]],[[8803,18180],[-10,1],[-43,-23],[-29,0],[-258,-250],[-39,-34],[-226,-191],[-50,-53],[3,-30],[-16,-11],[-7,-36],[25,-11],[1,-16],[23,-61],[-5,-27],[-62,-59],[-11,-24],[-28,-21],[-2,-28],[17,-35],[-6,-20],[-19,-14],[-8,-21],[-20,-7],[-45,-59],[-25,-15],[-28,-4],[-35,-21],[-23,-2],[-51,-44],[-33,-7],[-18,-23],[-19,-9],[4,-22],[-27,-43],[2,-20],[-12,-35],[4,-29],[-10,-51],[11,-25],[-11,-17],[-7,-38],[-21,-21],[10,-37],[-11,-15],[3,-56],[-14,-14],[-4,-39],[16,-28],[-10,-23],[-18,-15],[4,-34],[-18,-22],[-6,-37],[7,-25],[-4,-28],[26,-24],[-7,-22],[13,-18],[-5,-30],[10,-21],[-7,-17],[13,-18],[-15,-62],[29,-24],[9,-38],[-3,-68],[1,-185],[-2,-197],[3,-819],[1,-693],[-1,-117],[2,-7],[2,-393],[0,-84],[5,-493]],[[7718,13021],[-24,30],[16,11],[-2,33],[-31,26],[-29,-10],[-11,22],[-20,7],[-38,-6],[-25,9],[-8,35],[-19,19],[-4,23],[-19,23],[-18,0],[-37,-22],[-19,25],[-25,-11],[-30,30],[-51,-5],[-17,-18],[-45,14],[-14,60],[8,21],[-10,14],[7,32],[25,37],[-14,16],[-41,-2],[8,29],[-3,22],[-24,-5],[-4,24],[42,34],[21,29],[-11,15],[14,34],[-6,33],[-27,13],[-15,23],[6,37],[-24,11],[-23,45],[8,15],[-16,38],[-27,-3],[-19,12],[-3,18],[-47,74],[-20,19],[-40,4],[-39,39],[-41,5],[-21,53],[6,12],[-15,23],[-20,67],[5,83],[-30,23],[-37,-21],[-33,28],[-16,31],[-9,32],[5,54],[-15,72],[-14,29],[3,22],[-27,9],[-23,34],[-2,21],[-26,17],[6,40],[-4,18],[27,30],[-13,29],[-23,18],[4,84],[-25,40],[-3,27],[-36,24],[-13,17],[43,24],[24,41],[-32,46],[-1,25],[24,10],[0,43],[35,19],[8,27],[-11,23],[8,37],[-25,23],[-10,31],[-27,1],[-43,42],[-22,38],[-12,54],[3,27],[25,35],[4,59],[-8,14],[12,32],[-6,13],[-47,17],[-16,36],[-23,-1],[-30,-19],[-34,-8],[-33,-26],[-46,-7],[-15,10],[-43,-4],[-2,640],[-375,4],[-210,4],[-241,-1],[-609,3]],[[4849,16227],[2,384],[-2,285],[3,95],[-4,96],[1,192],[1,821],[0,424],[-11,1],[0,397],[2,737],[0,137]],[[12855,13301],[25,34],[-48,0],[0,61],[93,1]],[[10956,12405],[30,-24],[27,1],[5,19],[25,10],[-6,18],[17,26],[101,-10],[11,-8],[41,10],[16,-4],[28,-61],[37,-50],[-2,-49],[10,-23],[29,-17],[40,-10],[18,-13],[25,-4]],[[11253,12071],[2,15],[-88,25],[0,5],[-123,-2],[-16,11],[-17,31],[-11,5]],[[12651,13395],[41,60],[39,27],[12,27],[3,66],[6,20],[42,10],[10,17],[-12,23],[14,17],[28,-8],[21,37],[8,30],[-34,23],[17,21],[-12,19],[-31,7],[-1,18],[45,4],[15,-28],[35,2],[29,37]],[[12824,13259],[-38,-4],[-57,3],[-18,-9],[-37,19],[-32,8],[-26,-6],[-24,17],[-46,8],[-21,10],[-49,-10],[-48,39],[9,27],[-29,25],[9,45],[27,14],[26,-6],[20,-20],[44,21],[46,-2],[27,-27],[32,-24],[12,8]],[[8803,18180],[27,-37],[26,-59],[32,-40],[39,-70],[6,-47],[29,-27],[21,-51],[31,-15],[36,-26],[2,-14],[52,-27],[0,-488],[-1,-34],[222,-1],[565,0],[40,-2],[235,1],[87,-2],[1,-95],[192,1],[89,-2],[133,5],[164,0],[0,-195],[192,-2],[386,3],[-2,-286],[54,0]],[[11461,16670],[-13,-22],[-4,-35],[-44,-18],[-30,-60],[49,-59],[0,-20],[11,-35],[27,-44],[4,-29],[44,-77],[23,-30],[31,-53],[-16,-7],[-31,-56],[-32,-32],[-21,-47],[-8,-52],[7,-8],[-40,-51],[-48,-23],[-33,-27],[-44,-82],[-14,-172],[-33,-79],[-7,-95],[-25,-56],[-21,-82],[-1,-17],[11,-126],[5,-21],[42,-112],[81,-97],[33,-58],[22,-11],[1,-20],[-36,-31],[-9,0],[-56,-48],[-45,-21],[6,-22],[-6,-18],[-22,1],[-31,20],[-41,-24],[-32,2],[-30,20],[-33,1],[-28,-15],[-15,4],[-22,24],[-10,-28],[22,-79],[-6,-24],[26,-9],[42,-53],[28,-11],[25,-22],[4,-35],[23,-49],[8,-3]],[[11149,14437],[25,-594],[-61,-199],[4,-226],[0,-195],[-2,-90],[-4,-19],[14,-61],[-9,-20],[2,-235],[-25,-16],[-37,-39],[-21,-33],[-24,-9],[-86,0],[0,-226],[31,-70]],[[8358,12311],[-16,55],[-14,121],[-29,11],[-25,71],[-11,52],[0,20],[-53,38],[-4,31],[-21,44],[-44,63],[-20,-16]],[[8121,12801],[-55,-29],[-24,10],[-40,-2],[-14,46],[-12,23],[-31,32],[-47,12],[-38,22],[-17,49],[-42,-2],[-12,17],[-35,5],[-15,-7],[-9,33],[-12,11]],[[2301,14719],[1,371],[257,0]],[[2559,15090],[-22,-38],[-20,-20],[11,-29],[34,-42],[43,-16],[21,-18],[19,-34],[4,-39],[13,-20],[32,-9],[26,-34],[52,-16],[46,26],[75,-19],[13,-7],[109,-112],[29,-26],[31,-50],[10,-29],[225,-321],[9,-7],[145,-51],[30,10],[147,9],[47,-25],[47,0],[73,-23],[56,13],[35,-4],[30,-11],[32,-46],[18,-36],[22,-1],[32,20],[46,-3],[37,-39],[36,0],[16,-9],[17,-33],[47,-48],[21,-34],[57,-177],[0,-28],[-14,-83],[10,-32],[35,-49],[46,-72],[78,-79],[21,-32],[27,-59],[45,-48],[68,-89],[20,-50],[35,-261],[24,-114],[4,-80],[11,-61],[5,-64],[-1,-57],[7,-16],[21,-13],[271,-21],[41,-9],[50,-26],[19,-6],[48,6],[25,-4],[146,-40],[24,2],[32,-10],[46,-38],[34,-13],[125,2]],[[5613,12298],[16,-21],[3,-21],[19,-12],[29,-60],[34,-33],[35,-10],[7,-35],[13,0],[40,-30],[-7,-17],[24,-41],[-11,-6],[8,-33],[26,-20],[42,4],[26,-31],[75,-51],[117,-60],[31,-21],[70,-41],[20,-17],[142,-129],[18,-22],[20,-46],[52,-54],[15,-38],[0,-280],[7,-26],[95,-144],[43,-96],[18,-29],[115,-167],[50,-53],[139,-259],[7,-16],[18,-81],[11,-130],[12,-81],[10,-34],[72,-148],[129,-313],[31,-69],[9,-37],[8,-149],[6,-24],[124,-284],[23,-62],[5,-37],[1,-86],[12,-39],[99,-189],[11,-24],[47,-131],[16,-39],[47,-91]],[[2479,8486],[-4,581],[-3,484],[-227,-1],[3,338],[-2,0],[-1,190],[1,341],[-1,291],[1,486],[0,73],[-162,1],[-1,261],[1,192],[173,0],[-1,419],[-3,559],[-2,737],[4,0],[1,390],[0,174],[45,1],[0,716]],[[11149,14437],[15,-13],[48,-60],[38,-61],[16,-18],[79,-64],[24,-13],[111,-33],[123,-52],[76,-16],[77,-21],[89,-40],[86,-52],[62,-56],[233,-185],[20,-14],[131,-67],[63,-42],[12,-22],[17,-62],[16,-27],[51,-28],[38,-16],[21,-15],[40,-40],[16,-25]],[[13048,13828],[40,38],[188,155],[65,62],[76,80],[22,27],[268,385],[31,34],[40,16],[112,-14],[14,1],[113,44]],[[11461,16670],[521,2],[0,-192],[577,-1],[0,-190],[393,-2],[183,1],[-1,-94],[422,-1],[364,1],[92,-1]],[[19672,25042],[31,6],[91,-1],[80,-4],[35,-13]],[[19909,24993],[-45,0],[-6,-18]],[[19858,24975],[-48,6],[-73,1],[-32,-24]],[[19705,24958],[-35,-20],[-27,26],[40,4],[0,45],[-11,29]],[[19672,25042],[-13,0],[0,48],[12,52],[15,4],[61,-8],[68,-4],[69,6]],[[15196,26317],[558,0],[491,0],[393,0],[188,2],[438,3],[633,-3],[116,1],[452,-3],[187,-1],[198,-4],[136,0],[107,-9],[99,-13],[50,4],[193,-5],[50,0],[593,-2]],[[19705,24958],[4,-26],[-10,-13],[29,-44],[-2,-26],[44,1]],[[19770,24850],[2,-84],[15,25],[21,-7],[-24,-59],[2,-67],[-2,-63]],[[17816,23421],[-16,54],[-1,41],[-17,38],[8,13],[-28,17],[-22,34],[9,36],[-46,4],[-21,18],[-30,8],[-47,-7],[-30,15],[-17,16],[2,33],[-12,19],[-49,4],[11,-28],[-50,-14],[-24,12],[-45,2],[-31,28],[-27,2],[-45,36],[-6,29],[-29,22],[-22,48],[-21,60],[-26,1],[-15,-14]],[[17169,23948],[-6,-16],[-31,-26],[-44,2],[-19,-6],[-20,11],[-8,31],[1,29],[-24,18],[4,30],[23,8],[29,25],[11,22],[-37,40],[-17,5],[-34,-9],[-48,13],[5,24],[-9,19],[4,32],[-38,1],[-17,15],[-36,16],[-29,-2],[-36,45],[-36,-10],[-35,44],[-43,0],[-36,19],[-18,22],[-19,-16],[1,-21],[-14,-17],[-34,1],[-40,-12],[-27,13],[-35,-7],[-22,-20],[-5,-33],[-30,-17],[-42,-9],[-18,32],[-31,20],[-15,33],[14,22],[2,42],[-22,17],[-50,17],[-10,-20],[-54,27],[-40,10],[-51,38],[-29,-7],[-12,-13],[-25,6],[-45,57],[31,39],[-6,30],[11,52],[-26,30],[16,55],[-32,14],[-6,34],[6,26],[-11,33],[-50,18],[-31,2],[-38,-9],[-51,32],[-16,19],[-19,3],[-14,19],[-37,15],[-26,24],[-59,16],[-35,-11],[3,63],[17,21]],[[15599,25018],[48,41],[8,61],[-24,18],[-23,-4],[-29,29],[20,38],[-6,38],[-17,21],[5,34],[-27,11],[-16,21],[-9,51],[-8,16],[-27,15],[-25,34],[-33,7],[-16,34],[21,53],[-1,82],[24,5],[21,24],[10,46],[-14,8],[-6,58],[-32,20],[-19,26],[-24,14],[-14,24],[-47,32],[-2,60],[14,47],[-1,24],[11,28],[3,34],[-20,80],[-13,39],[9,30],[-42,42],[-15,-5],[-26,31],[-14,6],[-27,-6],[-20,32]],[[19770,24850],[10,23],[-25,0],[6,28],[36,1],[0,16],[55,-1],[6,58]],[[29792,10604],[94,7],[213,1],[238,-1],[75,2],[525,-5]],[[30937,10608],[1,-467],[2,-785],[-1,-290],[3,-284],[-2,-205],[3,-364]],[[30943,8213],[-3,-185],[2,-181]],[[30942,7847],[-47,8],[6,33],[-13,7],[-35,0],[-13,-35],[-22,2],[-12,-15],[8,-36],[-17,-26],[3,-23],[-24,2],[-11,-58],[-23,9],[-86,-88],[-21,9],[-110,-37],[32,-38],[-60,-14],[-126,-21],[-31,-28],[-36,-74],[-33,-12],[-13,9],[-39,-30],[-64,-8],[-1,-24],[-29,0],[-53,15],[-30,34],[-11,-18],[-22,37],[-31,-13],[-36,-7],[-9,17],[-42,-4],[-21,27],[-23,-15],[-37,15],[-6,-14],[-55,20],[-54,-13],[-51,2],[-28,-27],[-35,-13],[0,53]],[[29581,7455],[-15,28],[-5,36],[-29,53],[-18,70],[-8,45],[-14,35],[-5,44],[-52,86],[-5,14],[-1,94],[-43,120],[0,30],[16,35],[-104,0],[-148,147],[-31,22],[-30,28],[-21,-5],[-184,-1],[-491,-6],[-283,-5],[-10,-27],[-16,-5],[-29,-33],[-21,-14],[-5,-107],[4,-54],[-12,-26],[-21,-14],[-73,18],[-15,-2]],[[27912,8061],[2,210],[-2,272],[-1,173],[-3,174],[1,83],[-9,131],[-1,334]],[[27899,9438],[8,0],[-6,395],[-2,56],[1,184],[-6,377],[-7,134],[174,-1],[308,7],[60,3],[89,-3],[224,11],[64,1],[104,-3],[140,3],[219,-1],[151,3],[37,-3],[171,0],[164,3]],[[30310,1037],[-22,-27],[-1,-18]],[[30287,992],[-49,1]],[[30238,993],[-45,0]],[[30193,993],[1,42],[116,2]],[[29756,16456],[118,1],[366,6],[238,3],[81,4],[664,1],[380,-2],[79,2],[659,2],[31,-1],[464,3],[61,1],[342,1],[580,1],[23,2]],[[33842,16480],[0,-571],[1,-569],[3,-216],[0,-340],[2,-790],[1,-57],[0,-550],[1,-115],[0,-473],[0,-447],[0,-77],[1,-714],[-1,-85],[2,-533],[-1,-74],[0,-246]],[[33851,10623],[-309,1],[-312,0],[-297,0],[-190,-2],[-377,-2],[-75,-4],[-264,-4],[-113,-4],[-102,1],[-664,-6],[-66,4],[-145,1]],[[29792,10604],[1,106],[-1,428],[-1,42],[-3,179],[2,237],[-3,151],[-24,1],[1,90],[-6,51],[4,46],[-3,77],[2,183],[6,150],[-3,7],[1,160],[0,661],[1,35],[0,461],[-4,278],[7,92],[1,91],[-5,667],[-1,19],[-1,416],[3,271],[-1,92],[-3,42],[-1,212],[-2,465],[-3,142]],[[30190,909],[32,12],[41,-17]],[[29992,783],[0,26]],[[27245,11778],[-7,-14],[24,-32],[10,-27],[32,-26],[24,-9],[34,5],[12,-22],[-15,-51],[1,-26],[14,-23],[2,-24],[-27,-30],[-15,-38],[9,-19],[28,-22],[10,-18],[-3,-45],[8,-20]],[[27386,11337],[-33,-17],[0,-65],[-81,0],[-23,15],[2,17],[-37,15],[-9,17],[-22,4],[-13,29],[-51,32],[-49,-15],[-86,-5],[7,13],[13,87],[32,31],[4,12],[0,125],[87,6],[6,35],[31,17],[-11,32],[10,27],[1,105],[54,-54],[27,-22]],[[27245,11778],[2,25],[-8,21],[-5,50],[29,6],[20,17],[35,-2],[25,9],[11,-15],[45,37],[-3,20],[12,44],[0,37],[27,17],[39,7],[30,-15],[43,-6],[43,15],[34,-2],[59,-24],[41,-4],[11,-7],[40,14],[258,2],[0,-43],[19,-10],[20,-26],[-3,-14],[12,-48],[-9,-43],[2,-36],[19,-9],[19,-24],[5,-23],[-42,2],[-27,11],[-23,-7],[0,-101],[-14,-13],[-30,0],[-27,-57],[27,-38],[54,3],[15,-41],[33,-33],[-42,3],[-12,-7],[-27,6],[-31,-50],[-5,-21],[-28,-17],[-33,9],[-19,14],[-32,2],[-67,37],[-27,-8],[-47,5],[-107,2],[15,-34],[-38,23],[-47,17],[-34,1],[-74,-7],[15,-77],[-57,-35]],[[24353,16425],[81,-1],[605,2],[42,2],[562,3],[93,-2],[512,4],[326,4],[278,-1],[23,2],[236,-1]],[[27111,16437],[359,4],[585,4],[47,2],[505,-2],[279,3]],[[28886,16448],[383,4],[2,2],[200,0],[91,-1],[194,3]],[[27899,9438],[-235,-2],[0,-79],[-46,0],[0,-93],[-48,0],[-1,-187],[-46,-1],[4,-281],[11,-94],[-97,-1],[15,-166],[0,-24],[-602,-1],[-83,-2],[-44,-5],[-2,47],[-44,-10],[-135,18],[-172,2],[0,47],[-70,-2],[-4,480],[189,-1],[0,190],[94,0],[1,160],[-168,1],[-14,2],[-154,2],[-353,-2],[-101,0],[-151,4],[-307,-2],[-289,2],[-123,5],[-202,-2],[-111,7],[-98,-2],[-431,2]],[[24082,9450],[-12,0]],[[24070,9450],[6,94],[-3,189],[3,176],[-9,215],[3,387],[-1,153],[2,508],[10,0],[0,71],[-10,0],[0,81],[25,1],[0,23],[-18,-1],[0,103],[-9,0],[-4,265],[21,1],[-1,602]],[[24085,12318],[-5,816],[-9,873],[10,-1],[2,810],[-2,330],[1,380],[0,278],[-3,381],[1,93],[-21,0],[1,144]],[[24886,12222],[42,-27],[-1,-72],[35,-2],[-11,-17],[150,1],[44,-10],[150,-55],[12,-3],[43,68],[21,0],[17,27],[-30,15],[-11,23],[-12,62],[-38,9],[-20,16],[-37,9],[-32,19],[-17,39],[-26,5],[-39,-26],[-28,6],[-38,25],[-34,-1],[-23,-19],[-18,-4],[-33,18],[-20,-5],[-39,-42],[0,-48],[-7,-11]],[[27958,5399],[84,31],[40,8],[49,36],[25,30],[23,19],[23,48],[10,41],[0,48],[16,52],[7,44],[23,44],[29,80],[22,24],[32,14],[47,9],[42,16],[129,23],[33,14],[37,29],[49,24],[33,23],[73,120],[45,70],[38,48],[60,36],[55,6],[0,-173],[17,-9],[15,-35],[16,2],[57,-18],[-2,27],[-32,13],[-25,30],[18,7],[1,20],[17,19],[13,-2],[29,19],[44,21],[45,-2],[48,-20],[8,-37],[20,-4],[48,42],[5,31],[35,8],[63,5],[16,12],[12,45],[55,18],[-9,104],[-21,101],[-1,83],[-12,49],[24,9],[-13,78],[5,38],[21,83],[6,40],[-2,54],[-9,54],[-27,38],[-34,6],[-18,34],[-48,58],[-28,54],[-8,26],[-19,125],[-12,34],[34,6],[129,0],[63,25],[55,1]],[[30942,7847],[3,-241],[0,-347],[3,-409],[0,-220],[-2,-26],[1,-135],[-1,-273],[0,-122],[0,-291],[2,-354],[0,-87],[1,-440],[-1,-578]],[[30948,4324],[-364,-2],[-106,0],[-449,5]],[[30029,4327],[-138,2],[-699,13],[-191,3],[-65,-1],[-216,3],[-173,-3],[-246,1],[-170,2],[-204,1]],[[27927,4348],[1,111],[-2,180],[-3,270],[35,0],[-1,52],[1,438]],[[27958,5399],[2,369],[-1,182],[-2,281],[1,282],[-8,138],[-2,536],[-35,1],[-2,236],[1,637]],[[28902,26312],[86,2],[820,-1],[422,-3],[824,-5],[189,-1],[480,-1],[352,-1],[602,-1],[600,-2],[204,0],[89,-1],[257,-1],[0,-12],[6,-541],[3,-252],[-3,-53],[3,-650],[1,-444],[-1,-95],[1,-295]],[[33837,23955],[-111,49],[-62,7],[-27,-4],[-41,9],[-75,-13],[-35,-20],[-55,-6],[-28,-9],[-48,-35],[-53,4],[-41,-3],[-31,12],[-94,12],[-32,13],[-45,4],[-23,10],[-57,6],[-35,20],[-32,5],[-47,18],[-84,19],[-48,2],[-36,33],[-53,8],[-82,-27],[-19,-14],[-31,-1],[-33,-19],[-32,-1],[-30,20],[-50,-3],[-23,6],[-18,-33],[-40,-13],[-36,-22],[-31,-57],[-26,-23],[-12,-27],[-31,-45],[-34,-22],[-14,40],[-30,13],[-32,0],[-20,16],[-12,23],[-52,17],[-11,-31],[-22,-21],[-31,-19],[-24,-45],[-2,-14],[-28,-35],[-45,-22],[0,-19],[-26,4],[-19,-8],[-47,-7],[-22,-10],[-40,12],[-24,-19],[-40,5],[-24,40],[2,32],[-21,38],[-20,17],[-17,45],[-55,20],[-12,16],[-71,37],[-27,-8],[-29,16],[-25,2],[-17,22],[-18,45],[-15,9],[-21,33],[-21,17],[-42,55],[-18,-15],[-30,-47],[-30,-37],[-9,-31],[-24,-36],[-56,-43],[-6,-23],[-26,-16],[-80,-4],[-40,-24],[-16,-22],[-2,-30],[1,-91],[12,-55],[-11,-31],[-54,-47],[-15,-30],[25,-55],[12,-43],[41,-82],[14,-68],[-29,-92],[-27,-28],[-1,-32],[-22,-33],[17,-41],[0,-30],[50,-27],[18,-20],[34,-18],[42,-40],[37,-19],[19,-37],[5,-43],[20,-48],[-8,-43],[17,-11],[17,-32],[62,-65],[50,-45],[5,-28],[30,-27],[27,-9],[20,-20],[38,-51],[-3,-21],[-36,-43],[-11,-57],[-23,-68],[-14,-1],[-12,-25],[3,-82],[22,-53],[16,-13],[10,-46],[18,-17],[29,-58],[-7,-65],[-16,-15],[-10,-26],[21,-11],[77,7],[53,21],[44,34],[20,8],[30,-3],[58,-32],[45,-41],[48,-10],[26,9],[58,39],[-7,-35],[-44,-70],[-7,-24],[23,-49],[-20,-99],[12,-29],[0,-44],[57,-1],[67,-44],[40,-50],[37,-35],[25,-16],[17,-23],[3,-36],[-12,-12],[2,-44],[10,-22],[3,-56],[-33,-91],[8,-79],[-1,-103]],[[31877,20931],[-743,-6],[-51,2],[-471,-6],[-892,-8],[-450,-5],[-1,-3],[-182,1],[-198,-5]],[[28889,20901],[-14,0],[-11,265],[0,122],[3,190],[-1,141]],[[28866,21619],[-5,254],[3,119],[-1,215],[3,300],[4,209],[1,184],[-1,128],[2,181],[-17,1],[3,93],[-1,237],[2,82],[-1,227],[0,627],[0,320],[1,116],[41,-4],[1,148],[6,325],[3,85],[-9,0],[1,469],[-1,299],[1,78]],[[33837,23955],[0,-255],[-1,-70],[1,-295],[-1,-193],[2,-805],[0,-224],[1,-728],[4,-457]],[[33843,20928],[-513,2],[-634,1],[-369,1],[-36,4],[-324,-5],[-90,0]],[[8444,4189],[78,1],[33,-3],[64,6],[110,1],[26,-25]],[[30195,1159],[-1,-71]],[[30194,1088],[-27,23],[-67,1]],[[30100,1112],[1,71]],[[30484,990],[81,-1]],[[30269,916],[1,9],[-32,68]],[[30150,993],[43,0]],[[30164,964],[-14,29]],[[4849,16227],[-29,0],[3,-92],[0,-283],[-2,-197],[-290,2],[-440,2],[-205,2],[-452,-5],[0,-169],[2,-401],[-344,2],[-414,2],[-119,0]],[[2301,14719],[-228,3],[-604,-5],[-306,2],[0,517],[-551,-3],[0,16],[-77,1],[-137,-2],[-138,1],[-213,-1]],[[47,15248],[0,319],[0,109],[-3,852],[1,215]],[[45,16743],[38,-24],[85,-74],[53,-36],[59,-53],[60,-38],[15,-22],[2,-22],[27,-18],[32,5],[64,-20]],[[480,16441],[-1,-35],[-10,-30],[3,-18],[20,-20],[-9,-29],[-48,28],[-20,-1],[-6,15],[-92,8],[-21,-42],[-76,24],[-17,21],[-27,4],[-17,-10],[-26,2],[-6,-26],[-40,-50],[11,-40],[17,-11],[-3,-27],[8,-34],[-17,-18],[2,-16],[36,-28],[20,-40],[16,-11],[-1,-18],[25,-13],[39,2],[31,-17],[25,-33],[2,-17],[93,-8],[46,-44],[21,-3],[22,10],[26,-28],[43,-5],[36,6],[12,-15],[25,4],[17,-24],[52,5],[23,-18],[23,-3],[37,24],[32,8],[26,25],[21,8],[18,33],[48,34],[39,-12],[33,-3],[10,20],[22,-12],[39,-5],[19,-15],[7,-31],[16,-9],[1,-38],[21,-19]],[[1126,15846],[19,-61],[42,-8],[15,-21],[73,10],[13,-7],[28,11],[17,-21],[34,-5],[23,-18],[84,-21],[16,9],[-6,41],[14,11],[52,-9],[30,7],[48,-4],[16,9],[13,37],[1,41],[32,60],[10,53]],[[1700,15960],[25,7],[30,19],[29,-9],[52,-50],[50,-7],[22,15],[40,-6],[10,-34],[29,18],[16,56],[-53,62],[-18,11],[14,32],[46,-5],[60,29],[5,37],[-25,3],[-23,56],[-4,34],[-37,24],[-45,37],[-41,65],[-8,55],[-21,20],[-27,49],[-58,36],[-108,3],[-43,-25],[-35,-46],[-30,-17],[-36,9],[-77,-14],[-26,-38]],[[1413,16386],[25,110],[23,36],[19,43],[30,44],[13,26],[1,30],[31,90],[-1,130]],[[1554,16895],[0,71],[12,51],[29,87],[19,149],[32,141],[49,85],[61,85],[30,29],[20,31],[32,35],[16,85],[20,36],[18,82],[40,70],[48,48],[27,34],[50,76],[35,40],[31,8],[35,-13],[24,-2],[40,19],[40,3],[17,12],[40,45],[20,28],[19,10],[41,7],[42,24],[32,41],[19,42],[16,66],[43,64],[8,54],[20,36],[34,43],[3,53],[17,22],[-11,26],[-24,19],[-7,41],[-39,28],[-59,50],[-69,16],[-15,-6],[-57,-7],[-18,11],[-8,30],[9,30],[-4,35],[5,73],[-19,34],[-27,25],[-29,14],[-44,7],[-54,-14],[-45,12],[-28,1],[-61,74],[-8,17],[17,40],[6,61],[11,27],[-2,36],[-24,23],[-2,43],[-7,28],[4,26],[-13,37],[-28,34],[-58,32],[-37,37],[-21,45],[-40,55],[-8,45],[-21,13],[-25,-2],[-11,11],[-23,69],[9,41],[2,55],[-6,47],[13,44],[6,88],[29,43],[1,80],[33,42],[35,64],[20,48],[1,66],[15,46],[10,46],[-17,30],[-417,-2],[-4,6],[-604,2],[-669,0],[-170,-1]],[[26,20613],[0,575],[-2,333],[0,545],[2,140],[-1,348],[2,304],[-17,28],[-2,564],[-3,670]],[[480,16441],[52,-4],[29,18],[17,25],[36,10],[10,23],[14,-2],[52,50],[30,14],[99,108],[43,17],[71,38],[23,1]],[[956,16739],[-2,-51],[-37,-89],[-6,-29],[-20,-31],[-7,-22],[0,-58],[9,-14],[89,1],[38,12],[20,-5],[15,20],[8,42],[20,29],[0,26],[19,24],[29,73],[45,51],[18,-1],[19,13],[21,27]],[[1234,16757],[11,9],[25,-9],[42,29],[53,19],[14,14],[51,25],[11,15],[29,-5],[42,32],[42,9]],[[1413,16386],[-19,-41],[-25,-34]],[[1369,16311],[-6,-18],[-24,-28],[-38,-14],[-26,-23],[-12,-21]],[[1263,16207],[-22,15],[-17,-3],[-43,13],[-133,0],[12,-21],[2,-43],[-11,-16],[4,-31],[11,-16],[-7,-34],[7,-15],[23,-16],[-4,-12],[34,-59],[6,-65],[14,-27],[-13,-31]],[[1234,16757],[5,40],[-2,33],[11,13],[-13,31],[-34,9],[-40,-31],[-36,1],[-1,-87],[-36,-13],[-124,1],[-8,-15]],[[45,16743],[-1,518],[-4,486],[-1,286],[0,451],[-1,242],[0,453],[-3,564],[-9,132],[1,56],[3,567],[-4,115]],[[1263,16207],[6,-62],[54,9],[21,11],[36,-6],[46,36],[-14,20]],[[1412,16215],[30,-3],[27,-16],[42,-12],[101,-50],[59,-49],[36,-19],[24,-3],[59,-24],[28,-6],[-11,-31],[-28,-3],[-28,6],[-23,-7],[-24,-22],[-4,-16]],[[1369,16311],[7,6],[53,0],[43,8],[1,-49],[-7,-18],[-54,-43]],[[33205,7340],[-2,-150],[-8,-15],[-1,-99],[28,1],[0,-65],[-7,-57]],[[33215,6955],[-50,29],[-30,-35],[-19,10],[-19,-15],[-50,5],[-45,17],[-11,11],[8,21],[-29,21],[-5,38],[-24,12],[5,42],[-14,18],[-19,-1],[-34,-17],[-24,16],[-36,5]],[[32819,7132],[1,47],[6,12],[1,273],[41,13],[38,-22],[13,-16],[-10,-23],[13,-21],[29,-6],[25,6],[24,-17],[20,-41],[33,10],[69,5],[32,32],[16,-1],[35,-43]],[[33851,10623],[-1,-734],[1,-177],[0,-645],[1,-765],[-2,-80],[1,-380],[2,-142],[-3,-233],[3,-100],[-2,-132]],[[33851,7235],[-19,-11],[-20,-30],[-25,-11],[-39,24],[-18,3],[-16,-18],[-24,-12],[-30,4],[-33,17],[-17,15],[-23,7],[-84,-30],[-55,12],[-33,15],[-25,22],[-18,6],[-13,19],[-62,15],[-31,19],[-48,21],[-13,18]],[[32819,7132],[0,-143],[-2,-52],[-28,15],[-16,21],[-81,35],[-49,24],[-30,9],[-22,16],[-41,10],[-33,34],[-62,24],[-49,-14],[-14,6],[-4,26],[-23,25],[-55,9],[-16,18],[0,18],[-31,17],[-5,20],[10,19],[37,-4],[30,5],[16,19],[-35,21],[-17,3],[-40,41],[-40,14],[-42,-29],[-25,-5],[-9,32],[-16,14],[11,20],[-4,16],[-43,11],[-3,24],[-35,3],[-6,-39],[-37,-3],[-36,14],[-43,32],[-52,27],[-25,34],[-2,29],[6,46],[-16,18],[-3,25],[18,19],[-26,23],[-17,32],[-19,10],[-33,37],[-47,16],[-15,20],[-14,59],[-32,11],[-22,16],[-34,2],[-17,9],[-24,-16],[-52,31],[-42,3],[-12,-16],[-31,0],[-31,-30],[-29,31],[-101,-24],[-26,5],[-10,36],[7,11],[62,18],[11,15],[43,-1],[24,28],[1,79],[-20,22],[-57,-3],[-55,25],[-18,-2],[-18,-17],[-38,-1],[-41,23],[-18,-1],[-35,23],[-19,56],[-10,49],[-18,-15],[-65,9],[-16,-16]],[[33851,7235],[-1,-105],[1,-358],[0,-233]],[[33851,6539],[-26,-21],[-13,-24],[-21,6],[-31,37],[-29,-2],[-36,33],[-8,37],[-16,8],[3,21],[-11,26],[-13,8],[-6,25],[-20,20],[-7,19],[-37,15],[-29,43],[-25,13],[-12,17],[-43,8],[-14,-15],[-19,10],[-20,-16],[-40,49],[-26,0],[-8,12],[4,30],[-41,2],[-15,8],[-39,43],[-38,4]],[[33851,6539],[1,-211],[-1,-270],[0,-207],[1,-308],[-1,-633],[1,-99],[-1,-433],[0,-453],[2,-184]],[[32737,3743],[-294,0],[-94,2],[-433,-3],[-77,1],[-139,-2],[-149,2],[-415,1],[-186,2],[-3,462],[1,116]],[[21080,16406],[-20,-70],[6,-76],[43,-44],[14,-44],[3,-62],[-5,-67],[11,-34],[-7,-87],[9,-24],[-6,-29],[7,-26],[-32,-46],[-17,-46],[-35,-66],[-3,-18],[-66,-128],[3,-28],[20,-31],[44,-49],[15,-30],[52,-51],[17,-23],[23,-10],[3,-35],[20,-72],[3,-55],[8,-34],[16,-31],[24,-77],[17,-76],[52,-26],[26,-66],[34,-36],[54,-32],[28,-53],[14,-17],[34,-25],[26,-41],[22,-57],[7,-50],[25,-50],[1,-21],[-18,-65],[-18,-45],[0,-39],[19,-36],[9,-55],[25,-36],[28,-21],[23,-24],[5,-22],[-14,-65],[2,-144],[-3,-85],[13,-66],[0,-56],[122,-1],[6,-3],[90,-108],[32,-30],[42,-97],[20,-61],[-2,-21],[17,-39],[21,-11],[45,-5],[-1,-25],[30,-16],[-7,-26],[21,-3],[17,-48],[26,-12],[22,-22],[-9,-34],[24,-13],[-4,-34],[31,-1],[11,-51],[17,-15],[20,0],[32,-48],[-8,-17],[39,-34],[21,-29],[-26,-17],[1,-14],[34,-8],[17,-49],[-1,-23],[-20,-6],[33,-43],[-25,-10],[22,-16],[6,-51],[-13,-15],[17,-51],[2,-29],[35,-34],[-28,-19],[19,-27],[-11,-14],[24,-23],[2,-18],[27,-8],[14,-22],[26,11],[6,-24],[15,-6],[17,-35],[-8,-9],[19,-31],[19,-13],[15,9],[17,-24],[19,-9]],[[22590,12272],[-63,-1],[-26,-13],[-27,22]],[[22474,12280],[-72,57],[-68,45],[-100,51],[5,-15],[3,-261],[17,-1],[-1,-35],[-16,-47],[2,-119],[-20,-34],[-8,-24],[19,-7],[25,-55],[26,-8],[16,17],[3,27],[27,-1]],[[22332,11870],[-82,-115]],[[22250,11755],[-45,-72],[-20,-24],[-29,-22],[-36,-14],[-30,-3],[-32,-53],[-39,-26],[-66,-28],[-42,-28],[-43,-56],[-13,-80],[-23,-37],[-26,-24],[-73,-33],[-29,-28],[-236,-394],[-23,-35],[13,-8],[7,-30],[31,-5],[1,-25],[-36,-30],[-16,-33],[-18,-21],[2,-16],[38,-23],[9,-14],[10,-58],[-9,-34],[-11,-3],[-25,28],[-10,27],[-18,20],[-27,12],[-18,-12],[15,-42],[-30,-5],[-8,-35],[-17,-9],[-26,23],[-27,6],[-6,-14],[16,-30],[-16,-58],[-22,-12],[-54,-9],[-24,27],[-15,5],[-24,-15],[-28,2],[-10,-11],[-10,-39],[-28,-15],[-13,-40],[-19,-4],[-35,14],[-22,-6],[9,-24],[26,-25],[-11,-27],[-38,-23],[-21,-28],[-122,-103],[-108,-90],[-32,-22],[-24,-27],[-6,-35],[26,-20],[1,-28],[-28,7],[-1,-22],[15,-20],[-34,-61],[-25,-26],[17,-34],[-20,-1],[-14,-23],[-45,5],[-15,-22],[-34,2],[-16,-9],[-48,9],[-29,-7],[-13,7],[-43,1],[-8,17],[-31,-2],[-51,-25],[-35,-26],[-47,-14],[-21,-55],[-27,-11],[-49,-12],[-30,-40],[-12,-24],[3,-18]],[[20024,9450],[-208,1],[-216,0],[-605,5],[-603,2],[-180,2],[-94,-1],[-238,0],[-420,-1],[-386,-1]],[[30043,999],[0,-46],[-14,-14]],[[30031,904],[-21,5],[-57,-10],[-47,1],[-83,24],[4,42],[27,97],[0,43],[72,19],[37,23],[65,-11]],[[22332,11870],[24,20],[34,16],[31,7]],[[22421,11913],[53,10],[72,25],[47,22]],[[22593,11970],[0,-61],[24,11],[31,-20],[28,0],[16,11],[22,-1]],[[22714,11910],[34,-12],[93,2]],[[22841,11900],[86,1]],[[22927,11901],[29,0],[45,19],[38,44],[20,16]],[[23059,11980],[24,17],[11,-23],[-10,-24],[5,-22]],[[23089,11928],[-38,-58],[-45,-56],[-20,-42],[-10,-34],[-34,-13],[0,-42],[-58,5],[-25,13],[6,19],[-16,8],[-33,-60],[-19,-4],[-74,-5],[0,24],[-32,-1],[0,-39],[-13,-53],[4,-22],[-27,-88],[2,-44],[-29,17],[-19,59],[-14,19],[9,54],[2,62],[-44,12],[-30,47],[-5,40],[4,43],[-6,12],[-46,4],[5,-109],[-16,22],[-44,21],[-29,2],[-34,-16],[-47,15],[-4,-34],[-44,7],[-14,17],[-2,25]],[[22999,12285],[40,-6],[10,36],[12,12],[51,14],[46,-22],[28,-41],[29,-5],[21,6],[24,28],[32,0]],[[23292,12307],[0,-70],[-32,2],[0,-16],[-18,-23],[-8,-36],[20,-11],[-13,-20],[10,-15],[-18,-53],[-24,-47],[-20,-19],[-36,-17],[-55,-41],[-9,-13]],[[23059,11980],[44,36]],[[23103,12016],[15,23],[4,44],[17,24]],[[23139,12107],[14,36],[-22,25],[-3,47],[-35,13]],[[23093,12228],[0,14],[-95,-12]],[[22998,12230],[1,55]],[[23292,12307],[16,-6],[57,-2],[33,-43],[27,-20],[38,-16],[32,-25],[18,-30],[21,4],[8,53],[37,25],[45,6],[41,29],[27,-1],[44,25],[25,-14],[15,-37],[85,-10],[47,10],[13,-14],[39,13],[20,27],[26,-3],[23,20],[56,20]],[[24070,9450],[-209,0],[-299,1],[-286,1],[-396,-2],[-284,-6],[-192,-4],[-307,-6],[-80,1],[-256,-2],[-345,-1],[-144,4],[-816,9],[-99,0],[-63,3],[-270,2]],[[22997,12044],[0,-48],[85,22],[21,-2]],[[22927,11901],[0,76],[-23,62],[5,5],[88,0]],[[22872,12113],[125,2]],[[22997,12115],[0,-71]],[[22841,11900],[-6,51],[14,70],[31,47],[-4,17]],[[13628,17351],[22,-23],[50,10],[24,23],[40,-10],[17,24],[8,31],[3,41],[-34,0],[-32,20],[-1,28],[-71,5],[-1,-23],[24,-1],[0,-35],[-13,1],[-12,-28],[-22,-18],[-2,-45]],[[11995,22337],[23,17],[40,5],[45,49],[32,1],[43,35],[6,28],[33,8],[21,-24],[8,23],[83,-2],[11,20],[25,9],[47,-10],[19,-12],[5,-18],[38,-35],[21,-2],[36,-27],[40,4],[17,-14],[78,-29],[25,1],[26,-27],[14,-27],[66,14],[3,8],[40,7],[24,-7],[51,0],[23,-13],[40,-7],[20,8],[-4,18],[27,4],[39,-28],[27,10],[3,-24],[51,3],[11,16],[44,-29],[22,-6],[17,18],[14,-3],[14,21],[54,-31],[46,21],[39,-24],[19,-19],[38,-6],[32,3],[25,-20],[29,7],[20,-13],[68,35],[-2,15],[37,14],[36,6],[18,10],[3,30],[14,-1],[2,57],[45,2],[49,18],[29,-9],[14,19],[55,7],[15,21],[31,0],[24,12],[28,3],[18,40],[44,11],[47,28],[14,17],[25,7],[64,44],[50,49],[14,4],[0,41],[26,19],[15,0],[16,-19],[39,-20],[6,-18],[42,-1],[0,-23],[97,0],[46,27],[23,29],[27,4],[26,-33],[9,-35],[48,-71],[1,-14],[43,-53],[29,-20],[11,9],[27,-27],[20,-10],[37,-77],[1,-16],[19,-41],[1,-26],[27,3],[29,17],[-3,62],[13,17],[30,-8],[13,-20],[47,-25],[26,27],[-10,16],[23,30],[-39,59],[-6,17],[-39,25],[-26,31],[-13,6],[-74,78],[6,40],[49,81],[-8,32],[11,22],[2,35],[26,19],[54,-14],[15,-26],[42,11],[44,-20],[9,-36],[-8,-24],[42,12],[3,22],[26,-6],[5,21],[-10,27],[26,8],[-13,20],[1,27],[-25,29],[-49,23],[-14,-6],[-22,24],[-119,101],[-2,17],[-33,21],[35,52],[31,13],[111,-1],[64,-9],[71,10],[129,0],[84,-19],[43,5],[18,15],[36,52],[21,8],[78,-4],[66,-11],[44,11],[22,16],[14,58],[38,32],[72,24],[31,6],[43,24],[33,32],[41,17],[26,19],[37,14],[45,53],[30,5],[21,24],[38,15],[47,-8],[19,19],[67,43],[34,2],[7,-19],[59,-13],[41,5],[39,16],[84,-15],[49,-4],[48,-43],[23,-12],[46,-10],[33,-18],[26,-1],[28,8],[35,-17],[16,11],[2,34],[-12,18],[10,14],[28,15],[-8,24],[10,81],[32,53],[21,20],[0,38],[56,0],[14,10],[25,0],[8,41],[-6,84],[-6,14]],[[11764,26315],[420,0],[99,-5],[570,2],[603,2],[99,-2],[103,4],[564,-1],[476,1],[498,1]],[[15599,25018],[-54,35],[-33,10],[-103,-13],[-26,-8],[-47,9],[-36,-10],[-79,-45],[-30,-37],[-36,-16],[-15,29],[-20,-9],[-20,-29],[-26,5],[-24,21],[-14,46],[-43,28],[6,24],[-6,26],[18,6],[-7,21],[-22,7],[-20,-20],[-14,-30],[-22,3],[-18,-16],[-13,14],[-31,-31],[-11,-37],[-22,7],[-5,-25],[-27,-13],[-43,3],[-28,-12],[-26,0],[-29,-13],[-50,7],[-62,-14],[-57,-1],[-77,-5],[-59,1],[-27,8],[-253,201],[-1,-21],[-17,-21],[-49,-101],[-40,-35],[5,-70],[-5,-62],[-1,-72],[-29,-21],[-33,-37],[13,-32],[27,-37],[2,-199],[17,-14],[40,-11],[42,-20],[36,-35],[32,-15],[32,-78],[-3,-61],[-29,-32],[7,-67],[13,-16],[-1,-53],[21,-69],[9,-48],[-20,0],[-11,-42],[-45,10],[-55,44],[-14,24],[-19,12],[-21,57],[-38,27],[-20,23],[-50,39],[3,24],[-14,23],[14,22],[-3,21],[-40,34],[-29,31],[-26,52],[-19,0],[-50,41],[-24,-4],[-12,-19],[11,-32],[-105,-17],[-15,5],[-25,-36],[-16,4],[-13,-21],[-13,-58],[-64,51],[-3,-42],[-22,-4],[-38,9],[25,-44],[29,-93],[55,-80],[-1,-55],[18,-24],[-5,-39],[-14,-28],[-71,-28],[-23,-28],[-21,21],[-25,13],[-115,51],[-48,-9],[-67,13],[-31,-14],[-20,-24],[-95,-4],[-41,-31],[-41,0],[-54,27],[-36,36],[-20,28],[-24,59],[0,12],[-43,31],[-29,-10],[-40,11],[-66,-21],[-43,7],[-39,-3],[-53,8],[-126,11],[-57,22],[-23,-1],[-4,40],[-12,33],[-44,21],[0,17],[-32,7],[-24,-11],[-101,0],[12,-26],[4,-43],[-109,-2],[-10,-34],[-12,-13]],[[11904,23999],[-1,173],[2,178],[-2,344],[1,81],[-1,556],[1,137],[-136,0],[-2,213],[1,114],[-4,151],[0,203],[-3,53],[4,113]],[[27061,2114],[-32,31],[-35,7],[-64,-8],[-17,-10],[-33,-38],[-35,6],[-32,-14],[-35,-5],[-11,25],[-28,23],[-28,13],[-40,-2]],[[26454,2243],[27,38],[40,13],[35,41],[7,21],[-96,129],[-33,15],[-10,-144],[-23,-5],[-24,-46]],[[26377,2305],[-19,-14],[9,-51],[-10,-9],[-67,13]],[[26290,2244],[-21,33],[-62,38],[0,-128],[-4,-63],[-19,10],[-45,2],[13,-31],[-20,-26],[16,-10],[10,-23],[94,-1],[-3,-24],[47,1],[6,43]],[[26302,2065],[2,-25],[17,-23],[61,-23]],[[26382,1994],[15,-6],[7,-28],[72,-103],[54,-1],[1,-49],[47,1],[32,20],[17,31],[20,20],[-1,23],[-140,2],[-26,48],[58,-5],[172,-1],[31,-15],[14,15],[55,15],[23,21],[65,11],[38,11],[58,-6],[25,-16],[55,-15],[54,-24],[-17,-36],[26,3]],[[27137,1910],[7,-47],[11,-25],[2,-53],[-3,-32],[-17,-34],[19,-22],[7,-45],[-4,-86],[-8,-27],[1,-52],[-14,-59],[4,-33],[-21,2],[-14,42],[-19,16],[-46,11],[-76,-1],[-33,-10],[-61,4],[-27,-26],[-32,-8],[13,-16],[-37,-30],[-12,-39],[-15,7],[-55,-6],[-37,11],[-28,22],[-35,-5],[4,-30],[-6,-57],[-47,16],[-40,-7],[-22,-25],[-19,-9],[-60,0],[-11,17],[-36,8],[-14,-22],[-16,-3],[-40,27],[-73,17],[-30,23],[-35,8],[-12,12],[-32,5],[-27,-4],[-54,3],[-93,-84],[-42,-50],[-7,-25],[0,-36],[-20,-37],[-42,-34],[-83,-96],[-91,-83],[-88,-1],[-5,4],[-6,207],[-11,291],[-15,41],[27,19],[172,139],[2,273],[5,162],[-5,20],[44,42],[12,2],[25,55],[21,26],[-48,102],[-42,38],[-41,13],[-39,30],[-132,47],[-34,18],[-147,101],[-21,22],[-101,161],[10,24],[17,2],[31,23],[13,28],[27,25],[19,5],[31,24],[39,44],[29,11],[32,-1],[20,11],[25,-1],[17,12],[24,-2],[27,9],[12,-11],[17,23],[12,-1],[5,41],[28,-9],[36,18],[23,48],[14,10],[-13,28],[16,23],[-12,21],[-3,28],[25,15],[6,-20],[32,11],[19,-4],[18,21],[22,-23],[20,4],[26,-40],[13,21],[42,-9],[33,6],[18,-11],[36,-46],[25,3],[67,-31],[48,-46],[94,-11],[-12,32],[42,-6],[82,-77],[23,-87],[87,-22],[270,2],[-25,-81],[-20,-85],[5,-33],[26,-11],[28,-23],[33,3],[4,-11],[54,-53],[39,-52],[61,-69],[12,-33],[36,-38],[-12,-25],[19,-60],[26,-29],[-2,-37],[15,-11],[24,10],[39,-8],[-53,-65],[-12,-5]],[[26445,2136],[-26,2],[-2,-37],[-28,3]],[[26389,2104],[1,78],[20,1],[7,86],[-27,3],[-13,33]],[[26576,2141],[1,-76],[-12,0]],[[26565,2065],[-87,6],[-37,10]],[[26441,2081],[2,31],[39,-4],[0,19]],[[26384,2048],[16,5]],[[26400,2053],[1,-37],[29,10],[72,-1],[21,8],[40,3],[2,29]],[[27061,2114],[-9,-43],[30,-19],[15,1],[-14,-56],[11,-17],[24,-1],[23,-34],[-4,-35]],[[26382,1994],[2,54]],[[26290,2244],[12,-179]],[[26389,2104],[-5,-56]],[[22877,2548],[-1,82],[350,-3],[205,3],[0,-9],[399,4],[113,4],[163,1],[-2,131],[-5,188],[-5,250],[-2,420],[-2,521],[-2,286],[-4,486],[0,464],[-1,11],[1,510],[-2,200],[2,80],[-2,52],[1,226],[-2,149],[-2,569],[-4,0],[0,261],[3,169],[-1,126],[2,399],[1,118],[3,811],[3,219],[-4,174]],[[27927,4348],[-4,-94],[2,-129],[1,-806],[-1,-66],[1,-360],[2,-39],[2,-222],[-13,0],[-1,-134],[-1,-352],[3,-334],[-1,-195],[2,-330],[4,-294],[1,-659],[9,0],[0,-312]],[[27933,22],[-419,-2],[-662,-1],[-604,-3],[-272,-1],[-216,-1],[-566,1],[-428,1],[-332,0],[-293,-1],[-287,1],[-471,3],[-156,4],[-309,4],[-34,2]],[[22884,29],[-6,405],[-4,409],[1,319],[3,81],[-2,366],[2,425],[-2,436],[1,78]],[[26400,2053],[38,-3],[3,31]],[[51,14317],[16,-6],[13,-34],[26,-20],[28,2],[49,16],[1,-167],[-21,1],[-1,-96],[143,-1],[0,-167],[-2,-26],[96,0],[-1,-433],[-18,6],[-175,1],[-1,-528],[18,-44],[76,-1],[2,47],[95,0],[0,-239],[90,1],[8,-47],[147,0],[89,-2],[2,-66],[-4,-128],[56,2],[-14,-83],[21,-9],[39,0],[-2,-197],[-58,1]],[[52,12236],[-2,116],[2,75],[-1,272],[0,540],[0,459],[0,619]],[[51,14317],[0,390],[-2,213],[-2,328]],[[36,9237],[0,307],[-1,142],[2,99],[4,647],[6,433]],[[22998,12216],[-1,-101]],[[22872,12146],[7,34],[17,3],[52,24],[50,9]],[[22474,12280],[-55,-5],[1,-46],[-5,-36],[14,-17],[3,-36]],[[22431,12038],[12,-50],[-2,-42],[-23,-21],[3,-12]],[[22824,12239],[31,4],[-7,38],[29,9],[52,-19],[40,19],[30,-5]],[[22998,12230],[0,-14]],[[22808,12132],[1,36]],[[22809,12168],[-3,43],[18,28]],[[22593,11970],[57,28]],[[22650,11998],[38,33],[41,20],[47,15],[32,24]],[[22808,12023],[-19,0],[-8,-32],[-28,-20],[-25,-30],[-14,-1],[0,-30]],[[22590,12272],[32,1],[133,23],[18,9],[17,-33],[34,-33]],[[22809,12168],[-58,-15],[-40,-2]],[[22654,12111],[13,-60],[-17,-53]],[[11995,22776],[1,389],[-93,0],[0,618],[1,216]],[[22997,12115],[55,0]],[[23052,12115],[71,1],[16,-9]],[[23052,12115],[25,25],[5,35],[-5,35],[16,18]],[[8121,12801],[19,-49],[30,-37],[8,-29],[4,-54],[-18,7],[-43,-6],[-73,-46],[-39,-37],[-16,0],[-55,-25],[-8,-15],[-29,-24],[2,-63],[-23,-13],[-14,-21],[-16,12],[-16,-12],[-45,-50],[-15,0],[-22,-59],[-20,-8],[-13,-24],[-40,-28],[-34,3],[-27,-11],[-53,44],[-56,33],[-26,4],[-35,19],[-40,-5],[-33,3],[-17,-28],[-29,0],[-26,-14],[-76,-18],[-60,-4],[-40,-18],[-29,24],[-22,2],[-21,-9],[-45,6],[-55,-20],[-32,7],[-15,-12],[-90,-19],[-162,-67],[-15,-19],[-74,-21],[-44,4],[-30,-15],[-16,-27],[7,-26],[-9,-41],[-32,-9],[-27,18],[-29,-4],[-1,-15],[-25,-24],[-17,0],[-7,29],[5,17],[4,104],[-24,8],[-46,24],[-36,10],[-18,28],[-31,18],[-40,0],[-57,10],[-29,-8],[-114,0],[-39,25],[-90,0],[-7,36],[-26,35],[-176,1]],[[27867,21676],[46,-5],[25,23],[89,-4],[90,-23],[411,3],[39,-10],[59,-30],[46,-11],[119,-3],[75,3]],[[28889,20901],[-1,-176],[-4,-295],[-2,-119],[2,-56],[-1,-355],[1,-50],[-2,-135],[-3,-579],[0,-333],[-1,-197],[13,1],[-9,-506],[-1,-320],[-3,-502],[-1,-215],[1,-280],[3,-97],[1,-213],[4,-26]],[[27111,16437],[-6,99],[-15,62],[-12,97],[-42,208],[-70,204],[-9,45],[5,45],[41,114],[6,32],[-7,285],[-15,106],[-15,442],[-5,147],[2,14],[34,138],[21,231],[37,155],[27,176],[21,215],[9,133],[-70,0],[-13,-7],[-74,-15],[-26,-16],[-137,-25],[-29,-12],[-20,2],[-52,17],[-22,-18],[-68,-6],[-34,12],[0,37],[-64,4],[-36,-3],[-25,8],[-39,-1],[-36,17],[-31,-27],[-24,0],[-37,20],[-62,-2],[-30,5],[-56,0],[-68,11],[-26,-7],[-24,25],[-2,52],[-9,59],[-53,36],[-15,-6],[-26,21],[-54,7],[-38,30],[-21,8],[-26,26]],[[25771,19637],[-3,61],[2,50],[21,109],[-10,57],[12,64],[1,52],[-12,102],[2,74],[18,65],[24,58],[7,30],[0,147],[-3,60],[14,27],[71,63],[163,132],[95,74],[50,43],[64,62],[51,43],[26,37],[1,-75],[16,-35],[59,-59],[51,-2],[45,-29],[34,-62],[6,-22],[30,-25],[55,-21],[21,0],[15,-14],[63,-22],[5,10],[47,2],[33,6],[48,-6],[24,31],[37,62],[21,6],[-6,52],[-25,55],[-22,21],[10,25],[-9,23],[3,25],[48,-4],[17,-9],[11,45],[-42,28],[-29,30],[-23,41]],[[24389,19943],[34,9],[25,-15],[31,-1],[33,-39],[20,3],[35,-31],[78,-17],[28,-17],[57,-9],[22,-20],[65,-20],[36,-20],[42,-2],[30,17],[51,-48],[68,0],[25,11],[40,-17],[42,-49],[46,-35],[17,-31],[24,-28],[32,-20],[12,-18],[54,-40],[32,-8],[18,-14],[51,-57],[5,-21],[24,-18],[53,61],[52,47],[47,62],[30,25],[8,19],[44,23],[30,10],[41,2]],[[24317,26270],[467,0],[73,44],[321,1],[386,0],[486,1],[684,-2],[743,0]],[[27477,26314],[2,-31],[34,-120],[5,-27],[-4,-106],[-16,-162],[-39,-221],[-2,-20],[2,-140],[17,-88],[0,-228],[-15,-48],[-79,-116],[-13,-33],[-66,10],[-89,4],[-57,26],[-62,6],[-19,-14],[-90,0],[-28,17],[-50,6],[-20,-11],[-27,-37],[-16,-8],[-67,0],[-46,-16],[-13,-30],[1,-28],[11,-26],[-5,-27],[-14,-25],[-4,-66],[32,-41],[15,-64],[-35,-86],[-44,-39],[-54,-26],[-23,-41],[4,-19],[49,-46],[-57,-61],[-16,-32],[-48,-28],[-12,-42],[11,-25],[5,-36],[36,-66],[-2,-18],[-26,-47],[-9,-26],[2,-33],[-38,-44],[-8,-40],[-29,-23],[-13,-23],[1,-44],[12,-39],[0,-29],[11,-38],[-8,-32],[-42,-7],[-25,-14],[-26,1],[-58,-38],[-17,-38],[-13,-10],[-18,-47],[-8,-70],[-29,0],[10,-23],[-9,-15],[-44,-12],[-55,7],[-8,-5],[-42,11],[-28,-5],[46,-75],[42,-94],[150,-210],[163,-242],[73,-183],[32,-56],[28,17],[12,36],[32,-6],[10,20],[48,-13],[14,26],[18,-15],[21,8],[39,-26],[76,-13],[17,22],[-12,29],[21,6],[6,48],[9,25],[28,10],[15,23],[-2,23],[19,21],[31,-5],[25,-12],[17,-27],[2,-41],[12,-17],[-1,-31],[8,-31],[16,-13],[9,-61],[-16,-28],[-45,-58],[-9,-26],[43,-73],[-71,-37],[-20,-26],[8,-76],[-19,-49],[-5,-29],[0,-129],[-34,-158],[-1,-54]],[[26079,21351],[23,15],[2,18],[-30,65],[-4,21],[-71,92],[-17,34],[-25,-5],[-93,7],[-34,17],[-35,0],[-27,-10],[-27,11],[-59,3],[-28,-10],[-39,-3],[-39,6],[-70,-22],[-40,40],[-39,-3],[-49,4],[-143,-3],[-29,23],[-40,3],[-67,23],[-87,21],[-19,-14],[-59,-5],[-53,11],[-30,-36],[-53,-1],[-17,-15],[-2,-51],[-46,46],[-31,12],[-36,-5],[-77,-34],[-24,-2],[-5,-17],[-41,28],[-7,33],[-39,22],[-10,29],[-20,-9],[-46,19],[-10,22],[-31,12]],[[27477,26314],[238,0],[781,0],[293,0],[113,-2]],[[30258,406],[-129,-24],[-24,36],[-51,163],[45,32],[0,94]],[[30055,1378],[23,-16],[24,-5]],[[30100,1112],[2,-23]],[[30031,1137],[0,47],[-23,0],[1,190],[27,18],[19,-14]],[[9654,26310],[448,1],[17,-2],[293,3],[834,2],[518,1]],[[10996,24600],[196,-1],[0,190],[-195,1],[-1,-190]],[[30029,4327],[-113,-383],[-86,-256],[-37,-91],[-27,-79],[-8,-72],[14,-236],[11,-55],[72,-180],[11,-50],[24,-335],[5,-45],[17,-245],[5,-34],[131,-540],[6,-35],[1,-313]],[[30369,33],[-317,-6],[-80,-5],[-132,0],[-359,1],[-571,0],[-388,0],[-453,1],[-136,-2]],[[30194,1088],[10,-12],[78,-8],[11,19],[16,0]],[[30309,1087],[1,-50]],[[30309,1087],[14,21],[-31,17],[45,24],[18,-1],[-2,35],[40,-2]],[[30393,1181],[-1,-95]],[[30392,1086],[-11,0],[-1,-95]],[[30270,1373],[124,-3]],[[30394,1370],[-1,-189]],[[30566,1084],[1,146],[39,45],[1,70],[-11,16],[-27,8],[-175,1]],[[33843,20928],[0,-258],[-1,-540],[0,-387],[-2,-426],[-2,-536],[2,-743],[1,-629],[0,-405],[0,-110],[1,-414]],[[32433,18912],[38,-74],[11,-44],[-1,-29],[20,-75],[26,-31],[16,-57],[48,16],[20,-21],[26,-5],[15,-39],[16,-24],[88,0],[13,3],[73,82],[21,39],[36,38],[26,-8],[30,-45],[28,-24],[14,14],[-5,39],[60,3],[21,-29],[3,-15],[-15,-33],[9,-47],[0,-47],[22,2],[47,-21],[31,6],[31,38],[41,-14],[-6,-46],[60,40],[9,43],[-3,96],[32,-15],[20,5],[24,43],[10,30],[-8,30],[-142,137],[-327,213],[-22,16],[-137,76],[-86,51],[-24,-41],[-28,-20],[11,-18],[-20,-29],[-2,-39],[12,-45],[-17,-39],[-48,40],[-21,-31],[-20,-4],[-61,0],[-1,-72],[-14,-19]],[[18421,5567],[77,-141],[9,-50],[-18,-42],[-43,-39],[-5,-13],[4,-39],[23,8],[15,-51],[0,-39],[31,0],[3,-13]],[[18517,5148],[-33,-3],[-71,3],[-29,7],[-37,17],[-20,2],[-59,-13],[-2,54],[-42,43],[-25,44],[-49,55],[19,-3],[9,35],[72,72],[13,33],[16,-1],[18,39],[74,33],[50,2]],[[22877,2548],[-44,2],[-47,-11],[-7,15],[-4,59],[10,9],[-3,64],[-15,12],[-51,-1],[-35,6],[-33,22],[-20,51],[-39,-1],[-13,8],[-8,33],[-11,12],[-3,100],[-13,13],[-31,-4],[-21,-19],[-50,-5],[-2,12],[-35,41],[-19,0],[-13,44],[-20,108],[11,59],[2,38],[-39,62],[-15,12],[-44,11],[-31,30],[-29,3],[-26,25],[-18,31],[-87,78],[-66,18],[-40,8],[-46,39],[-25,33],[-19,4],[-21,29],[-5,81],[14,16],[-10,20],[6,17],[-40,48],[-21,-7],[-23,9],[-28,41],[-36,31],[-47,17],[-2,13],[-37,23],[-41,3],[-13,12],[-31,-4],[-8,-11],[-37,-10],[-10,-13],[-24,7],[-29,-7],[-20,16],[-48,0],[-12,-9],[-48,11],[-27,-7],[-30,4],[-21,18],[-20,3],[-62,37],[-21,-5],[-30,-22],[-21,2],[-8,18],[-39,4],[-34,-12],[-34,22],[-41,13],[-11,19],[-23,3],[-29,48],[-19,18],[21,50],[2,22],[17,50],[-9,24],[17,32],[34,9],[25,24],[-6,80],[6,20],[-14,44],[16,6],[-9,53],[17,32],[-16,11],[0,25],[-18,15],[4,29],[-15,29],[-1,32],[-15,29],[-1,30],[-30,19],[-3,32],[-13,18],[-25,13],[-5,28],[-51,44],[-21,6],[-30,25],[-10,-20],[-45,16],[-22,-37],[-28,-9],[-21,-20],[-21,-51],[-24,-21],[-12,9],[-21,-19],[-19,-5],[-29,-21],[-16,-2],[-10,-37],[-34,-19],[-18,-21],[-63,-29],[-10,12],[-28,7],[-34,-4],[-35,-23],[-37,-9],[-11,7],[-33,-8]],[[20133,4592],[1,22],[-15,17],[-60,49],[-42,22],[-30,22],[-48,20],[-24,2],[-6,13],[11,30],[-25,42],[-16,5],[-18,41],[-9,46],[1,67],[14,19],[25,9],[0,39],[-16,28],[17,25],[-1,16],[-24,1],[8,37],[-26,10],[5,21],[-14,27],[-15,-17],[-29,4],[-30,21],[-4,15],[-51,22],[-10,16],[-47,27],[-43,10],[-17,22],[-5,52],[-33,18],[-25,4],[-44,18],[-7,20],[-30,-4],[-3,58],[-32,25],[-12,33],[-34,9],[10,36],[-13,20],[8,24],[-6,22],[-49,35],[-8,33],[33,36],[8,21],[-7,17],[-57,9],[-1,18],[30,12],[36,-6],[35,-14],[41,-1],[31,-26],[44,-13],[6,45],[12,3],[23,-30],[31,-1],[23,34],[28,18],[60,7],[20,-14],[16,1],[14,30],[48,32],[10,16],[34,29],[41,14],[32,0],[87,47],[33,10],[21,-5],[48,13],[47,27],[37,16],[16,19],[31,13],[23,22],[42,19],[38,-2],[35,28],[7,15],[-6,76],[30,28],[-18,50],[-31,41],[-57,42],[20,24],[39,1],[15,13],[30,76],[-1,40],[-7,45],[7,35],[-22,24],[-51,-21],[-31,32],[-3,13],[21,34],[28,27],[-3,70],[-17,60],[8,16],[1,125],[-48,40],[-36,12],[-14,25],[-30,26],[1,26],[11,20],[23,-13],[25,0],[72,55],[-4,25],[19,48],[-26,49],[-55,27],[-52,4],[-41,31],[-2,16],[13,43],[3,28],[-24,46],[-30,-7],[-52,59],[-27,7],[1,32],[24,32],[41,-7],[54,53],[35,50],[9,28],[32,24],[0,18],[-19,22],[17,22],[3,21],[-12,26],[-34,31],[-10,19],[9,26],[2,37],[-9,46],[-49,52],[-35,8],[-21,52],[-18,87],[-16,20],[13,17],[4,38],[-8,43],[-24,35],[-42,21],[-25,41],[-2,19],[-22,39],[-3,32],[-13,15],[1,46],[-14,42],[17,44],[21,28],[-22,23],[-7,50],[27,8],[47,20],[39,23],[29,26],[9,34],[1,68],[-12,37],[40,35],[22,28],[17,55],[-7,60],[-29,21],[-21,40],[-71,54],[16,36],[-7,51]],[[18421,5567],[-5,16],[119,-37],[91,-51],[13,-17],[15,3],[77,-59],[32,-54],[27,-12],[-21,-38],[-10,-70],[-10,0],[-4,-41],[-8,-10],[-84,24],[-28,-6],[-81,-56],[-27,-11]],[[20133,4592],[-8,-32],[5,-48],[-24,-13],[-15,27],[-27,11],[-22,-17],[-17,-48],[4,-44],[18,-29],[66,13],[4,-10],[-40,-45],[-57,-4],[-54,-56],[-18,-39],[-29,-10],[-4,49],[-15,24],[-14,-4],[-3,-30],[8,-53],[28,-12],[27,-22],[-11,-27],[-31,-37],[-62,-8],[-1,-29],[21,-42],[-2,-47],[-17,-28],[-19,-1],[-14,22],[-24,12],[-32,-8],[-31,10],[-25,-6],[-16,-21],[3,-33],[23,-16],[20,8],[21,-5],[22,-60],[-16,-14],[-16,2],[-23,-23],[-21,5],[-18,-12],[-54,37],[-1,9],[-38,6],[-11,-15],[-19,2],[-28,-22],[-25,3],[-47,-52],[-61,-20],[-17,-14],[-17,12],[-28,-26],[-51,7],[-10,-11],[-34,-1],[-14,-9],[-39,-2],[-28,8],[-14,-20],[-47,-4],[3,-30],[-59,-54],[11,-63],[-27,-17],[-4,-34],[-53,-40],[-29,-47],[3,-7],[-40,-39],[-25,-12],[-43,-52],[-41,-13],[-21,-40],[-23,-30],[-26,-14],[-9,7],[-35,-17],[-9,3],[-34,-19],[27,-82],[1,-64],[-50,-138],[-12,-23],[-77,-96],[-9,-31],[-54,-57],[-9,-28],[17,-8],[17,-43],[22,-26],[3,-37],[18,-19],[-4,-40],[-4,-97],[-20,-61],[10,-37],[-5,-21],[-37,-26],[-34,-40],[-59,-60],[4,-63],[-14,-48],[-15,-85],[-2,-48],[11,-30],[14,-99],[10,-18],[0,-75],[-6,-114],[4,-108],[-3,-91],[24,-22],[5,-18],[20,-23],[14,-30],[21,-15],[16,0],[37,-24],[37,-31],[9,-44],[-12,-22],[16,-22],[3,-28],[-41,-76],[23,-35],[32,-14],[68,8],[27,-7],[17,-17],[-3,-43],[14,-36],[63,-25],[36,-25],[21,-6],[14,-32],[-10,-37],[-26,-24],[-47,-2],[-15,-26],[-21,6],[-17,16],[-32,9],[-27,-3],[-31,7],[-72,-8],[-34,1],[-41,-14],[-36,-27],[-19,-24],[-61,-49],[-11,-17],[-29,-100],[-20,-29],[-27,-13],[-51,9],[-19,-5],[-61,-46],[-14,-24],[-26,-83],[-7,-67],[-11,-20],[2,-50],[12,-36],[32,-25],[4,-36],[15,-41]],[[18138,54],[-312,1],[-538,-3],[-106,-2],[-604,-2],[-458,0],[-147,-1],[-560,0],[-251,1]],[[22884,29],[-122,3],[-193,10],[-59,0],[-198,5],[-263,1],[-32,-1],[-451,1],[-153,0],[-611,4],[-512,0],[-86,2],[-617,3],[-429,-1],[-50,-1],[-672,-2],[-298,1]],[[30392,1086],[6,-13],[44,-11],[14,-21],[39,-3],[0,47],[71,-1]]],"transform":{"scale":[0.0002068385124357537,0.00015221585518576149],"translate":[-111.054556,40.994775]},"objects":{"Tract_56_2020":{"type":"GeometryCollection","geometries":[{"arcs":[[0,1,2,3,4,5,6]],"type":"Polygon","properties":{"id":"14000US56029965301"}},{"arcs":[[-5,7,8,9,-2,10,11,12,13,14,15,16]],"type":"Polygon","properties":{"id":"14000US56029965302"}},{"arcs":[[-3,-10,17,18]],"type":"Polygon","properties":{"id":"14000US56029965402"}},{"arcs":[[-18,-9,19]],"type":"Polygon","properties":{"id":"14000US56029965401"}},{"arcs":[[20,21,22,23,24,25,26,27,28,29,30],[31,32]],"type":"Polygon","properties":{"id":"14000US56019955100"}},{"arcs":[[33,34,35,36,37,38,-23,39]],"type":"Polygon","properties":{"id":"14000US56033000501"}},{"arcs":[[40,-40,-22,41]],"type":"Polygon","properties":{"id":"14000US56033000502"}},{"arcs":[[42,43,44,45]],"type":"Polygon","properties":{"id":"14000US56021000300"}},{"arcs":[[46,47,48,49,50]],"type":"Polygon","properties":{"id":"14000US56021000900"}},{"arcs":[[51,52,53,54,55]],"type":"Polygon","properties":{"id":"14000US56005000500"}},{"arcs":[[56,57,-53,58]],"type":"Polygon","properties":{"id":"14000US56005000600"}},{"arcs":[[59,60,61,-54]],"type":"Polygon","properties":{"id":"14000US56005000300"}},{"arcs":[[62,-60,-58]],"type":"Polygon","properties":{"id":"14000US56005000400"}},{"arcs":[[-55,-62,63,64,65]],"type":"Polygon","properties":{"id":"14000US56005000200"}},{"arcs":[[66,67,68,69,70,71,72],[73]],"type":"Polygon","properties":{"id":"14000US56023978200"}},{"arcs":[[74,75,76]],"type":"Polygon","properties":{"id":"14000US56023978100"}},{"arcs":[[-74]],"type":"Polygon","properties":{"id":"14000US56023978400"}},{"arcs":[[77,78,79,80,81,82]],"type":"Polygon","properties":{"id":"14000US56025000700"}},{"arcs":[[83,84,85,86]],"type":"Polygon","properties":{"id":"14000US56025001100"}},{"arcs":[[87,-33]],"type":"Polygon","properties":{"id":"14000US56019955202"}},{"arcs":[[-88,-32]],"type":"Polygon","properties":{"id":"14000US56019955201"}},{"arcs":[[88,89,90,91,92,93,-72,94,95]],"type":"Polygon","properties":{"id":"14000US56041975301"}},{"arcs":[[-93,96,-89,97]],"type":"Polygon","properties":{"id":"14000US56041975402"}},{"arcs":[[98]],"type":"Polygon","properties":{"id":"14000US56041975201"}},{"arcs":[[-71,99,100,101,-95],[-99]],"type":"Polygon","properties":{"id":"14000US56041975202"}},{"arcs":[[-92,102,-90,-97]],"type":"Polygon","properties":{"id":"14000US56041975401"}},{"arcs":[[-103,-91]],"type":"Polygon","properties":{"id":"14000US56041975302"}},{"arcs":[[103,-30,104,105,106,-14],[107,108]],"type":"Polygon","properties":{"id":"14000US56043000200"}},{"arcs":[[109,-109]],"type":"Polygon","properties":{"id":"14000US56043000302"}},{"arcs":[[110,111,112,113]],"type":"Polygon","properties":{"id":"14000US56001963102"}},{"arcs":[[114,115,-111,116]],"type":"Polygon","properties":{"id":"14000US56001963101"}},{"arcs":[[117,118,119,120,121,122,123,124,125]],"type":"Polygon","properties":{"id":"14000US56021002002"}},{"arcs":[[126,-124,127,128,129]],"type":"Polygon","properties":{"id":"14000US56021002001"}},{"arcs":[[130,131,132,133]],"type":"Polygon","properties":{"id":"14000US56021001302"}},{"arcs":[[134,135,136,137,138]],"type":"Polygon","properties":{"id":"14000US56021000702"}},{"arcs":[[139,140,141,142,-118,143,144]],"type":"Polygon","properties":{"id":"14000US56021000503"}},{"arcs":[[145,-125,-127,146,147]],"type":"Polygon","properties":{"id":"14000US56021000403"}},{"arcs":[[148,149,-141,150]],"type":"Polygon","properties":{"id":"14000US56021000602"}},{"arcs":[[-44,151,-148,152]],"type":"Polygon","properties":{"id":"14000US56021000404"}},{"arcs":[[153,154,155,156,157]],"type":"Polygon","properties":{"id":"14000US56013940302"}},{"arcs":[[158,159,160,161,162,163,164,165,166]],"type":"Polygon","properties":{"id":"14000US56013000301"}},{"arcs":[[167,168,169,-106,170,-163,171]],"type":"Polygon","properties":{"id":"14000US56013000302"}},{"arcs":[[172,-155,173,174]],"type":"Polygon","properties":{"id":"14000US56013940301"}},{"arcs":[[175,176,177,178,179,180]],"type":"Polygon","properties":{"id":"14000US56037970903"}},{"arcs":[[181,182,183,184]],"type":"Polygon","properties":{"id":"14000US56037971200"}},{"arcs":[[185,186]],"type":"Polygon","properties":{"id":"14000US56037970602"}},{"arcs":[[187,188,-166,189,190,191,192,193,-183,194,195,196,-69]],"type":"Polygon","properties":{"id":"14000US56037971600"}},{"arcs":[[197,198,-178,199]],"type":"Polygon","properties":{"id":"14000US56037970902"}},{"arcs":[[-185,200,201]],"type":"Polygon","properties":{"id":"14000US56037971100"}},{"arcs":[[-195,-182,-202,202,-179,-199,203]],"type":"Polygon","properties":{"id":"14000US56037970800"}},{"arcs":[[204,-181,205,-193,206,-186,207]],"type":"Polygon","properties":{"id":"14000US56037970601"}},{"arcs":[[-206,-180,-203,-201,-184,-194]],"type":"Polygon","properties":{"id":"14000US56037971000"}},{"arcs":[[208,-208,-187,-207,-192,209,-101]],"type":"Polygon","properties":{"id":"14000US56037970700"}},{"arcs":[[-70,-197,210,211,-176,-205,-209,-100]],"type":"Polygon","properties":{"id":"14000US56037970500"}},{"arcs":[[-16,212,213,214,215]],"type":"Polygon","properties":{"id":"14000US56013000400"}},{"arcs":[[-156,-173,216]],"type":"Polygon","properties":{"id":"14000US56013940500"}},{"arcs":[[217,-172,-162,218,-160]],"type":"Polygon","properties":{"id":"14000US56013000100"}},{"arcs":[[-219,-161]],"type":"Polygon","properties":{"id":"14000US56013000200"}},{"arcs":[[219,-157,-217,-175,220]],"type":"Polygon","properties":{"id":"14000US56013940400"}},{"arcs":[[221,222,223,-159,224,225,-214]],"type":"Polygon","properties":{"id":"14000US56013940100"}},{"arcs":[[226,227,228,-188,-68,229]],"type":"Polygon","properties":{"id":"14000US56035000101"}},{"arcs":[[230,-221,-174,-154,231,-168,-218,-224]],"type":"Polygon","properties":{"id":"14000US56013940202"}},{"arcs":[[232,-169,-232,-158,-220,-231,-223]],"type":"Polygon","properties":{"id":"14000US56013940201"}},{"arcs":[[233,-35,234,235,236]],"type":"Polygon","properties":{"id":"14000US56033000300"}},{"arcs":[[-36,-234,237]],"type":"Polygon","properties":{"id":"14000US56033000400"}},{"arcs":[[238,-37,-238,-237,239,240,-42,-21,241,242,243]],"type":"Polygon","properties":{"id":"14000US56033000600"}},{"arcs":[[-235,-34,-41,-241,244]],"type":"Polygon","properties":{"id":"14000US56033000100"}},{"arcs":[[-236,-245,-240]],"type":"Polygon","properties":{"id":"14000US56033000200"}},{"arcs":[[245,246,247,248,249,250,251]],"type":"Polygon","properties":{"id":"14000US56031959100"}},{"arcs":[[252,253,254,255]],"type":"Polygon","properties":{"id":"14000US56021000800"}},{"arcs":[[256,257,258,-246,259]],"type":"Polygon","properties":{"id":"14000US56027957200"}},{"arcs":[[-138,260,-144,-126,-146,-152,-43,261]],"type":"Polygon","properties":{"id":"14000US56021000200"}},{"arcs":[[262,263]],"type":"Polygon","properties":{"id":"14000US56009956500"}},{"arcs":[[-263,264]],"type":"Polygon","properties":{"id":"14000US56009956400"}},{"arcs":[[-27,265,266,267,-260,-252,268,269,270,271],[272],[-265,-264]],"type":"Polygon","properties":{"id":"14000US56009956600"}},{"arcs":[[-273]],"type":"Polygon","properties":{"id":"14000US56009956700"}},{"arcs":[[273,-249,274,275,276,277]],"type":"Polygon","properties":{"id":"14000US56031959402"}},{"arcs":[[-250,-274,278]],"type":"Polygon","properties":{"id":"14000US56031959401"}},{"arcs":[[279,280,281,282,283]],"type":"Polygon","properties":{"id":"14000US56011950200"}},{"arcs":[[284,285,-281]],"type":"Polygon","properties":{"id":"14000US56011950300"}},{"arcs":[[286,-200,-177,-212]],"type":"Polygon","properties":{"id":"14000US56037970905"}},{"arcs":[[-196,-204,-198,-287,-211]],"type":"Polygon","properties":{"id":"14000US56037970904"}},{"arcs":[[-133,287,288,289]],"type":"Polygon","properties":{"id":"14000US56021001301"}},{"arcs":[[290,-119,-143]],"type":"Polygon","properties":{"id":"14000US56021000502"}},{"arcs":[[-254,-151,-140,291]],"type":"Polygon","properties":{"id":"14000US56021000601"}},{"arcs":[[292,-255,-292,-145,-261,-137,293]],"type":"Polygon","properties":{"id":"14000US56021000701"}},{"arcs":[[-6,-17,-216,294,-227,295,296,297,298,299,300,301,302,303]],"type":"Polygon","properties":{"id":"14000US56039967601"}},{"arcs":[[304,305,306,-302,307,308,309,-299]],"type":"Polygon","properties":{"id":"14000US56039967704"}},{"arcs":[[-303,-307,310,-305,-298,311]],"type":"Polygon","properties":{"id":"14000US56039967602"}},{"arcs":[[312,313,-300,-310]],"type":"Polygon","properties":{"id":"14000US56039967802"}},{"arcs":[[-309,314,-313]],"type":"Polygon","properties":{"id":"14000US56039967801"}},{"arcs":[[-311,-306]],"type":"Polygon","properties":{"id":"14000US56039967703"}},{"arcs":[[315,316,317]],"type":"Polygon","properties":{"id":"14000US56015957800"}},{"arcs":[[-259,318,319,-318,320,-247]],"type":"Polygon","properties":{"id":"14000US56015957700"}},{"arcs":[[-320,321,322,-316]],"type":"Polygon","properties":{"id":"14000US56015957900"}},{"arcs":[[-321,-317,-323,323,-122,324,-275,-248]],"type":"Polygon","properties":{"id":"14000US56015958000"}},{"arcs":[[-105,-29,325,326,327,328,329,330,-164,-171]],"type":"Polygon","properties":{"id":"14000US56025001802"}},{"arcs":[[-51,331,-135,332]],"type":"Polygon","properties":{"id":"14000US56021001100"}},{"arcs":[[-329,333,334,335,336,337,338,339,340]],"type":"Polygon","properties":{"id":"14000US56025001603"}},{"arcs":[[341,342,-340,343,344,345,346,347]],"type":"Polygon","properties":{"id":"14000US56025001602"}},{"arcs":[[-341,-343,348,-271,349,-330]],"type":"Polygon","properties":{"id":"14000US56025001801"}},{"arcs":[[350,-344,-339,351]],"type":"Polygon","properties":{"id":"14000US56025000601"}},{"arcs":[[-81,352,353,-352,-338,354]],"type":"Polygon","properties":{"id":"14000US56025000602"}},{"arcs":[[-15,-107,-170,-233,-222,-213],[355]],"type":"Polygon","properties":{"id":"14000US56017967900"}},{"arcs":[[356,-242,-31,-104,-13]],"type":"Polygon","properties":{"id":"14000US56003962600"}},{"arcs":[[357,-244,358,359]],"type":"Polygon","properties":{"id":"14000US56003962800"}},{"arcs":[[360,-115,361,362,363,364,365,366]],"type":"Polygon","properties":{"id":"14000US56001962700"}},{"arcs":[[-362,-117,-114,367,368]],"type":"Polygon","properties":{"id":"14000US56001963000"}},{"arcs":[[-112,369,370,371]],"type":"Polygon","properties":{"id":"14000US56001963500"}},{"arcs":[[372,373,-370,-116,-361,374,-366,375]],"type":"Polygon","properties":{"id":"14000US56001963700"}},{"arcs":[[376,-364]],"type":"Polygon","properties":{"id":"14000US56001962800"}},{"arcs":[[-363,-369,377,-376,-365,-377]],"type":"Polygon","properties":{"id":"14000US56001962900"}},{"arcs":[[378,-269,-251,-279,-278,379,380,381],[-375,-367]],"type":"Polygon","properties":{"id":"14000US56001963900"}},{"arcs":[[382,-371,-374]],"type":"Polygon","properties":{"id":"14000US56001963600"}},{"arcs":[[-368,-113,-372,-383,-373,-378]],"type":"Polygon","properties":{"id":"14000US56001963400"}},{"arcs":[[383,-75,384]],"type":"Polygon","properties":{"id":"14000US56023978001"}},{"arcs":[[-76,-384,385,-296,-230,-67,386]],"type":"Polygon","properties":{"id":"14000US56023978002"}},{"arcs":[[387,-353,-80,388]],"type":"Polygon","properties":{"id":"14000US56025000300"}},{"arcs":[[389,-87,390,-334,-328]],"type":"Polygon","properties":{"id":"14000US56025001700"}},{"arcs":[[391,-348,392,-389,-79,393,394]],"type":"Polygon","properties":{"id":"14000US56025000200"}},{"arcs":[[395,396,-83,397,-336]],"type":"Polygon","properties":{"id":"14000US56025000901"}},{"arcs":[[-327,398,-395,399,-84,-390]],"type":"Polygon","properties":{"id":"14000US56025001200"}},{"arcs":[[-86,400,-396,-335,-391]],"type":"Polygon","properties":{"id":"14000US56025001000"}},{"arcs":[[-28,-272,-349,-342,-392,-399,-326]],"type":"Polygon","properties":{"id":"14000US56025001401"}},{"arcs":[[-82,-355,-337,-398]],"type":"Polygon","properties":{"id":"14000US56025000902"}},{"arcs":[[-359,-243,-357,-12,401]],"type":"Polygon","properties":{"id":"14000US56003962700"}},{"arcs":[[402,403,-345,-351,-354]],"type":"Polygon","properties":{"id":"14000US56025000501"}},{"arcs":[[404,-346,-404]],"type":"Polygon","properties":{"id":"14000US56025000502"}},{"arcs":[[-295,-215,-226,405,-228]],"type":"Polygon","properties":{"id":"14000US56035000103"}},{"arcs":[[-406,-225,-167,-189,-229]],"type":"Polygon","properties":{"id":"14000US56035000104"}},{"arcs":[[-65,406,-283,407,-267,408,409]],"type":"Polygon","properties":{"id":"14000US56005000101"}},{"arcs":[[410,-409,-266,-26]],"type":"Polygon","properties":{"id":"14000US56005000103"}},{"arcs":[[411,412,-59,-52,413,-24,-39]],"type":"Polygon","properties":{"id":"14000US56005000701"}},{"arcs":[[414,-284,-407,-64,-61,-63,-57,-413]],"type":"Polygon","properties":{"id":"14000US56005000702"}},{"arcs":[[-414,-56,-66,-410,-411,-25]],"type":"Polygon","properties":{"id":"14000US56005000102"}},{"arcs":[[-45,-153,-147,-130,415]],"type":"Polygon","properties":{"id":"14000US56021000401"}},{"arcs":[[416,-134,-290,417,-48,418]],"type":"Polygon","properties":{"id":"14000US56021001200"}},{"arcs":[[419,-360,-402,-11,-1],[420]],"type":"Polygon","properties":{"id":"14000US56029965100"}},{"arcs":[[-19,-20,-8,-4]],"type":"Polygon","properties":{"id":"14000US56029965500"}},{"arcs":[[-277,421,-419,-47,-333,-139,-262,-46,-416,-129,422,-380]],"type":"Polygon","properties":{"id":"14000US56021001902"}},{"arcs":[[-289,423,424,-256,-293,-49,-418]],"type":"Polygon","properties":{"id":"14000US56021980801"}},{"arcs":[[-425,425,426,427,-149,-253]],"type":"Polygon","properties":{"id":"14000US56021001401"}},{"arcs":[[-132,428,429,-426,-424,-288]],"type":"Polygon","properties":{"id":"14000US56021001402"}},{"arcs":[[-276,-325,-121,430,-429,-131,-417,-422]],"type":"Polygon","properties":{"id":"14000US56021001901"}},{"arcs":[[-421]],"type":"Polygon","properties":{"id":"14000US56029965200"}},{"arcs":[[-108,-110]],"type":"Polygon","properties":{"id":"14000US56043000301"}},{"arcs":[[-282,-286,431,-257,-268,-408],[432]],"type":"Polygon","properties":{"id":"14000US56045951100"}},{"arcs":[[-433]],"type":"Polygon","properties":{"id":"14000US56045951300"}},{"arcs":[[433,434]],"type":"Polygon","properties":{"id":"14000US56007967800"}},{"arcs":[[-350,-270,-379,435,436]],"type":"Polygon","properties":{"id":"14000US56007968100"}},{"arcs":[[-434,437]],"type":"Polygon","properties":{"id":"14000US56007967700"}},{"arcs":[[-165,-331,-437,438,439,-190],[-438,-435]],"type":"Polygon","properties":{"id":"14000US56007967600"}},{"arcs":[[-436,-382,440,-439]],"type":"Polygon","properties":{"id":"14000US56007968000"}},{"arcs":[[441,-120,-291,-142,-150,-428]],"type":"Polygon","properties":{"id":"14000US56021001502"}},{"arcs":[[-427,-430,-431,-442]],"type":"Polygon","properties":{"id":"14000US56021001501"}},{"arcs":[[-50,-294,-136,-332]],"type":"Polygon","properties":{"id":"14000US56021001000"}},{"arcs":[[-393,-347,-405,-403,-388]],"type":"Polygon","properties":{"id":"14000US56025000400"}},{"arcs":[[-85,-400,-394,-78,-397,-401]],"type":"Polygon","properties":{"id":"14000US56025000800"}},{"arcs":[[-301,-314,-315,-308]],"type":"Polygon","properties":{"id":"14000US56039967701"}},{"arcs":[[-356]],"type":"Polygon","properties":{"id":"14000US56017967800"}}]}}}