{"type":"Topology","arcs":[[[668,11394],[3,21],[61,171],[20,148]],[[752,11734],[68,3],[54,-5],[22,-9],[45,-42],[108,-38],[155,-18],[113,-18],[37,3]],[[1354,11610],[-2,-44],[-18,-196],[3,-64]],[[1337,11306],[-13,-29],[-27,-21],[-27,2],[-25,15],[-88,-61],[-35,-41],[-37,0],[-45,-12],[-8,14],[-49,21]],[[983,11194],[-25,6],[-34,-9],[-36,28],[-54,9],[-14,22],[-28,20],[-14,26],[-37,-79],[-77,-32]],[[664,11185],[-8,25],[12,184]],[[735,10916],[35,4],[32,-15],[80,7],[128,26],[76,-7],[49,22],[36,-23],[24,-5],[19,48],[-4,11],[55,20],[48,49],[1,25]],[[1314,11078],[54,-40],[41,-82],[1,-13],[53,-39],[42,-52],[18,-38],[23,-86],[5,-46],[79,-149],[25,-19],[35,13],[68,-16],[46,2],[18,32],[19,13]],[[1841,10558],[25,-51],[-1,-33],[-12,-40],[-25,0],[-46,16],[-52,-21],[-48,3],[-35,17],[-34,-35],[-7,-37],[-47,-16],[-26,-25],[-19,33],[-33,10],[-14,-48],[-20,16],[-22,-41],[-32,-1],[-8,-31],[21,-25],[-42,-5],[-18,-10],[-74,-10],[-36,-24]],[[1236,10200],[-29,46],[-5,42],[-34,53]],[[1168,10341],[-69,75],[-85,82],[-55,34],[-24,27],[-67,41],[-40,49],[-12,34],[-10,62],[-34,99],[-37,72]],[[149,11229],[54,-1],[155,-51],[66,-17],[32,1],[22,55],[14,83],[20,69],[9,49],[53,7],[32,-27],[62,-3]],[[664,11185],[38,-132]],[[702,11053],[33,-137]],[[735,10916],[-27,-18],[-64,-55],[-56,11],[-123,-31],[11,-33],[-19,-54],[-70,-118],[-199,62]],[[188,10680],[-39,549]],[[461,12604],[8,-25],[4,-69],[22,-163],[4,-59],[-15,-98],[9,-124]],[[493,12066],[-172,-11],[-46,-13],[-52,-24],[-75,-19],[-54,5]],[[94,12004],[-29,406]],[[65,12410],[72,37],[15,22],[77,30],[41,25],[35,35],[39,23],[117,22]],[[223,14246],[45,-16],[16,-43]],[[284,14187],[-10,-37],[-17,5],[-26,-16],[-20,-32],[19,-14],[11,-46],[59,-42],[-16,-58],[2,-26],[51,-67],[15,-8],[3,-41],[-17,-33]],[[338,13772],[-46,11],[-3,32],[-72,-9],[-44,13],[-101,-18],[-41,27],[-27,2]],[[4,13830],[0,240],[144,0],[33,85],[42,91]],[[38,12786],[19,3],[79,-14],[56,-5],[82,-17],[22,0],[131,18]],[[427,12771],[28,-94],[6,-73]],[[65,12410],[-27,376]],[[894,13361],[58,33],[69,69],[84,51]],[[1105,13514],[22,-25],[125,-49]],[[1252,13440],[-92,-65],[-103,-54],[-107,-47]],[[950,13274],[-64,-21]],[[886,13253],[8,108]],[[1252,13440],[32,-15]],[[1284,13425],[-18,0],[-30,-28],[-10,-31],[-42,-7],[-18,-25],[6,-26]],[[1172,13308],[-44,-9],[-38,-50],[27,-41],[-23,-23],[-5,-28],[-38,-24]],[[1051,13133],[-47,55],[-54,86]],[[3153,15140],[61,-25],[45,-13],[36,38]],[[3295,15140],[156,-78]],[[3451,15062],[-113,-29],[-90,-52]],[[3248,14981],[-50,65]],[[3198,15046],[-98,42]],[[3100,15088],[53,52]],[[2693,14550],[21,11]],[[2714,14561],[156,-105],[-48,-21]],[[2822,14435],[-58,43],[-32,4],[-24,-12],[-21,33],[6,47]],[[1754,13942],[60,0],[21,-17],[26,-2],[55,36],[13,38],[42,13],[33,19],[44,-3],[56,-13],[82,17],[22,9],[17,37],[-10,32],[-1,36]],[[2214,14144],[4,-5]],[[2218,14139],[45,-24]],[[2263,14115],[3,-52],[-19,-49],[-65,-82]],[[2182,13932],[-122,-154]],[[2060,13778],[-15,-20]],[[2045,13758],[-118,-149]],[[1927,13609],[-1,-1]],[[1926,13608],[-73,125],[-48,71],[-43,100],[-8,38]],[[3195,15183],[100,-43]],[[3153,15140],[42,43]],[[1254,13081],[62,41]],[[1316,13122],[3,-53],[32,-69],[59,-80]],[[1410,12920],[-91,-138]],[[1319,12782],[-48,0],[-37,19],[-29,-24]],[[1205,12777],[23,153],[26,151]],[[493,12066],[113,7]],[[606,12073],[13,2]],[[619,12075],[-8,-93],[93,-134],[38,-66],[10,-48]],[[149,11229],[-55,775]],[[619,12075],[78,15],[53,6],[67,-4],[96,-11],[84,-6],[34,1],[178,38],[130,79]],[[1339,12193],[20,-41],[2,-36],[-3,-144],[-2,-256],[-2,-106]],[[2248,13078],[-14,-29],[-7,-51],[6,-76],[10,-11],[12,-73],[-8,-15],[18,-42]],[[2265,12781],[-60,-5],[-40,60],[-51,113],[2,63],[79,36],[24,1],[29,29]],[[1410,12920],[78,118],[101,164]],[[1589,13202],[104,-34],[68,-2],[22,-24],[40,-15],[1,-17],[67,-11]],[[1891,13099],[-80,-101],[-61,-60],[-7,-41],[18,-41],[-1,-65]],[[1760,12791],[-135,9],[-53,-31],[-78,7],[-55,20],[-36,-24],[-18,9],[-66,1]],[[12,13149],[52,8],[196,70],[50,10],[104,1]],[[414,13238],[22,-44],[6,-41],[-7,-154]],[[435,12999],[-29,0],[-54,18],[-77,-7],[-27,29],[-222,-82]],[[26,12957],[-14,192]],[[1140,14753],[16,-4],[50,-57],[5,-86]],[[1211,14606],[-63,-31],[-34,-5],[-85,-51]],[[1029,14519],[-24,8],[-4,22],[18,29],[-19,29],[-22,6],[-9,33],[-15,8]],[[954,14654],[62,40],[96,35],[28,24]],[[804,14928],[73,-46],[32,-27],[70,-3],[42,-49],[35,-30],[84,-20]],[[954,14654],[-104,-60],[-51,-34]],[[799,14560],[-25,34],[-86,80],[-67,102]],[[621,14776],[104,90],[79,62]],[[338,13772],[-12,-35],[18,-18]],[[344,13719],[-10,-41],[5,-42]],[[339,13636],[-18,-1]],[[321,13635],[-188,79]],[[133,13714],[-129,56]],[[4,13770],[0,60]],[[2554,14477],[72,38]],[[2626,14515],[67,35]],[[2822,14435],[6,-20],[38,-9],[21,29],[16,4],[29,-19]],[[2932,14420],[-83,-115]],[[2849,14305],[-102,-16],[-96,46],[-26,37]],[[2625,14372],[12,45],[-31,-16],[-10,15]],[[2596,14416],[-42,61]],[[2403,14441],[72,37]],[[2475,14478],[20,-31]],[[2495,14447],[-113,-58],[-3,-9]],[[2379,14380],[-43,23]],[[2336,14403],[67,38]],[[2495,14447],[59,30]],[[2596,14416],[-42,-23],[-56,-59]],[[2498,14334],[-42,30],[13,31],[31,33],[-5,19]],[[2498,14334],[-58,-31]],[[2440,14303],[-21,37],[-10,33],[-30,7]],[[2245,14492],[8,3]],[[2253,14495],[41,-44]],[[2294,14451],[-10,-43],[-13,-17]],[[2271,14391],[-1,-1]],[[2270,14390],[-18,16],[-37,12]],[[2215,14418],[-25,7]],[[2190,14425],[18,48],[37,19]],[[2066,14588],[52,21],[54,-19],[55,-5],[28,-35],[-5,-46]],[[2250,14504],[3,-9]],[[2245,14492],[-41,26],[-33,-24],[-24,-50]],[[2147,14444],[-23,-28]],[[2124,14416],[-34,16],[-13,-22],[-35,17]],[[2042,14427],[34,57],[-50,35],[40,69]],[[2270,14390],[-41,-61]],[[2229,14329],[-53,24]],[[2176,14353],[39,65]],[[2271,14391],[32,-20],[-17,-30],[20,-9],[-11,-34]],[[2295,14298],[-66,31]],[[2106,14386],[70,-33]],[[2176,14353],[-26,-43]],[[2150,14310],[-70,33]],[[2080,14343],[26,43]],[[2124,14416],[-18,-30]],[[2080,14343],[-39,-53],[-41,-9]],[[2000,14281],[12,21],[-28,15]],[[1984,14317],[28,57],[-66,31]],[[1946,14405],[10,62],[86,-40]],[[2390,14539],[13,-98]],[[2336,14403],[-8,17],[-34,31]],[[2250,14504],[47,5],[93,30]],[[2094,14215],[56,95]],[[2150,14310],[53,-25]],[[2203,14285],[28,-12]],[[2231,14273],[-135,-62]],[[2096,14211],[-2,4]],[[2231,14273],[18,-8]],[[2249,14265],[69,-32]],[[2318,14233],[-9,-19]],[[2309,14214],[-51,15],[-21,-16],[-12,-25],[-7,-49]],[[2214,14144],[-7,-36],[-29,-2],[2,38],[-60,4],[-24,63]],[[3198,15046],[-53,-56],[-37,-20],[-39,12],[-8,26],[-26,15]],[[3035,15023],[65,65]],[[1893,14077],[92,74],[45,30],[66,30]],[[1754,13942],[-5,-2]],[[1749,13940],[1,53],[-29,34]],[[1721,14027],[31,17],[33,-53],[108,86]],[[887,12391],[62,72],[63,90],[60,79]],[[1072,12632],[91,119],[42,26]],[[1319,12782],[-13,-24],[-62,-141],[62,-268],[19,-128],[14,-28]],[[606,12073],[21,41],[182,91],[25,31],[53,155]],[[2190,14425],[-43,19]],[[2989,14978],[51,-59],[76,-54]],[[3116,14865],[-61,-63]],[[3055,14802],[-69,-62]],[[2986,14740],[-47,36],[-10,33],[-32,47]],[[2897,14856],[47,76],[45,46]],[[2754,14931],[-8,-190],[-3,-21]],[[2743,14720],[-43,-23],[-60,-18],[-19,72],[-48,86]],[[2573,14837],[96,26],[40,49],[45,19]],[[2868,15070],[61,34],[29,-7],[39,-22],[18,-43],[20,-9]],[[3035,15023],[-46,-45]],[[2897,14856],[-32,37],[-42,19],[-68,43]],[[2755,14955],[70,85],[43,30]],[[1317,13908],[53,-5],[16,6]],[[1386,13909],[-9,-40],[-29,-34],[8,-19],[37,-26],[31,12],[10,26],[23,-11],[33,4],[60,20],[63,-17],[15,-29]],[[1628,13795],[-14,-28],[17,-41],[-35,-32],[-36,-1],[-8,-32],[-46,-14],[30,-21],[-27,-40],[-35,28],[-23,-39],[25,-7],[5,-29],[-50,-14],[-22,-34],[-3,-44],[-57,-12],[-38,7],[-27,-17]],[[1105,13514],[-49,38]],[[1056,13552],[6,17],[-5,46],[-25,60],[-75,70],[-36,25]],[[921,13770],[-21,28]],[[900,13798],[32,16],[83,21],[54,-38],[19,13],[70,14],[33,-21],[32,37],[30,-11],[41,27],[4,30],[19,22]],[[1628,13795],[13,9],[42,74],[30,38],[36,24]],[[1926,13608],[-135,-167]],[[1791,13441],[-44,1],[-225,-23],[-96,-9]],[[1426,13410],[-65,-5],[-61,-24]],[[1300,13381],[-16,44]],[[6804,3177],[24,14],[26,-23],[35,3],[47,24]],[[6936,3195],[33,-186],[6,-66]],[[6975,2943],[-49,-3]],[[6926,2940],[-125,-16],[-45,-10]],[[6756,2914],[19,76],[19,46],[30,33],[7,51],[-27,57]],[[284,14187],[25,0],[18,-42],[118,49],[44,-8],[31,2],[50,44],[34,39],[20,-11]],[[624,14260],[49,-30],[45,-47],[23,-48],[11,-96]],[[752,14039],[-43,9],[-29,-58],[8,-24],[-40,-32],[17,-19],[11,-106],[-10,-48],[-37,-21]],[[629,13740],[-40,6],[-61,-9],[2,-27],[-30,2]],[[500,13712],[-49,4],[-65,-12],[-42,15]],[[2039,14603],[27,-15]],[[1946,14405],[-154,69]],[[1792,14474],[-62,21],[-131,13]],[[1599,14508],[-69,11],[-47,-2]],[[1483,14517],[-29,24],[-28,-21],[-7,36],[11,8],[33,-14],[32,16],[-4,30],[-49,36],[0,27],[37,36],[-9,32],[-21,34],[-6,42],[-35,3],[-3,23],[21,25],[-33,12],[-5,15]],[[1388,14881],[123,52],[-6,-33],[25,-7],[19,-22],[91,-29],[50,-23],[56,-14],[50,3],[27,-68],[33,-51],[4,-20],[-14,-48],[13,-41],[50,43],[17,-8],[41,-37],[22,16],[50,9]],[[1211,14606],[14,-91],[18,-61],[5,-59]],[[1248,14395],[7,-66],[-19,-56],[-43,-94],[1,-11]],[[1194,14168],[-8,-3]],[[1186,14165],[-54,29],[-70,-2],[-41,30]],[[1021,14222],[-19,22],[-64,43]],[[938,14287],[20,35],[50,49],[31,13],[22,-2],[23,23],[-5,54],[-50,60]],[[514,13400],[93,11],[92,42],[47,33]],[[746,13486],[60,47],[70,41]],[[876,13574],[12,-27],[14,-59],[-8,-127]],[[894,13361],[-54,-34],[-41,-15],[-246,-56]],[[553,13256],[-39,144]],[[752,14039],[7,-55],[-3,-35],[47,8],[49,-9],[54,26]],[[906,13974],[6,-1]],[[912,13973],[11,-30],[-9,-19],[-14,-78]],[[900,13846],[-33,-12],[33,-36]],[[921,13770],[-46,-17],[-50,13],[-27,-11],[1,-32]],[[799,13723],[-31,-11],[-62,11],[-22,29],[-55,-12]],[[343,13636],[166,16]],[[509,13652],[35,10],[37,-87]],[[581,13575],[-69,-25],[-25,-60],[5,-37],[22,-53]],[[514,13400],[-65,-26],[-55,-12],[-28,-28]],[[366,13334],[-21,181],[-2,121]],[[1614,14238],[26,1]],[[1640,14239],[131,11],[18,4]],[[1789,14254],[55,8],[69,-8],[24,14],[63,13]],[[2000,14281],[-13,-23],[39,-21]],[[2026,14237],[-44,-12],[-24,-17],[-69,-16],[-25,-27],[-54,-2]],[[1810,14163],[-15,17],[-141,-19]],[[1654,14161],[-34,48],[-6,29]],[[133,13714],[-10,-22],[7,-21],[4,-86],[32,-75],[13,-13]],[[179,13497],[-11,-13]],[[168,13484],[-26,-29],[-141,-141]],[[1,13314],[-1,65],[4,117],[0,274]],[[1599,14508],[-12,-32],[9,-65],[6,-86],[12,-87]],[[1654,14161],[16,-27],[16,-58]],[[1686,14076],[-7,-10],[-91,13],[-64,21],[-21,-4]],[[1503,14096],[-8,9]],[[1495,14105],[-17,13],[0,36],[20,28],[3,29]],[[1501,14211],[-2,44]],[[1499,14255],[27,18],[-22,40],[-34,25],[14,21],[35,26],[-21,47],[20,37],[-35,48]],[[1386,13909],[28,7],[-9,30],[32,29],[7,23]],[[1444,13998],[7,22],[47,11],[19,29],[-14,36]],[[1686,14076],[35,-49]],[[3480,2224],[66,-48],[65,-53],[75,-28],[73,-8],[55,-62],[35,-24],[97,-9],[78,-20],[81,-42],[84,-71],[61,-26],[41,37],[89,6],[-295,358]],[[4085,2234],[64,10]],[[4149,2244],[28,-4],[133,-66],[40,-8],[103,-44],[64,-38],[81,-10],[16,-37],[21,-16],[150,-17]],[[4785,2004],[11,-119],[11,-76],[-18,-56],[13,-86],[28,-67]],[[4830,1600],[3,-13]],[[4833,1587],[-31,5],[-25,42],[-37,4],[-40,-11],[-3,-27],[-46,12],[-27,-16],[-23,15],[-41,46],[-24,-18],[-75,-86],[29,-39],[-34,-68],[48,-83]],[[4504,1363],[63,-113],[-65,-32],[13,-14],[27,-118],[34,-52],[-162,52],[-55,4],[9,-58],[12,-34],[29,-5],[-6,-87],[59,-32],[51,-7]],[[4513,867],[-111,-28],[-209,-23]],[[4193,816],[-17,120],[5,27]],[[4181,963],[34,89],[-106,68],[-49,25],[-14,30],[-41,52],[-43,158],[-32,50],[-48,32],[-16,76],[-1,38],[-26,46],[-126,-49],[-27,-8],[-39,4],[-291,110],[-23,10],[-379,179]],[[2954,1873],[343,213],[93,52],[19,14],[71,72]],[[2094,14215],[-38,73],[-30,-51]],[[2376,15249],[93,10]],[[2469,15259],[1,-97],[-13,-92],[1,-46]],[[2458,15024],[-131,9]],[[2327,15033],[-5,43],[13,54],[33,86],[8,33]],[[2421,15361],[187,-21],[117,-19],[90,-19]],[[2815,15302],[-20,-97]],[[2795,15205],[-261,45]],[[2534,15250],[-65,9]],[[2376,15249],[14,59],[31,53]],[[2795,15205],[-10,-20],[-52,-66]],[[2733,15119],[-104,36],[-55,31],[-40,64]],[[179,13497],[119,119],[23,19]],[[339,13636],[4,0]],[[366,13334],[-31,-24]],[[335,13310],[-20,6],[-3,32],[-49,-2],[-33,28],[-52,0],[-37,35],[2,19],[25,56]],[[2032,15361],[156,7],[129,-1],[104,-6]],[[2327,15033],[21,-160]],[[2348,14873],[21,-190]],[[2369,14683],[21,-144]],[[2039,14603],[15,47],[36,31],[31,42],[-2,14],[-61,22],[-3,22],[-26,31],[0,34],[46,35],[9,40],[30,49],[42,43],[5,25],[-35,85],[-56,58],[5,38],[21,34],[-6,23],[-35,37],[-23,48]],[[335,13310],[14,-5],[31,-36],[49,-16],[23,-15]],[[452,13238],[-38,0]],[[12,13149],[-11,165]],[[3248,14981],[-66,-50],[-66,-66]],[[2733,15119],[-76,-97]],[[2657,15022],[-64,44],[-17,1],[-60,-31],[-58,-12]],[[2733,15119],[135,-49]],[[2755,14955],[-98,67]],[[687,14326],[20,-41],[44,-15],[30,-63],[59,-59],[15,-62],[17,-20]],[[872,14066],[1,-25],[33,-67]],[[624,14260],[22,45],[41,21]],[[2318,14233],[43,73]],[[2361,14306],[84,-43]],[[2445,14263],[20,-10],[29,12],[54,-20]],[[2548,14245],[4,-30],[-14,-25],[-42,-17],[-17,-32]],[[2479,14141],[4,72],[-45,12],[-57,-25],[-37,-6],[-35,20]],[[2203,14285],[26,44]],[[2295,14298],[-21,-35],[-25,2]],[[1791,13441],[-121,-121]],[[1670,13320],[-56,-41]],[[1614,13279],[-15,40],[-30,23],[-28,3],[-46,-18]],[[1495,13327],[-21,34],[-48,49]],[[2284,13777],[12,41]],[[2296,13818],[60,201],[14,53]],[[2370,14072],[89,-40],[30,-82],[-1,-53],[109,-109]],[[2597,13788],[-44,-65]],[[2553,13723],[-89,34],[-60,12],[-120,8]],[[3690,5155],[4,36],[29,-8],[5,-21],[35,18],[-20,41],[11,24],[30,21],[-18,29],[23,45],[-42,43]],[[3747,5383],[30,17],[13,20],[-25,69],[26,32],[46,33],[4,32],[25,11],[16,-23],[63,13],[11,60],[44,-8],[46,10],[41,-21],[-4,-22],[20,-40],[17,6],[33,33],[40,-37],[1,-20],[39,-49],[25,-5],[10,25],[50,61],[18,-42],[-13,-44],[40,-12],[25,2],[35,26],[8,20],[42,-19],[33,8],[33,41],[45,-6],[30,-27],[-7,-35],[21,-16],[41,16]],[[4669,5492],[25,9]],[[4694,5501],[7,-294],[416,-450],[422,-446]],[[5539,4311],[-151,-3],[-66,-16],[-56,-8],[-15,32],[-25,27],[-25,7],[-26,-35],[-30,-6],[-16,-18],[30,-13],[-33,-30],[-56,-35],[-1,-32],[-48,-2],[-48,12],[-40,-32],[-61,7],[-29,17],[-11,-30],[-99,-11],[-35,-13],[-19,16],[-19,-17]],[[4660,4128],[-36,52],[-137,39],[-123,9],[-62,12]],[[4302,4240],[-61,57],[-85,53],[-38,49],[45,5],[72,61],[28,14],[94,10],[106,23],[-63,75],[-21,17],[-64,8],[-82,42],[-21,17],[-33,45],[-160,89],[-41,-44],[-58,-33],[-65,-28],[-144,133],[-139,110],[-13,4]],[[3559,4947],[15,13],[32,1],[26,19],[15,78],[51,45],[8,42],[-16,10]],[[664,3882],[43,-8],[59,-22],[107,-29],[29,-11],[44,-29],[37,-33],[95,-55],[94,-42],[338,-266],[54,-38],[149,109],[31,-11],[154,-34]],[[1898,3413],[-3,-56],[19,-198],[13,-150]],[[1927,3009],[21,-166],[-8,-92]],[[1940,2751],[-113,-48],[-23,-2],[-54,18],[-63,33]],[[1687,2752],[-45,21],[-39,41],[-35,26]],[[1568,2840],[-24,18],[-159,98],[-26,-21],[-112,-63],[-20,-7],[-59,5],[-44,-5],[-80,-24],[-114,-43],[-91,-8],[-63,23],[-38,4]],[[738,2817],[-74,1065]],[[5893,2007],[8,31],[66,56],[74,-41],[64,36],[65,25],[21,15],[39,3],[29,21]],[[6259,2153],[48,-27],[56,-9],[38,-16]],[[6401,2101],[32,-52],[-61,-33],[-18,-18],[-32,3],[-45,-73]],[[6277,1928],[-49,40],[-48,23],[-53,5],[-28,-31]],[[6099,1965],[-70,0],[-136,42]],[[2005,4245],[-26,-93],[-6,-98],[18,-120],[-12,-39],[-23,-32],[-28,-94],[-5,-30],[-25,-326]],[[664,3882],[-21,310]],[[643,4192],[384,16],[447,17],[338,14],[193,6]],[[6401,2101],[46,-5],[142,40],[71,4]],[[6660,2140],[72,3],[17,-5],[29,-30],[20,-45],[32,-100],[-1,-37]],[[6829,1926],[-54,-1],[-18,-29],[-16,1],[-37,29],[-46,3],[-155,-12],[-35,6],[-84,-21],[-60,-5],[-47,31]],[[6378,1103],[41,3],[41,-14],[-2,41]],[[6458,1133],[51,-14],[54,-36],[69,11],[38,12],[33,22],[27,3],[60,44]],[[6790,1175],[28,-55]],[[6818,1120],[55,-108]],[[6873,1012],[113,-221]],[[6986,791],[-42,24],[-64,16],[-58,41],[-53,84],[-34,19],[-4,38],[-62,-8],[-58,-53],[-54,-29]],[[6557,923],[-31,21],[-14,44],[-61,-2],[-72,-9],[4,77],[-5,49]],[[6986,791],[53,-108]],[[7039,683],[-8,-54],[12,-33],[22,-95],[0,-43],[-11,-139],[-1,-56]],[[7053,263],[-45,15],[-112,68],[-36,15],[-58,1],[-33,7]],[[6769,369],[-22,7],[-37,-10],[-12,34],[-46,-8],[-10,-35],[-22,-15],[-46,-17],[-26,7],[-39,26],[2,39],[38,-15],[47,93],[46,-3],[-4,33],[-30,7],[-74,41],[-30,7],[-43,36]],[[6461,596],[28,16],[41,6],[76,53],[41,18],[52,43],[16,45],[-3,36],[-46,-29],[-49,9],[-96,28],[17,40],[3,33],[16,29]],[[6295,300],[16,23],[10,55],[48,55],[20,36],[-12,35],[6,56],[57,34],[21,2]],[[6769,369],[-30,-16],[-17,-44],[-13,-7],[-10,-67]],[[6699,235],[-32,9],[-84,-8],[-50,-29],[-17,17],[-85,33],[-101,19],[-27,-9],[-8,33]],[[1196,9292],[9,-62],[10,0],[13,-74],[77,-104]],[[1305,9052],[136,-184],[-11,-24],[51,-51],[3,-45],[12,-78],[37,-25],[30,-39],[17,-43],[-2,-27]],[[1578,8536],[-32,-71],[98,-37],[127,-6],[11,-23],[-64,-54],[-57,-57],[-45,-82],[-13,-48]],[[1603,8158],[-13,-19],[-38,-9],[-67,15],[-29,2],[-55,-16],[-25,-21],[-37,-114]],[[1339,7996],[-80,13],[-125,51],[-284,151],[-38,-4],[-28,-13],[-109,-16],[-49,-39],[-93,-34],[-64,47],[-11,17],[-43,124],[-58,-10]],[[357,8283],[-76,1078]],[[281,9361],[136,8],[302,20],[289,-25],[47,-51],[22,0],[24,-20],[61,8],[34,-9]],[[1196,9292],[51,12],[91,-1],[19,17],[7,26],[57,42],[17,24],[80,-2],[49,35],[17,-3],[31,49],[29,17],[34,-4],[29,-15],[36,5]],[[1743,9494],[54,-69]],[[1797,9425],[-69,-57],[-101,-32],[-18,-16],[-51,-70],[-54,-85]],[[1504,9165],[-46,-8],[-36,-16],[-55,-39],[-62,-50]],[[2558,7668],[-3,-42],[10,-11]],[[2565,7615],[-14,-18],[-62,-150]],[[2489,7447],[-20,14],[-43,-9],[-23,-20],[-41,17],[-32,-27],[-36,-2],[-21,14]],[[2273,7434],[40,51],[156,189],[89,-6]],[[1419,7365],[64,-46]],[[1483,7319],[13,-116],[-1,-100],[21,-19],[-15,-68],[1,-45],[28,-37],[38,-72],[-81,-110],[-36,-78],[-16,-16],[-77,-40],[73,-60],[37,-9],[38,5],[24,-14],[20,11],[53,10],[54,-18],[62,-10],[26,-15],[60,15]],[[1805,6533],[-27,-125],[78,-207],[-90,-51]],[[1766,6150],[-50,-24],[-45,76],[-80,42],[-73,-4],[-64,11],[-22,10],[-75,5],[-150,28],[-174,37],[-68,-4],[-26,4],[-71,27],[-121,31],[-51,29],[-17,29],[-126,-18],[-64,-25]],[[489,6404],[-39,554]],[[450,6958],[39,40],[78,51],[27,35],[57,10],[49,37],[38,3],[99,39],[31,-2],[34,25],[41,4],[102,38],[93,76],[34,6],[32,21],[85,-10],[41,24],[61,13],[28,-3]],[[2583,7628],[33,23],[25,31],[45,137]],[[2686,7819],[23,-1],[109,-150],[39,-86]],[[2857,7582],[52,-97]],[[2909,7485],[-38,-27],[-3,-71],[-16,-28],[-34,-11]],[[2818,7348],[-27,12]],[[2791,7360],[-46,22],[-91,0]],[[2654,7382],[-12,69],[-56,158],[-3,19]],[[2781,8033],[61,23],[113,132],[49,66]],[[3004,8254],[26,-5],[81,-40],[17,-13],[116,-126],[20,-31],[61,-169],[24,-56],[1,-45],[-43,-185],[-11,-16]],[[3296,7568],[-59,0],[-23,13],[-14,31],[3,108],[-68,3],[-9,-111],[-25,6],[-5,-40],[-33,3],[-135,87],[-71,-86]],[[2686,7819],[-8,35],[-22,29]],[[2656,7883],[-17,53]],[[2639,7936],[113,80],[29,17]],[[2583,7628],[-18,-13]],[[2558,7668],[5,92],[-33,99]],[[2530,7859],[86,22],[40,2]],[[2213,7832],[34,4]],[[2247,7836],[99,-3],[43,1]],[[2389,7834],[49,2],[92,23]],[[2273,7434],[-7,4]],[[2266,7438],[8,19],[0,50],[10,97],[-49,96],[1,42],[32,5],[-55,85]],[[2625,14372],[-75,-43],[8,-31],[-10,-53]],[[2445,14263],[-5,40]],[[2500,2868],[13,39],[-4,44],[24,26],[30,50],[100,69],[28,34],[18,87],[57,113],[35,41]],[[2801,3371],[69,18],[88,-19],[112,-60],[70,-35],[26,-6],[67,-1],[113,-20],[165,-22],[29,-36]],[[3540,3190],[108,-153],[51,-97],[47,-124],[67,-262]],[[3813,2554],[272,-320]],[[3480,2224],[-210,18],[-92,-2],[-110,7],[-16,6],[-128,87],[-21,8],[-80,14],[-131,6],[-62,25],[-18,2]],[[2612,2395],[71,63],[74,30],[39,58],[68,-1],[36,24],[55,49],[38,53],[-18,6],[-347,158],[-49,20],[-79,13]],[[5593,601],[29,39],[36,70],[26,9],[13,20],[16,68],[18,23],[-19,16]],[[5712,846],[17,2],[54,29],[25,28],[92,87],[45,30],[50,13],[69,8],[84,28],[54,2],[88,46],[54,-2],[34,-14]],[[6295,300],[-59,27],[-72,10],[-51,39],[-31,51],[-44,34],[-38,42],[-39,-20],[-52,-43]],[[5909,440],[-43,0],[-107,14],[-21,34],[-145,113]],[[1697,2068],[28,25],[54,11],[33,-19],[39,-12],[13,47],[30,11]],[[1894,2131],[3,-36]],[[1897,2095],[9,-111],[64,-243],[50,-100]],[[2020,1641],[-94,-36],[-44,20],[-46,5],[-17,-7],[-69,9],[-77,-12],[-78,-19],[-28,5],[-52,33],[-9,14],[-37,7],[-24,-8],[-65,11],[-59,33]],[[1321,1696],[54,27],[30,25],[9,39],[20,18],[109,51],[27,31],[40,33],[7,48],[22,10],[20,40],[38,50]],[[2005,4245],[266,11],[61,60],[45,26],[44,3],[35,44],[-3,25],[153,65],[40,91]],[[2646,4570],[-3,-53],[-11,-34],[-10,-71],[62,-99],[11,-12],[143,-43],[180,-109],[24,16],[103,-119],[66,8]],[[3211,4054],[4,-46],[-47,-38],[-28,-32],[-84,-118],[-21,-16],[-4,-27],[16,-43],[-15,-33],[-63,-71],[-41,-93],[-71,-65],[-21,-48],[-35,-53]],[[2500,2868],[-140,-24],[-101,-3],[-90,27],[-108,65],[-80,42],[-36,34],[-18,0]],[[4660,4128],[22,-30],[43,-34],[332,-177],[92,-71],[65,-59]],[[5214,3757],[-16,-19],[-43,31],[-24,-20],[-65,17],[-23,19],[-49,-1],[-20,-32],[-21,14],[-29,-3],[-21,-14],[3,-43],[-33,-20],[2,-16],[28,-27],[-60,-23],[-43,-6],[-46,6],[-17,-18],[-19,17],[-70,7],[-1,-11]],[[4647,3615],[-15,-31],[-46,-67],[-120,6],[-81,20],[-34,-3]],[[4351,3540],[-8,65],[13,51],[-6,75],[0,72],[-15,64],[-1,89],[-27,72],[-1,20],[17,110],[-18,31],[-3,51]],[[1568,2840],[-20,-59],[-38,-95],[-35,-76],[-28,-30],[3,-42],[12,-28],[8,-58],[-3,-56],[22,-91],[58,-154],[-65,-13],[-105,-36],[109,-40],[91,-39],[28,0],[91,48]],[[1696,2071],[1,-3]],[[1321,1696],[-36,-53],[-42,-102],[-65,-16],[-19,-16],[-3,-34],[5,-74],[-29,-47],[-68,-77],[-58,-33],[-61,-66],[-38,-2],[-58,37]],[[849,1213],[-76,1094],[-35,510]],[[2646,4570],[64,122],[15,44],[47,29],[15,-8],[48,23],[24,54],[28,8],[34,47],[-1,68],[32,53]],[[2952,5010],[74,23],[115,60],[47,-20],[35,3],[70,26],[55,11]],[[3348,5113],[3,0]],[[3351,5113],[3,-22],[37,-102],[4,-360]],[[3395,4629],[4,-470]],[[3399,4159],[-20,-12],[-62,-22],[-56,-10],[-24,-23],[-26,-38]],[[2252,690],[7,397],[-2,64]],[[2257,1151],[101,-17],[71,13],[41,0],[94,-36],[66,-36],[87,-30],[86,-21],[135,-11],[41,-2],[109,-17],[151,-81],[23,-9],[238,-70],[185,-22],[11,1],[485,150]],[[4193,816],[7,-53],[29,-9],[21,-98],[38,-48],[50,-201],[22,-40],[10,-37],[83,-7],[28,6],[86,-7]],[[4567,322],[-29,-42],[-41,-46],[23,-16],[11,-35],[23,-14],[-15,-61],[-16,-18],[-44,6],[-3,-23],[-36,-64]],[[4440,9],[-412,3],[-192,-1],[-145,3],[-978,21],[-472,14]],[[2241,49],[11,641]],[[878,785],[41,-8],[501,-46],[29,5],[456,220],[9,6]],[[1914,962],[49,-50],[-18,-103],[4,-13],[80,-12],[36,22],[62,-2],[1,-121],[124,7]],[[2241,49],[-425,13],[-891,37],[-47,686]],[[3399,4159],[39,15],[54,1],[66,57],[31,-49],[41,-20],[28,-40],[38,-32],[45,73],[78,35],[19,45],[53,-3],[49,-12],[123,4],[86,-4],[122,11],[31,0]],[[4351,3540],[23,-84],[14,-104],[10,-57],[-52,-5],[-39,-13],[-45,4],[-37,-31],[-26,-11],[-17,13]],[[4182,3252],[28,60],[-146,39],[-26,-4],[-66,-39],[-22,-7],[-90,-4],[-43,13],[-94,12],[-60,-25],[-14,-15],[-16,-45],[-14,-13],[-79,-34]],[[4567,322],[149,-12],[18,-5],[15,-30],[58,-35],[86,-3],[78,-11],[17,3],[75,41],[117,25],[-5,40],[14,30],[42,46],[4,32],[43,30],[17,25],[58,55]],[[5353,553],[98,43],[-7,-25],[50,-80],[54,23],[18,49],[27,38]],[[5909,440],[59,4],[4,-39],[-9,-104],[-16,-41],[-31,-31],[-11,-34],[25,-73],[-2,-20],[-26,-39],[-31,-23],[-15,-39]],[[5856,1],[-452,0],[-964,8]],[[4669,2561],[104,-19],[46,-43],[24,-1],[133,48],[69,-2],[121,-48],[52,13],[67,2],[92,-49],[71,-74],[48,-39]],[[5496,2349],[55,-118],[16,-25],[76,-78],[111,-77],[17,-7]],[[5771,2044],[2,0]],[[5773,2044],[-23,-99]],[[5750,1945],[-26,-99],[-31,-38]],[[5693,1808],[-76,-80],[-34,-14],[-74,-3],[-59,-24],[-126,-5],[-193,-22],[-185,5],[-47,-7],[-57,-30],[-12,-28]],[[4785,2004],[-30,338],[-16,25],[-16,100],[-46,73],[-8,21]],[[1262,13125],[42,211],[-4,45]],[[1495,13327],[38,-75]],[[1533,13252],[-37,-14],[-180,-116]],[[1254,13081],[8,44]],[[2257,1151],[-7,65],[-54,101]],[[2196,1317],[-176,324]],[[2020,1641],[90,25],[19,14],[104,-10],[17,9],[81,9],[0,-22],[192,14],[18,4],[76,37],[39,-34],[298,186]],[[1914,962],[106,94],[-19,10],[0,56],[-18,27],[-28,12],[-22,26],[22,28],[35,-15],[41,-27],[66,21],[22,42],[-3,15],[31,16],[49,50]],[[878,785],[-29,428]],[[1984,14317],[-20,16],[-51,-2],[-30,-23],[-21,7],[-21,-16],[-32,22],[-18,-37],[-2,-30]],[[1640,14239],[24,38],[65,51],[14,87],[18,29],[31,30]],[[6926,2940],[12,-107],[-22,-2],[-44,14],[11,-31],[29,-20],[4,-61],[-119,93],[-44,24]],[[6753,2850],[3,64]],[[938,14287],[-65,40],[-35,60]],[[838,14387],[-16,123],[-23,50]],[[2754,14931],[1,24]],[[2986,14740],[-161,-121],[-51,-27]],[[2774,14592],[-41,43],[10,85]],[[281,9365],[25,11],[33,2],[32,17],[17,24],[16,46],[39,50],[13,38],[53,96],[18,23],[141,31],[55,20],[78,18],[62,40],[24,-12],[56,-12],[13,32],[35,29],[37,63],[14,43],[40,50],[8,42],[16,38],[56,41],[-5,28],[33,37],[6,24],[40,16]],[[1236,10200],[29,-30],[80,-64],[38,-49],[61,-132],[135,-176],[71,-131],[93,-124]],[[281,9361],[0,4]],[[453,13234],[100,22]],[[886,13253],[-51,-6],[4,-35],[-29,-102]],[[810,13110],[-35,19],[19,29],[-22,35],[-20,-3],[6,-28],[-19,-12],[-24,7],[-34,-35],[-38,28],[-24,-34],[-57,27],[-15,29],[-27,2],[-54,23],[-13,37]],[[1045,15081],[143,71],[133,55],[102,36],[158,45],[153,34],[110,19],[188,20]],[[1388,14881],[-40,52],[-39,20],[-23,-45],[-40,6],[-18,17],[-10,28],[-35,44],[1,19],[-54,1],[-6,-12],[-74,22],[-5,48]],[[1499,14255],[-31,15]],[[1468,14270],[-42,29],[-77,88],[-26,24],[-75,-16]],[[804,14928],[114,78],[127,75]],[[872,14066],[22,10],[40,42],[35,62],[52,42]],[[1186,14165],[0,-16],[-26,-20],[2,-26],[27,-26],[6,-34]],[[1195,14043],[-61,-38],[-32,-27]],[[1102,13978],[-59,-52]],[[1043,13926],[-24,40],[-107,7]],[[2361,14306],[23,39],[-18,8],[13,27]],[[4694,5501],[331,123],[209,79],[547,204],[532,198]],[[6313,6105],[37,-56],[97,-199],[475,-943],[106,-214],[6,-9],[334,-664],[142,-284],[-22,-22],[21,-101],[18,-57],[2,-53],[-1,-127],[-10,-84],[1,-39],[17,-122],[25,-156],[8,-88],[30,-133],[13,-85],[15,-70],[9,-111],[-6,-107],[1,-122],[7,-61],[-2,-100],[4,-54],[-2,-45],[45,-73],[37,-140],[11,-184],[26,-205],[8,-181],[10,-124],[15,-118],[11,-121],[7,-202],[2,-142],[-9,-258],[-10,-83],[-1,-162],[-130,-6],[-465,1]],[[7195,1],[10,277],[-26,352],[-10,284],[-6,56]],[[7163,970],[-21,184]],[[7142,1154],[-7,71],[-2,58],[-28,411],[97,1],[-10,56]],[[7192,1751],[-10,56],[-96,-19],[-30,510],[-81,645]],[[6936,3195],[-31,277],[-37,234],[-79,260],[-32,12],[-83,-23],[-9,-86],[46,-70],[-69,-36]],[[6642,3763],[-48,-25],[-77,-16],[-70,26],[-140,30],[-89,10],[-78,4],[-14,8],[-299,192],[-288,319]],[[1766,6150],[67,-168],[44,-138],[-16,-53],[73,12],[-25,-52],[-8,-143],[-10,-77]],[[1891,5531],[-60,13],[-87,-78],[-28,-8]],[[1716,5458],[-59,-8],[-80,-30],[-15,0],[-80,33],[-142,64],[-93,5],[-44,10],[-90,32],[-42,26],[-141,49],[-20,22],[-15,93],[-61,-19],[-44,-32],[-136,-67],[-84,-30],[-26,-2]],[[544,5604],[-55,800]],[[2475,14478],[-51,77]],[[2424,14555],[38,15],[13,-19],[26,13],[-14,28],[31,28],[35,12],[16,-31],[57,-28],[0,-58]],[[876,13574],[27,16]],[[903,13590],[63,-8],[90,-30]],[[1194,14168],[61,20],[37,22]],[[1292,14210],[10,-31],[54,-42]],[[1356,14137],[-87,-51]],[[1269,14086],[-74,-43]],[[1810,14163],[15,-37],[-53,7],[-7,-35],[128,-21]],[[1356,14137],[97,57],[48,17]],[[1495,14105],[-148,-58],[-27,-22]],[[1320,14025],[-51,61]],[[1292,14210],[115,68],[61,-8]],[[1444,13998],[-79,-35],[-45,62]],[[1797,9425],[59,-102]],[[1856,9323],[-37,-90],[-16,-19],[-48,-30],[-38,-55],[-23,-23]],[[1694,9106],[-125,-120],[-50,-15],[4,30],[-20,64],[-6,79],[7,21]],[[1694,9106],[127,-104],[37,31],[84,28]],[[1942,9061],[23,-68],[2,-88],[-20,-109],[3,-19]],[[1950,8777],[80,-153]],[[2030,8624],[-39,34],[-25,-20],[-43,-3],[-345,-99]],[[2651,7186],[138,106],[19,44],[-17,24]],[[2818,7348],[0,-32],[55,-4],[10,-16],[52,13],[32,-32]],[[2967,7277],[70,-25],[33,-39],[42,-29],[29,-32],[34,-60],[-37,-48]],[[3138,7044],[-77,-23],[-73,-42],[-40,-43],[-42,-27],[-37,-11]],[[2869,6898],[-14,25],[-29,4],[-59,40],[-20,28],[-124,92],[24,71],[4,28]],[[2370,7129],[75,3],[18,25],[188,29]],[[2869,6898],[-12,-8],[-97,-116],[-137,-123]],[[2623,6651],[-66,-17]],[[2557,6634],[-61,113],[-21,57],[3,51],[-19,50],[-104,110],[-9,24],[19,33],[5,57]],[[2359,7129],[11,0]],[[2557,6634],[-110,-49],[-93,-34],[-91,-5]],[[2263,6546],[-18,33],[58,406],[7,25],[49,119]],[[1805,6533],[57,3],[28,-17],[24,-41],[60,-18],[121,-13],[29,8],[98,12],[79,24]],[[2301,6491],[58,-70],[117,-184],[48,-49]],[[2524,6188],[63,-64],[18,-27],[61,-112],[38,-36],[5,-34],[14,-16],[77,-62]],[[2800,5837],[-35,-19],[-131,-94],[-171,-87],[-40,-57]],[[2423,5580],[-54,-38],[-37,25],[-167,-10],[-73,-12],[-54,-34],[-82,7],[-65,13]],[[3138,7044],[3,-14],[41,-14],[37,7]],[[3219,7023],[-13,-53],[-33,-175],[1,-32],[36,-163]],[[3210,6600],[-31,53],[-76,88],[-9,14],[-66,-77],[-44,11],[-61,46],[-70,-53],[-77,-8],[-36,-12],[-72,-11],[-36,1]],[[2632,6652],[-9,-1]],[[2030,8624],[81,-197],[22,-33],[97,-79]],[[2230,8315],[-54,-37],[5,-51],[-30,-11],[-37,-26]],[[2114,8190],[-70,68],[-93,-37],[-37,-4],[-110,-50],[-77,-5],[-40,-13],[-84,9]],[[1856,9323],[24,-58],[18,-71],[44,-133]],[[2632,6652],[8,-28],[27,-38],[58,-3],[7,-52],[-31,-57],[1,-13],[-37,-85],[51,-13],[6,-13]],[[2722,6350],[-47,-11],[-37,-32],[-10,-28],[-28,-12],[-41,-50],[-35,-29]],[[2301,6491],[-38,55]],[[2114,8190],[-42,-31],[-34,-16],[-15,-21],[-55,-38],[40,-43],[37,-56],[48,-25],[69,-21],[65,-34],[19,-38],[1,-31]],[[2213,7832],[-148,-2],[-59,-23],[-36,-8],[-449,0],[-52,-1],[-94,-14]],[[1375,7784],[-33,131],[-3,81]],[[3210,6600],[9,-47],[-2,-58],[-42,-222],[3,-24],[24,-51]],[[3202,6198],[-40,17],[-58,14],[-21,28],[-17,47],[-23,2],[-18,36],[13,22],[-33,22],[-37,3],[-48,-7],[-93,20],[-45,-32],[-60,-20]],[[2909,7485],[12,-14],[125,-79],[36,-29],[-34,-38],[-28,-3],[-25,-47],[-28,2]],[[6368,3564],[26,-12]],[[6394,3552],[28,-8],[55,-41],[204,-190],[28,-19],[58,-55],[37,-62]],[[6753,2850],[-99,48]],[[6654,2898],[-158,87],[-33,26]],[[6463,3011],[27,3],[19,-14],[77,12],[-30,37],[14,82],[-198,284]],[[6372,3415],[35,39],[0,48],[-15,44],[-24,18]],[[3296,7568],[3,-20],[37,-25],[-16,-16],[10,-45],[-30,-38],[47,-30],[-8,-19],[-53,-62],[-15,-34],[-32,-28],[10,-44],[-30,-184]],[[2369,14683],[13,10],[97,115],[94,29]],[[2774,14592],[-60,-31]],[[2424,14555],[-34,-16]],[[1897,2095],[45,16],[154,-12],[97,3],[68,-16],[26,50],[-1,40],[13,33],[68,75],[16,26],[57,66],[116,7],[56,12]],[[3055,14802],[39,-38],[-28,-32],[41,-29]],[[3107,14703],[-75,-111],[-40,-95],[-60,-77]],[[481,14631],[92,98],[48,47]],[[838,14387],[-57,-11],[-94,-50]],[[687,14326],[-2,34],[-30,25],[-19,48],[-4,68],[11,25],[14,65],[-32,12],[-64,2],[-80,26]],[[223,14246],[55,103],[61,97],[96,130],[46,55]],[[1891,13099],[132,166]],[[2023,13265],[49,3],[163,49]],[[2235,13317],[22,7],[47,80],[45,58]],[[2349,13462],[204,261]],[[2597,13788],[55,49],[73,146]],[[2725,13983],[49,113],[75,209]],[[3107,14703],[145,109],[127,71],[111,26],[90,75]],[[3580,14984],[143,-93],[-208,-89],[-112,-44],[-67,-55],[-49,-46],[10,-9],[-30,-60],[-69,-36],[-43,-55],[3,-42],[-56,-157],[-34,-48],[-26,-55],[5,-44],[-21,-51],[9,-11],[-2,-87],[-20,-22],[-33,-5],[-41,24],[-22,-12],[-30,-43],[0,-12],[-33,-62],[-14,-35],[-99,-41],[-26,-34],[0,-104],[-8,-57],[-21,-88],[-37,-66],[-56,-53],[-36,-48],[-22,-40],[-56,-61],[-82,-23],[-63,-85],[-56,-24],[-30,-33]],[[2265,12781],[22,-44],[29,-12],[80,-69],[46,-11],[4,-18],[32,-29],[23,-6],[8,-21],[27,-30],[30,0],[63,-14],[52,-50],[8,-122],[-30,-52],[-30,-65],[-32,-42],[-117,-121],[-5,-20],[19,-34],[41,-19],[11,-57],[-4,-72],[-12,-63],[8,-27],[-25,-58],[0,-62],[7,-39],[24,-20],[-10,-15],[-102,-13]],[[2432,11576],[-9,61],[-14,-2],[-18,-63]],[[2391,11572],[-160,-8],[-43,-142],[30,-290],[-1,-13],[286,-282],[422,-413],[61,-59]],[[2986,10365],[-238,-191]],[[2748,10174],[-23,-19]],[[2725,10155],[-3,26],[-48,153],[-44,90],[-53,67],[-85,181],[-28,45],[-51,36],[-106,103],[-119,79],[-33,31]],[[2155,10966],[-29,61],[-28,11],[-38,27]],[[2060,11065],[-18,54],[-47,56],[-25,64],[-7,70],[4,59],[44,193],[71,76],[48,-38],[37,16],[8,29],[-75,20],[22,53],[16,-20],[34,-8],[35,52],[34,90],[77,-11],[8,48],[-139,26],[13,35],[31,361]],[[2231,12290],[-4,29],[-32,34],[-310,270],[-78,53],[-39,42],[-8,73]],[[2024,12713],[12,-28],[3,-39],[40,-70],[25,-16],[47,-7],[27,44],[-42,44],[-87,60],[-25,12]],[[1317,13908],[22,34],[-74,50],[-25,2],[-59,-22],[-64,-16],[-15,22]],[[900,13846],[78,29],[65,51]],[[2231,12290],[-353,-56],[-152,-29],[-91,-10],[-128,25],[-84,-1],[-84,-26]],[[2432,11576],[-41,-4]],[[2060,11065],[-40,-19],[-16,-26],[-25,20],[-58,-10],[-11,-22],[-24,-3],[-26,30],[-23,-15],[-62,35],[-14,21],[-39,16],[-1,33],[17,23],[10,45],[-31,32],[-44,22],[-41,-10],[-26,12],[-22,-12],[12,-37],[-33,-7],[-22,11],[-39,-1],[-8,-14]],[[1494,11189],[-34,12],[-5,19],[26,28],[-28,54],[-57,-46],[-14,43],[-26,-15],[-19,22]],[[714,12806],[34,4],[44,16],[33,22],[50,50],[40,27]],[[915,12925],[1,-1]],[[916,12924],[15,-20],[29,-155],[-11,-35],[83,-59],[40,-23]],[[887,12391],[-77,29],[-42,-3],[-5,36],[-28,37],[-8,118],[-27,-3],[-12,113],[43,14],[-16,31],[-1,43]],[[2518,8079],[101,-111],[20,-32]],[[2530,7859],[-32,96],[16,38],[4,86]],[[3507,5438],[23,4],[75,-51],[36,-4],[30,6],[39,-13],[37,3]],[[3690,5155],[-37,13],[-40,0],[-30,-29],[-48,-22],[-49,2],[-5,-14],[-43,-16],[-55,25],[-32,-1]],[[3348,5113],[6,22],[77,105],[43,72],[24,75],[9,51]],[[2423,5580],[8,-119],[-6,-15],[16,-75],[1,-26],[-50,-19],[35,-61],[-24,-54],[-43,-49],[29,-32],[-11,-107],[-43,-27],[-65,-17],[-90,-63],[-10,-15],[7,-41],[-15,-25],[-60,2]],[[2102,4837],[-59,-21],[-175,-8],[-52,-42],[-31,56],[-211,96],[-5,9],[24,45],[172,95],[23,26],[22,52],[15,18],[29,11],[-46,37],[-6,71],[-18,35],[-39,34],[-39,8],[-20,14],[0,26],[20,14],[10,45]],[[1743,9494],[27,-8],[31,11],[14,-11],[27,18],[41,2],[15,-15],[20,34],[38,-7],[30,-25],[31,26],[65,28],[34,58],[22,52],[-11,33],[8,24],[41,36],[58,15],[25,22],[-1,29],[-19,14],[9,26],[-31,39],[31,45],[30,-41],[31,2],[0,43],[-27,5],[-8,17],[30,27],[19,-1]],[[2323,9992],[11,-32],[71,-106],[138,-99],[70,-28],[65,-39],[-3,-53],[-16,-75],[-9,-333],[-7,-24],[-36,-55],[-9,-32],[2,-79],[33,-229],[1,-14]],[[2634,8794],[-60,3],[-12,17],[4,25],[-54,24],[-34,-7],[-20,-25],[-29,3],[-8,25],[-43,-6],[-40,6],[-25,-13],[-5,-29],[-23,-7],[-16,-30],[-44,4],[-30,-8],[-42,3],[-84,-6],[-12,-11],[-44,-7]],[[2013,8755],[-31,0],[-32,22]],[[2359,7129],[81,198]],[[2440,7327],[29,-1],[119,40],[66,16]],[[2005,4245],[15,55],[27,187],[18,86],[27,173],[10,91]],[[2800,5837],[51,-94],[21,-28],[50,-23],[0,-214],[-90,-64],[-34,-34],[99,-32],[-9,-28],[10,-82],[-23,-19],[6,-73],[26,-112],[45,-24]],[[2088,7358],[117,2],[61,78]],[[2489,7447],[-49,-120]],[[2359,7129],[-109,4],[-13,-35],[-87,-11],[-48,-45],[-11,-19],[-30,-2],[-27,27],[-12,63],[-25,68],[55,98],[36,81]],[[1483,7319],[25,-6],[120,-2],[68,8],[68,25],[35,3],[95,-21],[32,-1],[103,32],[59,1]],[[643,4192],[-62,883],[-37,529]],[[2114,8190],[46,-35],[32,-34],[23,-5],[7,-22],[61,-67],[53,-39],[10,-14],[43,-140]],[[1419,7365],[56,42],[41,51],[-59,93],[-19,6],[-38,50],[-14,55],[-11,122]],[[450,6958],[-42,598],[-51,727]],[[2795,15205],[128,-22],[93,-20],[137,-23]],[[810,13110],[14,-16],[39,-10],[15,-24],[44,16],[58,38],[41,-28],[30,47]],[[1051,13133],[28,-42],[70,-66]],[[1149,13025],[-112,-51],[-121,-50]],[[915,12925],[-65,63],[-28,19],[-17,69],[5,34]],[[2725,13983],[-171,69],[-45,27],[-19,25],[-11,37]],[[2634,8794],[5,-65],[39,-40],[17,-161],[41,-57],[23,-43],[40,-59],[144,-104],[61,-11]],[[2781,8033],[-324,249],[-46,41],[-54,69],[-44,40],[-138,96],[-70,60],[-55,68],[-22,39],[-15,60]],[[2748,10174],[201,-127],[13,-96],[149,-97],[160,-77],[51,-77],[114,-43],[76,-112],[17,-202],[259,-318],[23,-104],[16,-120],[-4,-176],[13,-61],[74,-210],[-4,-179],[-135,-153],[-22,-71],[-13,-112],[-22,-84],[15,-76],[28,-267],[37,-104],[30,-109],[-8,-238],[12,-93],[16,-44],[80,-126],[143,-71],[55,-50],[21,-25],[174,-132],[109,-107],[73,-153],[110,-166],[49,-140],[22,-80],[-12,-225],[1,-57]],[[3507,5438],[15,52],[2,44],[-8,37],[-113,269],[-40,78],[-79,69],[-27,42],[-55,169]],[[2323,9992],[15,-23],[28,-11],[19,28],[29,10],[12,-25],[31,-14],[15,30],[23,14],[31,-13],[14,13],[-11,41],[25,14],[43,-11],[44,26],[9,38],[40,18],[35,28]],[[2518,8079],[-70,59],[-218,177]],[[2986,10365],[115,-159],[240,-200],[416,-407],[201,-193],[336,-314],[247,-234],[199,-289],[500,-734],[117,-194],[174,-282],[266,-409],[225,-253],[249,-494],[42,-98]],[[6655,1724],[178,10],[231,7],[128,10]],[[7142,1154],[-49,5],[-102,-4],[-38,4],[-112,0],[-23,-39]],[[6790,1175],[-22,79],[-36,41],[-20,57],[3,31],[21,48]],[[6736,1431],[6,22],[-6,49],[-61,120],[-15,44],[-5,58]],[[2243,13644],[41,133]],[[2349,13462],[-37,34],[-32,76],[-18,6],[4,49],[-23,17]],[[1262,13125],[-15,17],[-84,132],[9,34]],[[2815,15302],[174,-47],[147,-49],[59,-23]],[[5693,1808],[115,-88],[164,-112],[24,-13],[25,-29],[11,-29]],[[6032,1537],[-28,-12]],[[6004,1525],[-37,-12],[-36,1],[-47,14],[-120,4],[-134,24],[-39,-18],[-59,5],[-37,-19],[-115,-12],[-57,41],[-53,-1],[-41,-34],[-38,-16],[-13,-34],[-28,-7]],[[5150,1461],[-25,15],[-69,18],[-77,-1],[-8,14],[-2,56],[-66,19],[-28,18],[-42,-13]],[[6986,791],[42,7],[13,12],[2,34],[50,-9],[17,4],[-27,38],[-3,87]],[[7080,964],[83,6]],[[7195,1],[-12,0]],[[7183,1],[1,146],[-6,133],[-10,100],[-3,81],[-14,174],[-82,30],[-30,18]],[[7080,964],[-70,13],[-137,35]],[[6394,3552],[80,83],[171,26],[12,48],[-15,54]],[[7053,263],[5,-115],[-3,-49],[-22,-83]],[[7033,16],[-33,15],[-93,67],[-32,35],[-66,34]],[[6809,167],[-40,39],[-70,29]],[[6809,167],[2,-33],[-29,-10],[-69,14],[27,-28],[-34,-21],[-46,0],[-26,20],[-39,-9],[-73,18],[-40,-9],[-46,8],[-26,12],[-62,-44],[-23,-45],[-21,-25],[-25,-15]],[[6279,0],[-423,1]],[[7033,16],[-11,-15]],[[7022,1],[-743,-1]],[[5784,1322],[-9,-62],[-34,-25],[0,-29],[-49,-22],[-10,-15],[29,-25],[15,-44],[-8,-18],[23,-15],[-8,-23],[16,-26],[-15,-32],[-12,-108],[-26,-18],[16,-14]],[[5353,553],[-13,142],[-11,32],[-27,47],[55,7],[-12,46],[28,43],[18,-8],[55,28],[26,34],[22,61],[12,9],[-55,36],[-129,52],[34,29],[62,19],[19,50],[14,7],[57,0],[25,30],[101,11],[47,26],[55,50],[48,18]],[[5750,1945],[72,-13],[97,-80],[18,14],[55,16],[18,-1],[48,-53],[50,-18],[13,-49],[32,-8]],[[6153,1753],[11,-4],[82,-69],[39,-64]],[[6285,1616],[-190,-47],[-63,-32]],[[6458,1133],[-10,176],[8,44],[20,13],[61,21],[3,14],[62,24],[37,2],[20,-9],[55,3],[22,10]],[[5784,1322],[65,4],[34,31],[119,126],[2,42]],[[6285,1616],[162,41],[85,44],[52,15],[71,8]],[[6368,3564],[-47,30]],[[6321,3594],[-40,40],[-53,4],[-61,28],[-51,59],[-39,23],[-24,-7],[-12,-36],[-32,-18],[-56,-46],[23,-19],[-15,-22],[40,-20],[0,-29],[53,-3],[27,-15],[-28,-37],[-97,-73],[34,-40]],[[5990,3383],[68,-57],[-89,-35]],[[5969,3291],[-85,12],[-44,2],[-23,14],[-31,40],[-100,62]],[[5686,3421],[-113,83]],[[5573,3504],[-299,219],[-60,34]],[[5773,2044],[120,-37]],[[6099,1965],[82,-83],[12,-41],[-15,-39],[0,-24],[-27,-5],[2,-20]],[[5573,3504],[-66,-67],[-47,-36],[-19,-5],[-156,-13],[160,-86],[15,-14]],[[5460,3283],[28,-35],[9,-88]],[[5497,3160],[-156,-27],[-456,-103]],[[4885,3030],[-18,50],[-29,198],[-17,25],[-32,21],[14,72],[-37,51],[-7,95],[-21,10],[-45,50],[-46,13]],[[6403,3064],[60,-53]],[[6654,2898],[-41,-26],[-8,-30],[-48,-56],[-7,-40],[-48,-5],[0,-37],[20,-32],[37,-25],[112,-134]],[[6671,2513],[-8,-166]],[[6663,2347],[-73,48],[-68,52],[-42,40],[-34,51]],[[6446,2538],[-19,30],[-17,58],[-28,67],[5,29],[-25,53],[2,38],[-9,56],[17,93],[21,89],[10,13]],[[5990,3383],[204,73],[127,138]],[[6372,3415],[-56,-62],[-8,-2],[-90,20],[-33,-90],[-21,-29]],[[6164,3252],[-57,33],[-54,6],[-84,0]],[[5929,2705],[87,49]],[[6016,2754],[9,-48],[29,-67],[12,-47],[37,-6],[5,-47]],[[6108,2539],[-7,-60],[-25,2],[-5,-85],[-7,-16],[-7,-100]],[[6057,2280],[-19,0],[-61,37],[-31,35],[-49,16],[-19,52],[-26,21]],[[5852,2441],[30,65],[-23,33],[-3,38],[27,34],[47,44],[-1,50]],[[6753,2850],[-9,-121],[-66,-176],[-7,-40]],[[4504,1363],[96,74],[25,9],[155,37],[15,8],[38,96]],[[5150,1461],[-13,-82],[-21,-36],[-55,-30],[-48,-44],[-23,-14],[-30,-42],[-1,-37],[-28,-15],[-19,-26],[-33,-24],[-27,8],[-31,-22],[-82,-45],[-59,-81],[11,-82],[-178,-22]],[[4583,2912],[141,65],[127,44],[34,9]],[[5497,3160],[148,27],[95,10],[29,8],[200,86]],[[5969,3291],[-234,-203],[-35,-39],[-15,-28],[-31,-31],[1,-65]],[[5655,2925],[-2,-10],[-59,-89],[-23,-54],[-10,-52],[1,-44],[-16,-76],[-42,-97],[6,-109],[-14,-45]],[[4669,2561],[-16,43],[-9,145],[-5,25],[-41,107],[-15,31]],[[6357,3105],[46,-41]],[[6446,2538],[-117,0],[4,-22],[-42,-12],[-183,35]],[[6016,2754],[40,19],[50,38],[130,168],[121,126]],[[5460,3283],[38,33],[50,31],[24,33],[107,36],[7,5]],[[6663,2347],[-3,-207]],[[6259,2153],[-30,51],[-34,34],[-58,26],[-80,16]],[[5771,2044],[7,20],[41,174],[-1,130],[13,43],[21,30]],[[6829,1926],[-32,-37],[-53,-38],[-52,-43],[-32,-51],[-5,-33]],[[1894,2131],[-5,134],[51,486]],[[3559,4947],[6,-57],[25,-105],[1,-138],[-99,1],[-97,-19]],[[4182,3252],[-23,-57],[3,-82],[-20,-78],[-5,-92],[-25,-32],[-29,-165]],[[4083,2746],[-92,-34],[-79,-67]],[[3912,2645],[-99,-91]],[[7183,1],[-161,0]],[[5793,2907],[22,36],[35,9],[61,98],[114,166],[55,-58],[82,-39],[91,66]],[[6253,3185],[104,-80]],[[5929,2705],[-20,40],[-66,59],[-54,81],[4,22]],[[3912,2645],[36,-33],[25,-76],[79,5],[121,16],[28,1],[18,-17],[-24,-49],[-37,-35],[-9,-19],[3,-53],[-36,-99],[33,-42]],[[1254,13081],[-37,-25],[-68,-31]],[[427,12771],[47,11],[240,24]],[[1614,13279],[-81,-27]],[[1168,10341],[-67,-67],[-161,-25],[-30,-18],[-23,-31],[-19,-40],[-79,139],[-45,45],[-33,20],[-52,-14],[-44,-33],[-34,-58],[-76,-32],[-25,-1],[-91,15],[-27,-6],[-132,-97],[-4,2]],[[226,10140],[-38,540]],[[281,9365],[-55,775]],[[1670,13320],[-47,-64],[-34,-54]],[[1927,13609],[113,-182]],[[2040,13427],[-175,10],[-3,-82],[-89,-24],[43,-14],[32,-25],[23,-49],[45,-21],[46,64],[35,12],[26,-33]],[[983,11194],[-5,-17],[18,-91],[-102,-21],[-192,-12]],[[2155,10966],[-50,-16],[-24,-28],[-32,22],[-28,-7],[8,-33],[-24,-15],[17,-37],[-58,4],[-56,-17],[-10,22],[-23,1],[5,-30],[-37,-1],[0,-53],[-43,-63],[-38,-7],[-24,-26],[-1,-20],[44,9],[56,-70],[4,-43]],[[1314,11078],[46,33],[18,47],[53,24],[63,7]],[[435,12999],[-2,-45],[-17,-114],[0,-31],[11,-38]],[[38,12786],[-12,171]],[[2370,14072],[-82,37],[-25,6]],[[6164,3252],[89,-67]],[[5793,2907],[-138,18]],[[4083,2746],[26,16],[217,63],[45,16],[130,37],[82,34]],[[3451,15062],[100,-57],[29,-21]],[[903,13590],[-20,9],[-11,41],[-29,27]],[[843,13667],[-44,56]],[[2045,13758],[14,-29],[21,-213]],[[2080,13516],[11,-92]],[[2091,13424],[-51,3]],[[2296,13818],[-40,28],[-53,73],[-21,13]],[[2284,13777],[-174,10],[-24,-4]],[[2086,13783],[-26,-5]],[[2243,13644],[-26,-85],[-49,17]],[[2168,13576],[-19,75],[-2,56],[26,33],[-68,45],[-19,-2]],[[2168,13576],[-46,-33],[1,-31],[-43,4]],[[2235,13317],[-23,34],[-63,59],[-58,14]],[[581,13575],[262,92]],[[746,13486],[-62,66],[-35,-18],[-59,-5],[-9,46]],[[509,13652],[-13,25],[4,35]],[[453,13234],[-1,4]],[[2573,14837],[-80,58]],[[2493,14895],[-18,27],[-17,102]],[[2493,14895],[-33,-16],[-10,11],[-86,-25],[-16,8]],[[1687,2752],[-62,-340],[-10,-81],[4,-27],[32,-128],[45,-105]]],"transform":{"scale":[0.00010305032010243265,0.00009034109838625721],"translate":[-75.789023,38.451132]},"objects":{"Tract_10_2020":{"type":"GeometryCollection","geometries":[{"arcs":[[0,1,2,3,4,5]],"type":"Polygon","properties":{"id":"14000US10003016612"}},{"arcs":[[6,7,8,9,10]],"type":"Polygon","properties":{"id":"14000US10003016808"}},{"arcs":[[11,-6,12,13,14,15]],"type":"Polygon","properties":{"id":"14000US10003016610"}},{"arcs":[[16,17,18,19]],"type":"Polygon","properties":{"id":"14000US10003014811"}},{"arcs":[[20,21,22,23]],"type":"Polygon","properties":{"id":"14000US10003014301"}},{"arcs":[[24,25,-20,26]],"type":"Polygon","properties":{"id":"14000US10003014812"}},{"arcs":[[27,28,29,30,31]],"type":"Polygon","properties":{"id":"14000US10003013906"}},{"arcs":[[-30,32,33,34,35]],"type":"Polygon","properties":{"id":"14000US10003013905"}},{"arcs":[[36,37,38,39,40,41]],"type":"Polygon","properties":{"id":"14000US10003010105"}},{"arcs":[[42,43,44]],"type":"Polygon","properties":{"id":"14000US10003010703"}},{"arcs":[[45,46,47,48,49,50,51,52,53]],"type":"Polygon","properties":{"id":"14000US10003015200"}},{"arcs":[[54,-37,55]],"type":"Polygon","properties":{"id":"14000US10003010106"}},{"arcs":[[56,57,58,59,60]],"type":"Polygon","properties":{"id":"14000US10003016307"}},{"arcs":[[-18,61,62,63,-1,-12,64]],"type":"Polygon","properties":{"id":"14000US10003016609"}},{"arcs":[[65,66,-2,-64]],"type":"Polygon","properties":{"id":"14000US10003016611"}},{"arcs":[[[67,68]],[[-59,69,70,71,72]]],"type":"MultiPolygon","properties":{"id":"14000US10003016308"}},{"arcs":[[73,74,75,76]],"type":"Polygon","properties":{"id":"14000US10003014813"}},{"arcs":[[77,78,79,80]],"type":"Polygon","properties":{"id":"14000US10003013507"}},{"arcs":[[81,-81,82,83,84]],"type":"Polygon","properties":{"id":"14000US10003013508"}},{"arcs":[[-23,85,86,87,88,89,90]],"type":"Polygon","properties":{"id":"14000US10003014302"}},{"arcs":[[91,92,-45,93,94,95,96,97]],"type":"Polygon","properties":{"id":"14000US10003010704"}},{"arcs":[[98,99,100,101,102]],"type":"Polygon","properties":{"id":"14000US10003000500"}},{"arcs":[[103,-98,104,105]],"type":"Polygon","properties":{"id":"14000US10003000601"}},{"arcs":[[-106,106,107,-101]],"type":"Polygon","properties":{"id":"14000US10003000602"}},{"arcs":[[108,109,110,111,112,113,114]],"type":"Polygon","properties":{"id":"14000US10003001100"}},{"arcs":[[115,116,-109,117,118,119,120]],"type":"Polygon","properties":{"id":"14000US10003001300"}},{"arcs":[[-113,121,122,123]],"type":"Polygon","properties":{"id":"14000US10003001500"}},{"arcs":[[-112,124,125,-122]],"type":"Polygon","properties":{"id":"14000US10003001600"}},{"arcs":[[126,127,128,129]],"type":"Polygon","properties":{"id":"14000US10003002300"}},{"arcs":[[-120,130,-130,131,132,133,134]],"type":"Polygon","properties":{"id":"14000US10003002400"}},{"arcs":[[135,-103,136,-110,-117,137]],"type":"Polygon","properties":{"id":"14000US10003000400"}},{"arcs":[[138,139,140,141,142]],"type":"Polygon","properties":{"id":"14000US10003002600"}},{"arcs":[[143,144,145,146,-47,147,-142]],"type":"Polygon","properties":{"id":"14000US10003002700"}},{"arcs":[[-41,148,149]],"type":"Polygon","properties":{"id":"14000US10003010200"}},{"arcs":[[150,-148,-46,151,152,153]],"type":"Polygon","properties":{"id":"14000US10003012900"}},{"arcs":[[154,155,-60,156,-66,-63,157]],"type":"Polygon","properties":{"id":"14000US10003016401"}},{"arcs":[[-115,158,-118]],"type":"Polygon","properties":{"id":"14000US10003001200"}},{"arcs":[[159,160,161,162,163]],"type":"Polygon","properties":{"id":"14000US10003010400"}},{"arcs":[[164,165,166]],"type":"Polygon","properties":{"id":"14000US10003010900"}},{"arcs":[[167,168,-164,169,170]],"type":"Polygon","properties":{"id":"14000US10003011100"}},{"arcs":[[171,172,173,-33,-29,174,175,176,177]],"type":"Polygon","properties":{"id":"14000US10003013800"}},{"arcs":[[178,-152,-54,179,180,181,182,-174]],"type":"Polygon","properties":{"id":"14000US10003015000"}},{"arcs":[[183,184,185,186,187]],"type":"Polygon","properties":{"id":"14000US10005051101"}},{"arcs":[[188,189,190,191,192,-86,-22]],"type":"Polygon","properties":{"id":"14000US10003013610"}},{"arcs":[[193,-121,-135,194,195,196,197,198]],"type":"Polygon","properties":{"id":"14000US10003011900"}},{"arcs":[[-79,199,200,201,202,203,204]],"type":"Polygon","properties":{"id":"14000US10003013613"}},{"arcs":[[205,206,207,208,209]],"type":"Polygon","properties":{"id":"14000US10003014705"}},{"arcs":[[210,211,212,213,-177,214,215,-191]],"type":"Polygon","properties":{"id":"14000US10003013700"}},{"arcs":[[216,217,218,219,220]],"type":"Polygon","properties":{"id":"14000US10003014502"}},{"arcs":[[221,222,223,224,225,226,227]],"type":"Polygon","properties":{"id":"14000US10003012400"}},{"arcs":[[-90,228,229,230,231]],"type":"Polygon","properties":{"id":"14000US10003014404"}},{"arcs":[[-197,232,-228,233,234,235,236,237,238]],"type":"Polygon","properties":{"id":"14000US10003012000"}},{"arcs":[[239,240,-235,241,-153,-179,-173]],"type":"Polygon","properties":{"id":"14000US10003012700"}},{"arcs":[[242,243,244,245,246,247,248,249,250,251,252]],"type":"Polygon","properties":{"id":"14000US10005050601"}},{"arcs":[[-132,-129,-139,253,-225]],"type":"Polygon","properties":{"id":"14000US10003002500"}},{"arcs":[[254,255,256,257]],"type":"Polygon","properties":{"id":"14000US10003011201"}},{"arcs":[[258,259,260,261,-255,262]],"type":"Polygon","properties":{"id":"14000US10003011202"}},{"arcs":[[-261,263,264]],"type":"Polygon","properties":{"id":"14000US10003011205"}},{"arcs":[[-230,265,-88,266,-221,267,268]],"type":"Polygon","properties":{"id":"14000US10003014402"}},{"arcs":[[269,-263,-258,270,271,272,-138,-116,-194,273]],"type":"Polygon","properties":{"id":"14000US10003011700"}},{"arcs":[[-231,-269,274,275,-74,276]],"type":"Polygon","properties":{"id":"14000US10003014803"}},{"arcs":[[-149,-40,277,-160,-169]],"type":"Polygon","properties":{"id":"14000US10003010300"}},{"arcs":[[-262,-265,278,279,-256]],"type":"Polygon","properties":{"id":"14000US10003011206"}},{"arcs":[[-279,280,-171,281]],"type":"Polygon","properties":{"id":"14000US10003011300"}},{"arcs":[[282,283,-211,-190,284]],"type":"Polygon","properties":{"id":"14000US10003013611"}},{"arcs":[[-146,285,286,287,288,289]],"type":"Polygon","properties":{"id":"14000US10003002900"}},{"arcs":[[290,-126,291,-144,-141]],"type":"Polygon","properties":{"id":"14000US10003002100"}},{"arcs":[[-181,292,293,294,295]],"type":"Polygon","properties":{"id":"14000US10003014909"}},{"arcs":[[296,297,298,299,300]],"type":"Polygon","properties":{"id":"14000US10003015502"}},{"arcs":[[301,302,303,304,305,306,307,308]],"type":"Polygon","properties":{"id":"14000US10005050103"}},{"arcs":[[309,310,311,312,313,314,315]],"type":"Polygon","properties":{"id":"14000US10005050304"}},{"arcs":[[316,317,318,319,320]],"type":"Polygon","properties":{"id":"14000US10005050710"}},{"arcs":[[321,-310,322,323]],"type":"Polygon","properties":{"id":"14000US10005050303"}},{"arcs":[[324,325,326,-319]],"type":"Polygon","properties":{"id":"14000US10005050711"}},{"arcs":[[327,328,329,330,331,332,333]],"type":"Polygon","properties":{"id":"14000US10005051313"}},{"arcs":[[-333,334,335,336,337,338]],"type":"Polygon","properties":{"id":"14000US10005051314"}},{"arcs":[[339,-338,340,341]],"type":"Polygon","properties":{"id":"14000US10005051310"}},{"arcs":[[342,343,344,345,346,347,348]],"type":"Polygon","properties":{"id":"14000US10001040100"}},{"arcs":[[349,350,351,352,-343]],"type":"Polygon","properties":{"id":"14000US10001040201"}},{"arcs":[[353,354,355,356]],"type":"Polygon","properties":{"id":"14000US10001041500"}},{"arcs":[[357,358,359,360,361,362]],"type":"Polygon","properties":{"id":"14000US10001042000"}},{"arcs":[[363,364,365,366,367,368,369]],"type":"Polygon","properties":{"id":"14000US10001041200"}},{"arcs":[[370,371,372,-365,373,374,375]],"type":"Polygon","properties":{"id":"14000US10001041000"}},{"arcs":[[-374,-364,376,-354,377,378]],"type":"Polygon","properties":{"id":"14000US10001041300"}},{"arcs":[[379,380,381,-378,-357,382,383]],"type":"Polygon","properties":{"id":"14000US10001041400"}},{"arcs":[[-105,-97,384,-288,385,-107]],"type":"Polygon","properties":{"id":"14000US10003003002"}},{"arcs":[[386,387,388,389,-243,390,391]],"type":"Polygon","properties":{"id":"14000US10005050501"}},{"arcs":[[392,393,-334,-339,-340,394,395]],"type":"Polygon","properties":{"id":"14000US10005051302"}},{"arcs":[[396,397,398,399,400]],"type":"Polygon","properties":{"id":"14000US10005050403"}},{"arcs":[[-322,401,402,403,-387,404,-311]],"type":"Polygon","properties":{"id":"14000US10005050302"}},{"arcs":[[-307,405,406,407,408]],"type":"Polygon","properties":{"id":"14000US10005050801"}},{"arcs":[[-315,409,410,-401,411,412]],"type":"Polygon","properties":{"id":"14000US10005050401"}},{"arcs":[[413,414,415,416,417,418,-403]],"type":"Polygon","properties":{"id":"14000US10005050101"}},{"arcs":[[419,420,-251,421,422,423,424]],"type":"Polygon","properties":{"id":"14000US10005051702"}},{"arcs":[[425,426,-425,427]],"type":"Polygon","properties":{"id":"14000US10005051900"}},{"arcs":[[-419,428,-409,429,430,-388,-404]],"type":"Polygon","properties":{"id":"14000US10005050200"}},{"arcs":[[431,432,-396,433,434,-423]],"type":"Polygon","properties":{"id":"14000US10005051400"}},{"arcs":[[435,436,437,438,439,440,-246,441]],"type":"Polygon","properties":{"id":"14000US10005050701"}},{"arcs":[[442,-182,-296,443,444,-57,445]],"type":"Polygon","properties":{"id":"14000US10003014904"}},{"arcs":[[-252,-421,446,447,448]],"type":"Polygon","properties":{"id":"14000US10005051701"}},{"arcs":[[-447,-420,-427,449]],"type":"Polygon","properties":{"id":"14000US10005051802"}},{"arcs":[[-412,-400,-448,-450,-426,450]],"type":"Polygon","properties":{"id":"14000US10005051801"}},{"arcs":[[-119,-159,-114,-124,-127,-131]],"type":"Polygon","properties":{"id":"14000US10003001400"}},{"arcs":[[-195,-134,451,-223,452]],"type":"Polygon","properties":{"id":"14000US10003012200"}},{"arcs":[[-187,453,454]],"type":"Polygon","properties":{"id":"14000US10005051102"}},{"arcs":[[-123,-291,-140,-128]],"type":"Polygon","properties":{"id":"14000US10003002200"}},{"arcs":[[-80,-205,455,456,-83]],"type":"Polygon","properties":{"id":"14000US10003013612"}},{"arcs":[[-165,457,-170,-163,458,459]],"type":"Polygon","properties":{"id":"14000US10003011000"}},{"arcs":[[460,461,-350,-349,462]],"type":"Polygon","properties":{"id":"14000US10003016901"}},{"arcs":[[463,-209,-32,464,465]],"type":"Polygon","properties":{"id":"14000US10003014706"}},{"arcs":[[466,-274,-199,467]],"type":"Polygon","properties":{"id":"14000US10003011800"}},{"arcs":[[-468,-198,-239,468,469,-200,-78,-82,470]],"type":"Polygon","properties":{"id":"14000US10003013501"}},{"arcs":[[471,-203,472,473,474,475,-212,-284]],"type":"Polygon","properties":{"id":"14000US10003013604"}},{"arcs":[[-108,-386,-287,476]],"type":"Polygon","properties":{"id":"14000US10003000900"}},{"arcs":[[477,478,479,480,481,482,-185,483,484,-305]],"type":"Polygon","properties":{"id":"14000US10005990000"}},{"arcs":[[-361,485,486,487,488]],"type":"Polygon","properties":{"id":"14000US10001042801"}},{"arcs":[[-92,-104,-100,489,490]],"type":"Polygon","properties":{"id":"14000US10003000200"}},{"arcs":[[491,492,-175,-28,-208]],"type":"Polygon","properties":{"id":"14000US10003013901"}},{"arcs":[[-196,-453,-222,-233]],"type":"Polygon","properties":{"id":"14000US10003012100"}},{"arcs":[[-202,493,494,495,496,-473]],"type":"Polygon","properties":{"id":"14000US10003013300"}},{"arcs":[[-227,497,-154,-242,-234]],"type":"Polygon","properties":{"id":"14000US10003012600"}},{"arcs":[[-496,498,-237,499,500]],"type":"Polygon","properties":{"id":"14000US10003013100"}},{"arcs":[[501,-469,-238,-499,-495]],"type":"Polygon","properties":{"id":"14000US10003013200"}},{"arcs":[[-236,-241,502,-500]],"type":"Polygon","properties":{"id":"14000US10003013000"}},{"arcs":[[-470,-502,-494,-201]],"type":"Polygon","properties":{"id":"14000US10003013400"}},{"arcs":[[-352,503,504,505]],"type":"Polygon","properties":{"id":"14000US10001040204"}},{"arcs":[[-353,-506,506,507,508,509,-344]],"type":"Polygon","properties":{"id":"14000US10001040206"}},{"arcs":[[510,-368,511,512,513,514]],"type":"Polygon","properties":{"id":"14000US10001042203"}},{"arcs":[[515,-515,516,517,518]],"type":"Polygon","properties":{"id":"14000US10001042204"}},{"arcs":[[519,-519,520,521]],"type":"Polygon","properties":{"id":"14000US10001042205"}},{"arcs":[[522,523,524,525,526,-486,-360]],"type":"Polygon","properties":{"id":"14000US10001042802"}},{"arcs":[[-517,-514,527,528,529,530]],"type":"Polygon","properties":{"id":"14000US10001042207"}},{"arcs":[[-510,531,532,533,-345]],"type":"Polygon","properties":{"id":"14000US10001041803"}},{"arcs":[[534,-507,-505]],"type":"Polygon","properties":{"id":"14000US10001040205"}},{"arcs":[[-521,-518,-531,535,536,-524,537]],"type":"Polygon","properties":{"id":"14000US10001042206"}},{"arcs":[[-346,-534,538,-380,539,540]],"type":"Polygon","properties":{"id":"14000US10001041804"}},{"arcs":[[-530,541,542,-536]],"type":"Polygon","properties":{"id":"14000US10001042208"}},{"arcs":[[-367,543,-512]],"type":"Polygon","properties":{"id":"14000US10001041101"}},{"arcs":[[544,545,-188,-455,546,547,548,549]],"type":"Polygon","properties":{"id":"14000US10005051009"}},{"arcs":[[550,-528,-513,-544,-366,-373]],"type":"Polygon","properties":{"id":"14000US10001980000"}},{"arcs":[[551,-166,-460,552,-43,-93,-491,553,-273]],"type":"Polygon","properties":{"id":"14000US10003010800"}},{"arcs":[[-391,-253,-449,-399,554]],"type":"Polygon","properties":{"id":"14000US10005050408"}},{"arcs":[[-553,-459,-162,555,556,-94,-44]],"type":"Polygon","properties":{"id":"14000US10003010502"}},{"arcs":[[557,-84,-457,558,559]],"type":"Polygon","properties":{"id":"14000US10003013505"}},{"arcs":[[-560,-285,-189,-21,560]],"type":"Polygon","properties":{"id":"14000US10003013506"}},{"arcs":[[561,562,563,564,-300,565,566,-95,-557,567,568,-69,569,570,571,572,573,574,575,576,577,-72],[578]],"type":"Polygon","properties":{"id":"14000US10003990100"}},{"arcs":[[-474,-497,-501,-503,-240,-172,579]],"type":"Polygon","properties":{"id":"14000US10003013614"}},{"arcs":[[580,-475,-580,-178,-214]],"type":"Polygon","properties":{"id":"14000US10003013615"}},{"arcs":[[[-579]],[[-73,-578,581,-157]]],"type":"MultiPolygon","properties":{"id":"14000US10003016404"}},{"arcs":[[[582,-571]],[[-67,-582,-577,583,584,-3]]],"type":"MultiPolygon","properties":{"id":"14000US10003016608"}},{"arcs":[[585,586,587,-155,588]],"type":"Polygon","properties":{"id":"14000US10003014809"}},{"arcs":[[589,-375,-379,590]],"type":"Polygon","properties":{"id":"14000US10001040900"}},{"arcs":[[591,-302,592,-416,593]],"type":"Polygon","properties":{"id":"14000US10001042500"}},{"arcs":[[-487,-527,594,595]],"type":"Polygon","properties":{"id":"14000US10001043000"}},{"arcs":[[596,597,598,599,-508,-535,-504,-351]],"type":"Polygon","properties":{"id":"14000US10001040203"}},{"arcs":[[600,601,-369,-511,-516,-520]],"type":"Polygon","properties":{"id":"14000US10001041702"}},{"arcs":[[602,-595,-526,603,-414,-402]],"type":"Polygon","properties":{"id":"14000US10001042900"}},{"arcs":[[604,-383,-356,605,-601,606]],"type":"Polygon","properties":{"id":"14000US10001041701"}},{"arcs":[[607,-607,-522,-538,-523,-359]],"type":"Polygon","properties":{"id":"14000US10001042100"}},{"arcs":[[-488,-596,-603,-324,608]],"type":"Polygon","properties":{"id":"14000US10001043100"}},{"arcs":[[609,-381,-539]],"type":"Polygon","properties":{"id":"14000US10001040700"}},{"arcs":[[-355,-377,-370,-602,-606]],"type":"Polygon","properties":{"id":"14000US10001041600"}},{"arcs":[[-540,-384,-605,-608,-358,610]],"type":"Polygon","properties":{"id":"14000US10001041802"}},{"arcs":[[-347,-541,-611,-363,611]],"type":"Polygon","properties":{"id":"14000US10001041900"}},{"arcs":[[-264,612,-42,-150,-168,-281]],"type":"Polygon","properties":{"id":"14000US10003011204"}},{"arcs":[[-559,-456,-204,-472,-283]],"type":"Polygon","properties":{"id":"14000US10003013607"}},{"arcs":[[613,614,615,-587,616]],"type":"Polygon","properties":{"id":"14000US10003014903"}},{"arcs":[[-289,-385,-96,-567,617]],"type":"Polygon","properties":{"id":"14000US10003980100"}},{"arcs":[[-599,618,-371,619]],"type":"Polygon","properties":{"id":"14000US10001040502"}},{"arcs":[[-574,620,-303,-592,621,-542,-529,-551,-372,-619,-598,622]],"type":"Polygon","properties":{"id":"14000US10001043202"}},{"arcs":[[-600,-620,-376,-590,623,-532,-509]],"type":"Polygon","properties":{"id":"14000US10001040501"}},{"arcs":[[624,-478,-304,-621,-573]],"type":"Polygon","properties":{"id":"14000US10001990000"}},{"arcs":[[-537,-543,-622,-594,-415,-604,-525]],"type":"Polygon","properties":{"id":"14000US10001043400"}},{"arcs":[[-624,-591,-382,-610,-533]],"type":"Polygon","properties":{"id":"14000US10001043300"}},{"arcs":[[625,-482,626,-330,627,628]],"type":"Polygon","properties":{"id":"14000US10005051201"}},{"arcs":[[629,-301,-565,630]],"type":"Polygon","properties":{"id":"14000US10003015802"}},{"arcs":[[-183,-443,631,-34]],"type":"Polygon","properties":{"id":"14000US10003014907"}},{"arcs":[[632,-56,-613,-260]],"type":"Polygon","properties":{"id":"14000US10003011203"}},{"arcs":[[633,634,635,636,-247,-441]],"type":"Polygon","properties":{"id":"14000US10005050703"}},{"arcs":[[637,638,-480,639,640,-335]],"type":"Polygon","properties":{"id":"14000US10005051204"}},{"arcs":[[-627,-481,-639,641,-331]],"type":"Polygon","properties":{"id":"14000US10005051202"}},{"arcs":[[-484,-184,-546,642]],"type":"Polygon","properties":{"id":"14000US10005980000"}},{"arcs":[[-337,643,644,645,-341]],"type":"Polygon","properties":{"id":"14000US10005051309"}},{"arcs":[[-395,-342,-646,646,647,-434]],"type":"Polygon","properties":{"id":"14000US10005051312"}},{"arcs":[[-645,648,649,-647]],"type":"Polygon","properties":{"id":"14000US10005051311"}},{"arcs":[[650,-393,-433,651]],"type":"Polygon","properties":{"id":"14000US10005051501"}},{"arcs":[[-440,652,653,654,-634]],"type":"Polygon","properties":{"id":"14000US10005050708"}},{"arcs":[[-628,-329,655]],"type":"Polygon","properties":{"id":"14000US10005051307"}},{"arcs":[[656,-635,-655,657,-629,-656,-328,-394,-651]],"type":"Polygon","properties":{"id":"14000US10005051308"}},{"arcs":[[-306,-485,-643,-545,658,659,660,661,662,663,-406]],"type":"Polygon","properties":{"id":"14000US10005050905"}},{"arcs":[[664,-321,665,-653,-439]],"type":"Polygon","properties":{"id":"14000US10005050707"}},{"arcs":[[-664,666,667,668,669,-407]],"type":"Polygon","properties":{"id":"14000US10005050806"}},{"arcs":[[670,-548,671,672,673,674]],"type":"Polygon","properties":{"id":"14000US10005051017"}},{"arcs":[[675,-659,-550,676,677,-661]],"type":"Polygon","properties":{"id":"14000US10005050904"}},{"arcs":[[678,679,680,681,682]],"type":"Polygon","properties":{"id":"14000US10005051012"}},{"arcs":[[-547,683,-672]],"type":"Polygon","properties":{"id":"14000US10005051016"}},{"arcs":[[684,-637,685,-249]],"type":"Polygon","properties":{"id":"14000US10005050604"}},{"arcs":[[-685,-248]],"type":"Polygon","properties":{"id":"14000US10005050603"}},{"arcs":[[686,-669,687,688,689,-436,690]],"type":"Polygon","properties":{"id":"14000US10005050804"}},{"arcs":[[691,-675,692,-680,693]],"type":"Polygon","properties":{"id":"14000US10005051015"}},{"arcs":[[-662,-688,-668,694]],"type":"Polygon","properties":{"id":"14000US10005050808"}},{"arcs":[[-693,-674,695,-325,-318,696,-681]],"type":"Polygon","properties":{"id":"14000US10005051014"}},{"arcs":[[-682,-697,-317,-665,-438,697]],"type":"Polygon","properties":{"id":"14000US10005050709"}},{"arcs":[[-642,-638,-332]],"type":"Polygon","properties":{"id":"14000US10005051203"}},{"arcs":[[-327,698,-658,-654,-666,-320]],"type":"Polygon","properties":{"id":"14000US10005050706"}},{"arcs":[[-312,-405,-392,-555,-398,699]],"type":"Polygon","properties":{"id":"14000US10005050407"}},{"arcs":[[-593,-309,700,-417]],"type":"Polygon","properties":{"id":"14000US10005050104"}},{"arcs":[[701,702,703,-389,-431]],"type":"Polygon","properties":{"id":"14000US10005050503"}},{"arcs":[[-644,-336,-641,704,-649]],"type":"Polygon","properties":{"id":"14000US10005051205"}},{"arcs":[[-476,-581,-213]],"type":"Polygon","properties":{"id":"14000US10003013608"}},{"arcs":[[705,706,-694,-679,707]],"type":"Polygon","properties":{"id":"14000US10005051010"}},{"arcs":[[-704,708,-244,-390]],"type":"Polygon","properties":{"id":"14000US10005050505"}},{"arcs":[[-35,-632,-446,709,-615]],"type":"Polygon","properties":{"id":"14000US10003014906"}},{"arcs":[[710,-589,-158,-62,-17,-26]],"type":"Polygon","properties":{"id":"14000US10003014810"}},{"arcs":[[-31,-36,-614,-465]],"type":"Polygon","properties":{"id":"14000US10003013903"}},{"arcs":[[-295,711,-444]],"type":"Polygon","properties":{"id":"14000US10003014908"}},{"arcs":[[-15,-11,712,713]],"type":"Polygon","properties":{"id":"14000US10003016806"}},{"arcs":[[-713,-10,-461,714]],"type":"Polygon","properties":{"id":"14000US10003016805"}},{"arcs":[[-445,-712,-294,715,-70,-58]],"type":"Polygon","properties":{"id":"14000US10003016306"}},{"arcs":[[-716,-293,-180,-53,716,717,-562,-71]],"type":"Polygon","properties":{"id":"14000US10003016309"}},{"arcs":[[-5,718,-13]],"type":"Polygon","properties":{"id":"14000US10003016613"}},{"arcs":[[-584,-576,719,-8,720]],"type":"Polygon","properties":{"id":"14000US10003016807"}},{"arcs":[[-76,721,-25,722]],"type":"Polygon","properties":{"id":"14000US10003014814"}},{"arcs":[[-719,-4,-585,-721,-7,-14]],"type":"Polygon","properties":{"id":"14000US10003016614"}},{"arcs":[[-290,-618,-566,-299,723,-48,-147]],"type":"Polygon","properties":{"id":"14000US10003001902"}},{"arcs":[[-678,724,-706,725,-689]],"type":"Polygon","properties":{"id":"14000US10005051011"}},{"arcs":[[-250,-686,-636,-657,-652,-432,-422]],"type":"Polygon","properties":{"id":"14000US10005051502"}},{"arcs":[[-676,-660]],"type":"Polygon","properties":{"id":"14000US10005050903"}},{"arcs":[[726,-691,-442,-245,-709,-703]],"type":"Polygon","properties":{"id":"14000US10005050506"}},{"arcs":[[-663,-695,-667]],"type":"Polygon","properties":{"id":"14000US10005050807"}},{"arcs":[[-702,-430,-408,-670,-687,-727]],"type":"Polygon","properties":{"id":"14000US10005050805"}},{"arcs":[[-690,-726,-708,-683,-698,-437]],"type":"Polygon","properties":{"id":"14000US10005051013"}},{"arcs":[[-549,-671,-692,-707,-725,-677]],"type":"Polygon","properties":{"id":"14000US10005051008"}},{"arcs":[[-125,-111,-137,-102,-477,-286,-145,-292]],"type":"Polygon","properties":{"id":"14000US10003002800"}},{"arcs":[[-161,-278,-39,727,-568,-556]],"type":"Polygon","properties":{"id":"14000US10003010104"}},{"arcs":[[-720,-575,-623,-597,-462,-9]],"type":"Polygon","properties":{"id":"14000US10003016904"}},{"arcs":[[-176,-493,728,729,-215]],"type":"Polygon","properties":{"id":"14000US10003014000"}},{"arcs":[[-52,730,731,732,-717]],"type":"Polygon","properties":{"id":"14000US10003015100"}},{"arcs":[[-724,-298,733,-49]],"type":"Polygon","properties":{"id":"14000US10003015400"}},{"arcs":[[-50,-734,-297,734,735]],"type":"Polygon","properties":{"id":"14000US10003015600"}},{"arcs":[[-735,-630,736,737]],"type":"Polygon","properties":{"id":"14000US10003015900"}},{"arcs":[[-51,-736,-738,738,-731]],"type":"Polygon","properties":{"id":"14000US10003016000"}},{"arcs":[[-739,-737,-631,-564,739,-732]],"type":"Polygon","properties":{"id":"14000US10003016100"}},{"arcs":[[-733,-740,-563,-718]],"type":"Polygon","properties":{"id":"14000US10003016200"}},{"arcs":[[-490,-99,-136,-554]],"type":"Polygon","properties":{"id":"14000US10003000300"}},{"arcs":[[-616,-710,-61,-156,-588]],"type":"Polygon","properties":{"id":"14000US10003016301"}},{"arcs":[[740,-729,-492,-207,741]],"type":"Polygon","properties":{"id":"14000US10003014100"}},{"arcs":[[-192,-216,-730,-741,-218,742]],"type":"Polygon","properties":{"id":"14000US10003014200"}},{"arcs":[[-89,-266,-229]],"type":"Polygon","properties":{"id":"14000US10003014403"}},{"arcs":[[-193,-743,-217,-267,-87]],"type":"Polygon","properties":{"id":"14000US10003014501"}},{"arcs":[[-220,-210,-464,743,-275,-268]],"type":"Polygon","properties":{"id":"14000US10003014702"}},{"arcs":[[-742,-206,-219]],"type":"Polygon","properties":{"id":"14000US10003014703"}},{"arcs":[[-276,-744,-466,-617,-586,-711,-722,-75]],"type":"Polygon","properties":{"id":"14000US10003014808"}},{"arcs":[[-280,-282,-458,-167,744,745]],"type":"Polygon","properties":{"id":"14000US10003011400"}},{"arcs":[[-226,-254,-143,-151,-498]],"type":"Polygon","properties":{"id":"14000US10003012500"}},{"arcs":[[-133,-224,-452]],"type":"Polygon","properties":{"id":"14000US10003012300"}},{"arcs":[[-257,-746,746,-271]],"type":"Polygon","properties":{"id":"14000US10003011500"}},{"arcs":[[-747,-745,-552,-272]],"type":"Polygon","properties":{"id":"14000US10003011600"}},{"arcs":[[-326,-696,-673,-684,-454,-186,-483,-626,-699]],"type":"Polygon","properties":{"id":"14000US10005051103"}},{"arcs":[[-314,747,-410]],"type":"Polygon","properties":{"id":"14000US10005050405"}},{"arcs":[[-701,-308,-429,-418]],"type":"Polygon","properties":{"id":"14000US10005050105"}},{"arcs":[[-313,-700,-397,-411,-748]],"type":"Polygon","properties":{"id":"14000US10005050406"}}]}}}