{"type":"Topology","arcs":[[[5612,9396],[248,-175],[-49,-69],[-127,-155],[-67,-86],[88,-114],[39,-56],[65,-83],[-172,-204],[-109,-65]],[[5528,8389],[-13,37],[-79,208]],[[5436,8634],[17,69],[65,289],[16,77],[-70,13],[-114,24]],[[5350,9106],[-67,12]],[[5283,9118],[40,183],[52,222],[6,31],[138,-93],[93,-65]],[[4976,8727],[236,-47]],[[5212,8680],[68,-14]],[[5280,8666],[1,-14],[-15,-33],[-32,-38],[5,-13],[-7,-22],[-2,-46],[-10,-44],[3,-30],[-6,-18],[12,-22],[-8,-9],[-5,-33],[15,-33],[3,-24],[-3,-48],[-15,-44],[-23,-10],[5,-22]],[[5198,8163],[-46,-31],[-37,47]],[[5115,8179],[-32,128],[-78,315],[-29,105]],[[4101,8494],[103,183],[113,207]],[[4317,8884],[18,32],[140,254],[36,58],[44,88],[104,196],[40,73],[45,88]],[[4744,9673],[17,-11],[115,-50],[80,-36],[-15,55],[-79,267]],[[4862,9898],[113,-73],[214,-141],[51,-36],[75,99],[191,248]],[[5506,9995],[154,-106],[146,-102]],[[5806,9787],[74,-50]],[[5880,9737],[-136,-174],[-61,-80],[-71,-87]],[[5283,9118],[-212,40],[-75,-334],[-20,-97]],[[4976,8727],[-38,11],[-49,6],[-70,19],[-42,5],[-97,-175],[-171,-309],[-49,25]],[[4460,8309],[-138,73],[-221,112]],[[3909,9089],[31,-19],[229,-111],[148,-75]],[[4101,8494],[-414,213]],[[3687,8707],[44,70],[178,312]],[[5350,9106],[-28,-96],[-2,-21],[-44,-60],[-4,-23],[7,-26],[-18,-37],[11,-7],[9,-26],[-2,-32],[-22,-26],[-45,-72]],[[5137,6993],[-8,3]],[[5129,6996],[8,-3]],[[4446,8172],[40,-14],[181,-43],[-12,-68],[281,-69]],[[4936,7978],[-83,-93],[-174,-202],[-87,-99],[207,-43],[266,-59]],[[5065,7482],[17,-39],[19,-21],[5,-28],[-18,-50],[-3,-24],[5,-24],[-11,-25],[-16,-15],[7,-19],[-9,-29],[-15,-11],[-5,-41],[21,-26],[30,-85],[31,-46]],[[5123,6999],[-200,73],[-91,32],[-175,66]],[[4657,7170],[-19,0],[-227,-20],[-45,-2],[-204,-22]],[[4162,7126],[-233,102]],[[3929,7228],[192,336],[-5,126],[32,36],[50,66],[49,49],[44,55],[155,276]],[[5115,8179],[-179,-201]],[[4446,8172],[39,70],[-19,15],[10,20],[-16,32]],[[5436,8634],[-156,32]],[[5528,8389],[-198,-137],[-132,-89]],[[5528,8389],[350,-456]],[[5878,7933],[-19,-16],[-36,-19],[-32,-3],[-42,-17],[-47,27],[-25,6],[-47,23],[-43,-8],[-30,-23],[-15,-22],[-21,-8],[-38,9],[-61,-5],[-71,4],[-12,-8],[-15,-30],[-73,-35],[-39,-11],[-36,10],[-14,-9],[5,-25],[-5,-64],[-16,-24],[-25,-10],[-9,-16],[-26,-8],[-19,-19],[-21,-35],[-15,-42],[5,-12],[28,8],[3,-15],[-9,-22],[7,-32]],[[5375,10082],[167,208],[35,35],[153,203]],[[5730,10528],[24,-14],[149,-107],[238,-168],[-109,-135],[-52,-59],[11,-27],[-100,-118],[-85,-113]],[[5506,9995],[-131,87]],[[5653,11162],[346,13],[187,4],[211,0],[309,7],[147,-1],[263,4],[132,1],[-3,-8],[-39,-12],[-15,-35],[-28,-8],[-28,19],[-10,-3],[-23,21],[-15,-2],[-19,-17],[-37,-11],[-23,-14],[-21,-22],[-9,-37],[6,-33],[14,-3],[4,-18],[34,-32],[-1,-28],[25,3],[4,-29],[-11,-63],[12,-10],[-8,-22],[4,-37],[14,-28],[32,-38],[27,-50],[-42,-42],[-3,-14],[-20,-9],[11,-22],[-29,-26],[-12,-22],[-24,-13],[-3,-23],[-21,-19],[-40,-16],[-13,-18],[8,-30],[-30,-32],[14,-33],[2,-28],[-22,-14],[-15,-48],[-14,-1],[-30,-16],[-14,-28],[31,-40],[-16,-38],[6,-24],[-27,-43],[-51,-14],[-13,-22],[3,-14],[-17,-9],[-24,-33],[-17,-6],[-7,-32],[-18,-15],[-45,-11],[-4,-25],[15,-8],[7,-20],[-4,-70],[34,-1],[-6,-30],[22,-15],[32,-56],[19,-22],[-8,-18],[23,-12],[-12,-26],[14,-38],[-10,-25],[56,-32],[-23,-15],[11,-28],[-10,-12],[11,-21],[26,-3],[11,-10],[-10,-17],[30,-2],[23,10],[3,-25],[15,-26],[-19,-27],[34,-29],[-10,-60],[9,-41],[-7,-30],[-21,-3],[1,-13],[26,-13],[4,-22],[36,-10],[30,-20],[-8,-18],[-31,-27],[-23,-13],[16,-19],[-7,-9],[-26,5]],[[6911,9022],[-90,67],[-159,111],[-29,23],[-98,66],[-124,89],[-158,109],[-373,250]],[[5730,10528],[1,2],[-155,112],[28,196],[49,324]],[[5123,6999],[6,-3]],[[5137,6993],[-12,-29],[3,-63],[31,-23],[-13,-36],[-29,-2],[-30,-25],[-8,-42],[10,-47],[18,-23],[17,3],[3,20],[15,11],[19,-9],[9,-15],[-4,-29],[-13,-18],[-34,-3],[1,-12],[44,-25],[1,-13],[-25,-8],[-17,13],[-30,-11],[-2,-14],[14,-19],[-33,-59],[-30,0],[-13,-18],[22,-12],[-11,-15],[-37,-20],[-12,-18],[17,-44],[-16,-13]],[[4992,6375],[-41,16],[-212,78],[-160,62]],[[4579,6531],[-60,22],[53,226],[85,391]],[[3408,6064],[-151,-284],[-27,-47],[-58,-123]],[[3172,5610],[-96,38],[-268,97],[-107,42]],[[2701,5787],[79,150],[98,176],[63,120],[168,-63],[44,-14],[255,-92]],[[4396,6129],[32,65]],[[4428,6194],[153,-58],[48,-17],[290,-98]],[[4919,6021],[-32,-42],[-34,-6],[-9,-18],[9,-49],[-5,-52],[-14,-25],[-38,-23],[-13,-21],[-52,-33],[-31,-47],[-3,-23],[-18,-9],[-23,0],[-10,-16],[2,-27],[14,-28]],[[4662,5602],[-377,138]],[[4285,5740],[-48,16],[8,16],[151,357]],[[2971,6660],[58,129],[99,225]],[[3128,7014],[83,-27],[16,40]],[[3227,7027],[138,-53],[159,-59],[84,-32]],[[3608,6883],[-65,-153],[-51,-124],[-55,-130]],[[3437,6476],[-132,60]],[[3305,6536],[-334,124]],[[2376,6045],[137,245],[43,85]],[[2556,6375],[68,-23],[40,-18],[110,-41],[178,374],[19,-7]],[[3305,6536],[103,-472]],[[2701,5787],[-24,9],[-11,-18],[-229,83],[16,31],[-23,9],[18,36],[-70,23],[14,33],[-20,8],[19,37],[-15,7]],[[3437,6476],[86,-39],[343,-160],[15,-8]],[[3881,6269],[151,-40],[59,-18],[207,-52],[14,-6],[84,-24]],[[4285,5740],[-194,-334],[-55,-104]],[[4036,5302],[-25,6],[-216,68],[-112,30],[-89,32]],[[3594,5438],[-418,171]],[[3176,5609],[-4,1]],[[4662,5602],[4,-12],[-61,-23],[-13,-46],[18,-51],[2,-52],[-23,-55],[7,-32],[13,-30],[-9,-31],[-21,-20],[-17,-43],[-34,-31],[5,-26],[-4,-41]],[[4529,5109],[-14,7],[-307,119],[-172,67]],[[4992,6375],[-11,-33],[-11,-9],[-20,15],[-13,-3],[-7,-23],[-34,-28],[6,-47],[-21,-15],[-28,-38],[18,-28],[-3,-55],[-6,-29],[16,-12],[10,11],[56,-12],[-33,-28],[8,-20]],[[4428,6194],[62,141],[42,86],[47,110]],[[3260,7921],[187,342],[25,37]],[[3472,8300],[8,13],[75,141],[30,67],[71,127],[31,59]],[[4101,8494],[-217,-388],[-68,-119],[-33,-63],[-117,-205]],[[3666,7719],[-213,109],[-2,0],[-191,93]],[[2325,8440],[144,-44],[98,-48],[311,-169]],[[2878,8179],[-61,-110],[29,-15],[-19,-32],[30,-13],[-41,-79],[-25,11],[-61,-115],[-36,17],[-44,-84]],[[2650,7759],[-27,9],[-9,17],[-25,21],[-27,4],[-11,22],[-44,8],[-26,21],[-3,47],[-34,3],[-14,38],[-33,3],[-52,19],[-13,20],[-23,-8],[-22,10],[-23,-14],[-16,9]],[[2248,7988],[10,22],[69,131],[-127,63],[125,236]],[[2052,7843],[87,175],[86,-31],[23,1]],[[2650,7759],[26,10],[33,-5],[18,-15],[-4,-27],[4,-30],[13,-3],[26,-24],[56,-20],[1,-12],[30,-23],[5,-32],[28,2],[49,-19]],[[2935,7561],[-24,-66],[-42,-103],[-98,-255]],[[2771,7137],[-28,17],[-171,118]],[[2572,7272],[-157,109],[-33,21]],[[2382,7402],[-117,52],[-274,128]],[[1991,7582],[4,9],[-41,12],[80,204],[18,36]],[[2382,7402],[-50,-72],[-31,-48],[-82,-120],[-32,-41],[-85,-120],[-11,-13]],[[2091,6988],[-84,29],[-6,22],[-151,-8]],[[1850,7031],[-65,-12]],[[1785,7019],[18,57],[92,241],[96,265]],[[2935,7561],[26,-14],[26,-31],[45,-21]],[[3032,7495],[43,-10]],[[3075,7485],[4,-26],[44,-13],[-9,-23],[136,-44],[14,26]],[[3264,7405],[25,11],[40,-10]],[[3329,7406],[31,-9],[13,13]],[[3373,7410],[-47,-122]],[[3326,7288],[-3,-10]],[[3323,7278],[-18,-45]],[[3305,7233],[-78,-206]],[[3128,7014],[-221,76]],[[2907,7090],[-136,47]],[[3305,7233],[22,-8],[-6,-21],[45,-20],[-4,-13],[35,-12],[-4,-14],[40,-14],[22,-15],[14,14],[21,-5],[12,10]],[[3502,7135],[16,-22],[39,-13],[13,-22],[41,-31],[17,-28],[19,-15],[1,-14],[16,-19],[12,-1]],[[3676,6970],[-22,-110],[-46,23]],[[3032,7495],[142,268]],[[3174,7763],[8,-4]],[[3182,7759],[-11,-8],[-15,-36],[0,-43],[10,-28],[18,-24],[-2,-47],[13,-35],[-12,-22]],[[3183,7516],[-22,-24]],[[3161,7492],[-31,19],[-22,-12],[-6,-15],[-27,1]],[[3929,7228],[-186,82]],[[3743,7310],[-25,12],[-200,52]],[[3518,7374],[147,257],[37,66],[-36,22]],[[3182,7759],[27,-13],[-27,-50],[37,-18],[-17,-31],[19,-10],[-17,-33],[32,-15],[6,-17],[-7,-24],[78,-39],[-16,-29],[57,-31],[-25,-43]],[[3264,7405],[-6,19],[5,24],[-20,9],[-40,-5],[-18,10]],[[3185,7462],[42,42],[-44,12]],[[3161,7492],[24,-30]],[[3518,7374],[-144,39],[-1,-3]],[[3174,7763],[86,158]],[[3743,7310],[-18,-87],[-49,-253]],[[3502,7135],[2,1]],[[3504,7136],[-9,24],[14,46],[-18,4],[-6,18],[-25,8],[14,41],[-36,11],[-4,-23],[-38,11],[-3,-9],[-67,21]],[[2564,9514],[122,232],[161,-75],[19,-13],[152,-69],[72,-35]],[[3090,9554],[-196,-369]],[[2894,9185],[-12,-22],[-33,15],[-75,-127],[-98,20],[-73,35],[-6,-12],[-69,32]],[[2528,9126],[86,159],[-137,64],[87,165]],[[2455,8987],[71,131],[2,8]],[[2894,9185],[20,-3],[29,-14],[0,-13],[21,-16],[11,-29],[12,-10],[51,13],[158,-77],[33,54],[87,-47],[36,-11]],[[3352,9032],[-54,-98],[-103,-171],[-49,-85],[-56,-103]],[[3090,8575],[-118,66],[-24,10],[-262,141],[1,6],[52,98],[-146,38],[-72,30],[-6,-7],[-60,30]],[[3090,9554],[13,26],[427,-208]],[[3530,9372],[-21,-39]],[[3509,9333],[-123,-240],[-34,-61]],[[3504,7136],[-9,17],[-54,43],[-40,44],[-13,20],[-22,12],[-43,6]],[[2091,6988],[53,-22],[262,-99]],[[2406,6867],[46,-17]],[[2452,6850],[-10,-22],[-158,-305],[-20,-36]],[[2264,6487],[-94,37],[-182,66],[-73,-8],[-19,111],[-4,43],[-11,51],[-8,65],[-13,84],[-10,95]],[[2395,9791],[15,35],[6,26],[-7,20],[29,-5],[26,106],[32,-6],[13,65],[34,-5],[-4,69],[65,69],[187,-8]],[[2791,10157],[237,-10],[-11,-23],[69,-43],[13,16],[60,-42]],[[3159,10055],[185,-95],[16,-6],[86,-43],[44,-19],[79,-40],[143,-68],[38,-17],[-136,-244],[-84,-151]],[[2564,9514],[-204,103]],[[2360,9617],[6,35],[29,139]],[[2455,8987],[-54,-109],[-94,27]],[[2307,8905],[-63,20],[-115,142],[-76,103],[-113,149],[-52,9]],[[1888,9328],[1,17],[-10,18],[-2,23],[14,24],[28,-21],[47,3],[9,20],[35,33],[73,132],[39,73],[34,60],[204,-93]],[[3509,9333],[347,-170],[74,-35]],[[3930,9128],[-21,-39]],[[3472,8300],[-86,64],[-111,78],[-185,133]],[[3090,8575],[-212,-396]],[[2325,8440],[-123,37],[128,230],[-99,50],[76,148]],[[4529,5109],[-22,-16],[-21,-7],[-68,-102],[-42,-14],[-23,-17],[-46,-26],[-20,1],[-16,-31],[-20,-16],[-52,-76],[-15,-11],[-22,-69]],[[4162,4725],[-274,104],[-157,61]],[[3731,4890],[292,388],[13,24]],[[2572,7272],[-39,-58],[28,-20],[-51,-81],[20,-18],[-80,-113],[26,-19],[-70,-96]],[[3594,5438],[-170,-267],[-82,-133],[-146,56],[-57,23],[-148,56],[-77,30]],[[2914,5203],[83,132],[136,210],[43,64]],[[4067,4544],[31,23],[14,39],[3,41],[9,28],[17,-12],[17,18]],[[4158,4681],[14,-21],[-4,-55],[-37,-51],[-5,-43],[2,-30],[-6,-9],[-47,-24],[5,-23],[-18,-30],[-11,-43],[8,-29],[17,-20]],[[4076,4303],[-94,22]],[[3982,4325],[-5,29],[14,56],[7,16],[5,41],[9,23],[26,-22],[5,35],[24,41]],[[3163,4562],[33,-11],[10,21],[73,-27],[182,-66],[46,-17],[19,2]],[[3526,4464],[21,-3],[12,-32],[11,-5]],[[3570,4424],[-22,-22],[-26,-50],[-183,-406]],[[3339,3946],[0,-1],[-386,118],[-15,4]],[[2938,4067],[225,495]],[[2855,3556],[1,17]],[[2856,3573],[478,-66]],[[3334,3507],[-31,-306],[-21,-122],[-3,-53]],[[3279,3026],[-426,27]],[[2853,3053],[1,119],[0,343],[1,41]],[[2622,3627],[233,-71]],[[2853,3053],[-67,4],[-5,-144]],[[2781,2913],[-276,149],[-13,5]],[[2492,3067],[-10,86],[88,224],[58,211],[-18,5],[12,34]],[[984,11192],[291,7],[94,3],[265,-7]],[[1634,11195],[44,-243],[170,-82],[129,-66],[-367,-73],[-205,-45]],[[1405,10686],[-311,147],[-21,16],[-42,19],[-21,24],[-10,23],[0,43],[-7,29],[40,35],[19,41],[6,41],[-17,32],[-39,23],[-18,33]],[[1634,11195],[97,-2],[213,7],[227,5],[53,-1]],[[2224,11204],[12,-86],[11,-107],[14,-276],[28,-7],[-19,-57],[-45,-149],[-26,-101]],[[2199,10421],[-160,38],[-273,53],[-168,36]],[[1598,10548],[-123,23],[-70,115]],[[852,8603],[1,-21]],[[853,8582],[-20,-1]],[[833,8581],[-29,-1],[-12,20]],[[792,8600],[60,3]],[[1589,3747],[75,-3],[1,18],[83,-5],[1,-49],[122,-3]],[[1871,3705],[3,-31],[188,12],[96,8],[136,8],[70,2],[73,-21]],[[2437,3683],[50,-16],[135,-40]],[[2492,3067],[-88,50],[-156,90],[15,-17],[0,-15],[-112,3]],[[2151,3178],[-1,78],[-80,5],[-228,10],[-197,11],[-31,-1],[-85,9]],[[1529,3290],[27,225],[26,14],[7,218]],[[1165,3308],[87,-4],[225,-8],[52,-6]],[[2151,3178],[-8,-132],[-39,-12],[-13,-226]],[[2091,2808],[-267,11],[-124,6],[-4,-62]],[[1696,2763],[-55,0],[13,66],[-222,10],[-166,0],[-108,8]],[[1158,2847],[1,244],[6,217]],[[687,3336],[202,-9],[75,-4],[201,-10]],[[1165,3313],[0,-5]],[[1158,2847],[-163,12],[-280,14],[-42,3]],[[673,2876],[6,211],[8,249]],[[1698,4405],[59,3],[10,-32],[34,3],[5,-19],[-4,-47]],[[1802,4313],[-33,-3],[1,-12],[-41,-11],[-17,15]],[[1712,4302],[-7,56]],[[1705,4358],[-7,47]],[[1712,4302],[-25,-3],[-7,12]],[[1680,4311],[-7,18],[-17,-2],[-3,23],[14,4],[-4,25],[15,5],[4,-25],[23,-1]],[[657,2397],[41,4],[141,-9],[300,-10]],[[1139,2382],[-12,-106],[-5,-131],[-6,-95],[-3,-124],[182,-6],[157,-6],[129,-7]],[[1581,1907],[38,2]],[[1619,1909],[-5,-38],[-2,-80],[-7,-188],[2,-151],[-10,-11]],[[1597,1441],[-504,21]],[[1093,1462],[-93,4],[-182,11],[-126,4],[-75,6]],[[617,1487],[16,319],[6,142],[18,449]],[[1058,765],[11,208],[3,25]],[[1072,998],[6,139],[13,213],[-2,49],[4,63]],[[1597,1441],[-8,-213],[1,-38],[-5,-46],[-6,-150],[319,-16]],[[1898,978],[-10,-253],[-7,-221]],[[1881,504],[-8,-180],[-6,-211],[-2,-53]],[[1865,60],[-278,7],[-502,14]],[[1085,81],[19,450],[-55,6]],[[1049,537],[0,51],[9,177]],[[1362,2377],[241,-9]],[[1603,2368],[-5,-116]],[[1598,2252],[-27,-33],[-41,-31],[-38,2],[-35,-11],[-27,5],[-32,15],[-2,43],[17,63],[-18,14],[-10,27],[-23,31]],[[1696,2763],[-3,-201],[-1,-34],[-4,-166],[-85,6]],[[1362,2377],[-223,5]],[[657,2397],[1,68],[9,144],[6,267]],[[1598,2252],[-17,-345]],[[5094,11154],[388,10],[117,-3],[54,1]],[[5375,10082],[-102,73],[-118,80],[-67,48],[-244,177]],[[4844,10460],[46,58],[145,186],[-111,79],[117,3],[19,138],[34,230]],[[4376,11146],[271,6],[114,0]],[[4761,11152],[27,-38],[4,-20],[17,-21],[17,-38],[-4,-48],[2,-39],[-38,-96],[-41,-64],[-11,-22],[-1,-58],[-10,-30],[5,-17],[7,-90],[-12,-24]],[[4723,10547],[-114,82],[-17,9]],[[4592,10638],[14,19],[-46,34],[-7,59],[11,15],[6,28],[48,-2],[22,19],[-8,9],[8,23],[15,1],[5,28],[-39,-11],[0,24],[-42,-1],[-9,14],[4,46]],[[4574,10943],[-31,2],[-70,-34],[-22,-14]],[[4451,10897],[-20,156],[-55,93]],[[3159,10055],[102,154],[65,100]],[[3326,10309],[143,4],[108,2],[103,-1],[11,2],[108,1],[-3,32],[43,-2],[222,4],[10,15],[77,146]],[[4148,10512],[42,-22],[175,-87],[202,-96],[-20,-38]],[[4547,10269],[-215,-398]],[[4332,9871],[-19,-31],[-79,-151],[-53,-91],[-63,-125],[-35,-60],[-66,-125],[-72,-129],[-15,-31]],[[4592,10638],[-95,69]],[[4497,10707],[-7,36],[19,23],[-8,12],[24,18],[1,22],[9,29],[39,96]],[[4497,10707],[-108,77]],[[4389,10784],[15,18],[-17,12],[20,35],[-14,20],[2,17],[28,-3],[28,14]],[[4761,11152],[116,-1],[217,3]],[[4844,10460],[-121,87]],[[4862,9898],[41,57],[77,100],[-109,55],[-324,159]],[[4148,10512],[68,128],[105,192],[68,-48]],[[911,8542],[35,41]],[[946,8583],[28,-33],[12,-82],[40,-32],[3,-14]],[[1029,8422],[-63,6],[-20,6],[-29,-2]],[[917,8432],[-6,22]],[[911,8454],[-14,96],[14,-8]],[[846,8497],[10,31],[-2,32]],[[854,8560],[8,22]],[[862,8582],[39,8],[10,-48]],[[911,8454],[-31,1]],[[880,8455],[-11,38],[-23,4]],[[6911,9022],[-5,-24],[-12,-11],[-25,-3],[-27,11],[-57,1],[-21,-26],[-4,-27],[45,-38],[34,-22],[15,-17],[-4,-27],[-33,-47],[-43,-8],[9,-21],[18,-13],[14,-33],[18,-15],[-6,-18],[-23,-7],[-32,0],[-1,-28],[-19,-42],[-35,-8],[-28,9],[-8,-7],[-19,-46],[-21,-6],[-17,20],[31,11],[-7,20],[-66,-51],[3,-24],[22,-13],[-5,-20],[-12,-10],[-29,3],[-17,-36],[-8,-53],[-25,-29],[-43,-6],[-7,-6],[12,-26],[-26,-10],[-6,-18],[-33,-18],[-35,-31],[-41,-18],[-42,7],[-35,-5],[-12,-12],[-11,-27],[-21,-4],[-28,24],[-26,5],[-20,-7],[-39,-28],[-44,2],[-13,-4],[-32,-29],[-5,-14],[14,-23],[-12,-13],[-16,2],[-26,-9],[-4,-34],[11,-12],[-13,-30],[13,-39],[-1,-13],[-21,-13],[-16,-1],[-39,-14],[-16,-10]],[[3339,3946],[115,-14],[174,-25]],[[3628,3907],[-6,-63],[3,-22],[-7,-257],[-7,-99]],[[3611,3466],[-166,17],[-111,24]],[[2856,3573],[6,74],[32,289],[19,140],[25,-9]],[[3279,3026],[-4,-51]],[[3275,2975],[0,-91],[-6,-155],[-4,-238]],[[3265,2491],[-23,-3]],[[3242,2488],[-174,-22],[-270,-33],[-34,-8]],[[2764,2425],[4,120],[13,368]],[[2914,5203],[-13,6],[-240,85],[-209,77],[-45,-99]],[[2407,5272],[-20,21],[14,11],[-1,16],[-26,11],[-8,17],[9,15],[-17,17],[-2,15],[-127,47],[-24,-48],[-131,51],[-4,91],[-310,-155]],[[1760,5381],[-19,65],[-33,132],[-26,-14],[0,91],[99,-37],[94,46],[91,41],[96,49],[10,-174],[-1,-15],[33,-12],[180,373],[23,-9],[24,47],[45,81]],[[2764,2425],[-89,28],[-75,25]],[[2600,2478],[-98,31],[-161,55],[-70,25]],[[2271,2589],[-1,211],[-179,8]],[[2707,4678],[24,55],[257,-97],[139,-47],[-5,-11],[41,-16]],[[2437,3683],[16,60],[-77,16],[8,24],[59,448],[55,-20],[84,184],[125,283]],[[768,9767],[279,-138],[179,-87]],[[1226,9542],[-10,-16],[-3,-47],[-10,-43],[-17,-19]],[[1186,9417],[-13,-13],[-22,-41],[-13,2],[-9,-21],[-39,5],[-5,27],[-10,9],[-34,-21],[-13,9],[-43,-42],[-12,-16],[-17,-51],[-1,-24],[-42,-2],[-28,-13],[-5,-21]],[[880,9204],[-16,-21],[-55,8],[-24,16],[-28,26],[-24,-7],[-12,-11],[-47,-10]],[[674,9205],[-9,103],[15,59],[62,28],[10,15],[-2,106],[3,20],[18,62],[-2,87],[-3,15],[2,67]],[[1254,8681],[55,-16],[-10,-19],[-3,-33],[-15,-30]],[[1281,8583],[-17,-9],[-12,-29],[-13,-6],[-10,27],[-34,29],[-11,-9]],[[1184,8586],[16,44],[40,33],[14,18]],[[1485,8316],[48,36]],[[1533,8352],[374,-24]],[[1907,8328],[-26,-125],[-38,-137],[-58,-146]],[[1785,7920],[-297,84]],[[1488,8004],[-9,61],[-169,-23]],[[1310,8042],[108,266],[35,-13],[32,21]],[[408,7910],[222,34],[102,16]],[[732,7960],[66,10],[89,16],[115,16]],[[1002,8002],[34,-193],[40,-241]],[[1076,7568],[-62,-9],[-128,-24]],[[886,7535],[-173,-22],[-98,-10],[-157,19]],[[458,7522],[9,50],[-5,28],[-17,38],[-20,68],[-7,41],[0,117],[-10,46]],[[1491,8520],[7,15],[75,136],[45,78],[44,80],[33,57],[19,37]],[[1714,8923],[162,-208],[144,-184],[-43,-80],[-17,-25],[-53,-98]],[[1533,8352],[-46,24],[16,19],[27,-3],[7,10],[2,38],[-20,13],[12,27],[-14,7],[-6,27],[-20,6]],[[1002,8002],[26,-1],[91,12],[-31,183]],[[1088,8196],[93,-33],[100,-125],[29,4]],[[1488,8004],[46,-288]],[[1534,7716],[14,-90],[-196,-26],[-3,19],[-125,-25],[-148,-26]],[[1785,7920],[65,-15],[25,-12],[177,-50]],[[1785,7019],[-18,120],[-31,223],[-39,312],[-163,42]],[[1469,9416],[419,-88]],[[1714,8923],[-306,64]],[[1408,8987],[-159,35]],[[1249,9022],[165,295],[55,99]],[[1072,998],[-235,9]],[[837,1007],[-238,8]],[[599,1015],[3,72],[15,400]],[[586,541],[107,-2],[3,11],[111,-5]],[[807,545],[114,-5],[128,-3]],[[1085,81],[-492,12],[-53,274],[17,30],[10,28],[-13,31],[6,68],[25,-3],[1,20]],[[880,9204],[75,-37],[128,-62],[19,-12]],[[1102,9093],[-42,-24],[-33,-25],[12,-29],[-9,-14],[-38,25],[-19,-6],[-18,8],[-7,-46],[-18,-39]],[[930,8943],[-43,5],[-19,19],[-6,16],[-22,0]],[[840,8983],[-2,18],[-24,15],[-37,34],[-42,25],[-71,25],[-39,22]],[[625,9122],[35,46],[14,37]],[[1035,5459],[464,21]],[[1499,5480],[11,-23],[37,-182]],[[1547,5275],[52,-235]],[[1599,5040],[-197,-8],[-9,-20],[-24,5],[-33,30],[-23,-20],[-187,-10]],[[1126,5017],[-65,316],[-24,112]],[[1037,5445],[-2,14]],[[1831,4594],[300,144],[15,52],[30,86],[35,-19],[59,-13]],[[2270,4844],[259,-98],[178,-68]],[[1871,3705],[-12,291],[-8,153]],[[1851,4149],[-7,150],[-3,99],[-10,196]],[[1680,4311],[-28,-6],[-12,-23],[-33,7],[-8,-6]],[[1599,4283],[-22,11],[11,21],[-5,103],[82,1],[25,6],[8,-20]],[[706,3977],[9,234]],[[715,4211],[325,-10],[145,-3]],[[1185,4198],[-17,-251],[-56,1],[7,-41],[-129,-144],[-37,2],[-4,-149],[222,-147],[-6,-156]],[[687,3336],[9,303],[6,229],[-3,28],[16,23],[7,24],[-16,34]],[[4162,7126],[-45,-208],[-4,-21],[-48,-215],[-58,16],[-126,-429]],[[3570,4424],[67,-15],[345,-84]],[[4076,4303],[0,-26],[-18,-9],[-60,-55],[-26,-7],[-63,-36],[-24,-29],[2,-30],[-11,-18],[8,-65],[1,-43],[-14,-36],[-23,-31],[-14,-1],[-8,-37]],[[3826,3880],[-7,0],[-191,27]],[[3275,2975],[23,10],[22,-3],[19,8],[31,-7],[35,-50],[42,-70],[27,-37],[24,-10],[13,-14],[9,-26],[24,-15],[11,-48],[41,-47],[38,-8],[22,-21],[19,-5],[15,9],[17,-7],[5,-21]],[[3712,2613],[-35,-24],[-9,-51],[5,-28],[13,-32]],[[3686,2478],[-205,7],[-216,6]],[[3279,3026],[282,-20],[91,-5],[132,-9],[6,-3]],[[3790,2989],[-16,-32],[33,-57],[23,-28],[-26,-63],[-25,-98],[-25,-52],[-21,-35],[-21,-11]],[[3731,4890],[-15,-21]],[[3716,4869],[-190,-405]],[[2270,4844],[59,118],[-56,26],[78,160],[56,124]],[[3611,3466],[17,-3],[164,-22],[36,-7]],[[3828,3434],[-15,-66],[0,-32],[-13,-83],[-25,-26],[-18,-30],[-2,-26],[2,-44],[10,-18],[35,-22],[37,1],[12,-9],[-40,-49],[-21,-41]],[[668,10059],[20,48],[32,59],[21,29],[43,38],[57,27],[8,28],[16,30],[-18,48],[1,35],[14,45],[0,24],[25,42],[2,36],[7,22]],[[896,10570],[119,-58],[132,-63],[287,-134],[139,-67],[47,-25]],[[1620,10223],[79,-40],[-128,-53],[-274,-117]],[[1297,10013],[-146,69],[-90,45],[-58,-73],[-19,-33],[-45,-29],[-83,-92],[-24,-29],[-64,-104]],[[768,9767],[-25,67],[-51,66],[-25,46],[-9,45],[1,37],[9,31]],[[1262,10119],[26,32],[44,-1],[11,26],[14,60],[-25,9],[1,17],[-22,-5]],[[1311,10257],[-8,-6],[-24,13],[-16,-26],[-13,1],[-14,-53],[25,-13],[13,-24],[-12,-30]],[[903,11189],[81,3]],[[1598,10548],[-23,-116],[1,-32],[21,-41],[52,-92],[-29,-44]],[[896,10570],[8,35],[2,52],[-13,28],[-43,4],[-72,41],[-26,60],[-2,20],[-19,27],[-8,40],[7,19],[35,28],[75,135],[40,74],[23,56]],[[2224,11204],[310,-4],[164,0]],[[2698,11200],[31,-125],[21,-101],[63,-232],[0,-26],[10,-49],[7,-102],[22,-224],[-62,-4]],[[2790,10337],[-9,-5],[-31,4],[-187,-11],[-142,10],[-222,-3],[18,84],[-18,5]],[[3248,11163],[17,-107],[47,-294],[-18,-1],[9,-85],[1,-74],[5,-93],[17,-200]],[[2791,10157],[-1,180]],[[2698,11200],[253,-5],[112,-7],[71,-8],[114,-17]],[[1311,10257],[-12,-76],[-37,-62]],[[1802,4313],[4,-70],[-162,-35],[-40,42],[-37,21],[8,13],[24,-1]],[[1481,4129],[83,3]],[[1564,4132],[77,4],[103,7],[107,6]],[[1589,3747],[-167,8],[6,28],[32,205],[21,141]],[[1185,4198],[8,98],[5,136],[59,-1]],[[1257,4431],[68,-306],[156,4]],[[715,4211],[3,72],[7,112],[5,161],[2,45]],[[732,4601],[3,63],[153,-6],[259,-9],[63,-4]],[[1210,4645],[15,-65]],[[1225,4580],[32,-149]],[[1297,10013],[10,-38],[24,-74],[75,-277],[8,-22],[55,-186]],[[1469,9416],[-174,92],[-69,34]],[[3826,3880],[-9,-35],[9,-21],[42,-38],[18,-41],[-5,-60],[-6,-24],[-35,-40],[8,-61],[-3,-30],[-17,-54],[0,-42]],[[930,8943],[-15,-24],[-29,-31],[-10,-22],[15,-40],[8,-35]],[[899,8791],[-36,-34],[17,-44],[21,-9]],[[901,8704],[-35,-63]],[[866,8641],[0,33],[-8,14],[-30,18],[-19,20],[-25,-19],[-23,35],[-31,20],[9,21],[-14,32]],[[725,8815],[-6,19],[15,20],[-3,43],[23,38],[-5,15],[21,33],[70,0]],[[899,8791],[21,7],[64,-15],[15,-15],[29,-11],[4,-15],[22,-19],[28,1]],[[1082,8724],[-55,-97]],[[1027,8627],[-15,0],[-22,-16],[-9,12]],[[981,8623],[-1,21]],[[980,8644],[18,27],[-23,0],[-36,18]],[[939,8689],[-38,15]],[[1097,8362],[15,33]],[[1112,8395],[22,-8],[154,-19],[77,-15],[77,-3],[29,-14],[14,-20]],[[1088,8196],[-47,17]],[[1041,8213],[12,27],[24,6],[-7,39],[7,27],[-5,14],[25,36]],[[281,8988],[17,2],[159,43],[72,27],[67,38],[29,24]],[[725,8815],[-27,-6],[-10,-21],[-18,10]],[[670,8798],[-30,-3],[-12,20],[15,32],[-2,19],[-32,3],[-4,-42]],[[605,8827],[-10,-4]],[[595,8823],[-166,-47]],[[429,8776],[-8,31],[-22,11],[-12,40],[-23,29],[0,25],[-15,19],[-51,29],[-17,28]],[[1102,9093],[35,-16]],[[1137,9077],[112,-55]],[[1249,9022],[-104,-189],[-63,-109]],[[868,8633],[55,5]],[[923,8638],[57,6]],[[981,8623],[-19,-21]],[[962,8602],[-20,3],[-1,15],[-31,-5],[-42,18]],[[923,8638],[16,51]],[[853,8582],[9,0]],[[854,8560],[-20,-1]],[[834,8559],[-1,22]],[[595,8823],[8,-26],[9,-2],[9,-40],[-29,-47],[16,-27],[-6,-18],[87,-139],[49,-74]],[[738,8450],[20,-33],[81,-5],[3,45]],[[842,8457],[38,-2]],[[917,8432],[2,-19],[-16,-58],[-17,-86]],[[886,8269],[-57,20]],[[829,8289],[-22,8],[4,19],[-10,23],[3,16],[-10,39],[-36,4],[0,18],[-67,5],[-61,0],[-19,-10],[-13,-30],[-15,-7],[-53,0]],[[530,8374],[-1,22],[-23,63],[5,44],[-4,59],[-15,39],[-10,77],[-23,34],[-29,31],[-1,33]],[[829,8289],[-34,-142],[-15,-27],[-30,-107],[-18,-53]],[[408,7910],[-29,66],[-1,37],[5,39],[12,18],[35,33],[21,28],[17,69],[53,126],[9,48]],[[1186,9417],[-5,-24],[11,-30],[-1,-22],[-39,-145],[-24,-66],[9,-53]],[[1110,8554],[42,8],[32,24]],[[1281,8583],[14,-12],[19,16],[22,3],[21,-17]],[[1357,8573],[27,-4],[16,-24],[17,14],[22,-25],[23,3],[29,-17]],[[1112,8395],[-14,25],[0,26],[15,22],[-11,62],[8,24]],[[886,8269],[155,-56]],[[3248,11163],[84,-1],[191,5],[105,-2],[229,-11],[71,0],[128,-6],[81,-6],[68,3],[85,-1],[86,2]],[[4744,9673],[-32,21],[-380,177]],[[825,770],[41,-18],[-7,-29],[25,4],[34,-7],[5,23],[41,5],[39,16],[22,1]],[[1025,765],[33,0]],[[807,545],[13,19],[1,27],[37,25],[-7,13],[1,30],[-30,74],[3,37]],[[837,1007],[6,-23],[-7,-26],[-7,-106],[37,-31]],[[866,821],[-15,-19],[-29,-22],[3,-10]],[[586,541],[10,292],[3,182]],[[1025,765],[-24,7],[-40,-9],[-20,5],[-8,38],[-13,9],[-54,6]],[[2271,2589],[-104,34],[-13,-284],[-39,2],[-10,-192]],[[2105,2149],[-14,-255]],[[2091,1894],[-108,3],[-185,14],[-100,4],[-78,4],[-1,-10]],[[962,8602],[-16,-19]],[[852,8603],[0,18],[16,12]],[[825,8535],[21,-38]],[[842,8457],[-20,2]],[[822,8459],[-4,76],[7,0]],[[825,8535],[9,24]],[[738,8450],[29,28]],[[767,8478],[19,-17],[36,-2]],[[112,6329],[506,66],[50,7],[-2,-113],[243,33]],[[909,6322],[6,-42],[-6,-90],[15,-16],[4,-35],[43,-68],[14,-77],[22,3]],[[1007,5997],[-10,-23],[-7,-60],[-18,-13],[-7,-20],[8,-11],[-9,-72],[-11,-9],[-19,-58],[-18,-23],[8,-15],[22,-6],[24,-35],[-12,-64],[17,-23],[18,-8],[23,13],[19,-111]],[[1037,5445],[-233,-11],[47,-345],[-143,-18],[-432,-49]],[[276,5022],[42,81],[1,13],[-16,27],[-8,37],[-17,22],[-53,45],[-11,49],[-9,15],[-33,30],[-6,22],[13,41],[15,20],[27,17],[19,32],[-28,32],[-7,25],[29,90],[-35,78],[-46,58],[-22,82],[-18,40],[-6,31],[12,67],[-6,98],[-18,46],[-2,23],[13,67],[1,23],[10,53],[-5,43]],[[1059,7095],[186,22],[56,12],[47,3],[80,11],[-2,14],[98,13],[23,-162],[-1,-7]],[[1546,7001],[-74,-12],[55,-334],[17,-123],[-50,-6],[-4,-76],[-114,-14]],[[1376,6436],[-12,73],[-108,-13]],[[1256,6496],[-26,203],[-26,164],[-7,72],[-120,25],[-18,135]],[[1007,5997],[173,23]],[[1180,6020],[215,28]],[[1395,6048],[46,7],[-3,-71],[3,-49],[-11,-36],[1,-50],[39,3],[-8,-143],[32,-181],[5,-48]],[[136,6977],[479,62]],[[615,7039],[8,-61],[106,11],[-3,44]],[[726,7033],[245,-52],[-13,100]],[[958,7081],[101,14]],[[1256,6496],[-249,-32]],[[1007,6464],[-63,-9],[-2,-49],[17,-63],[-1,-16],[-49,-5]],[[112,6329],[-11,31],[-13,13],[-28,13],[-20,23],[-32,26],[-8,16],[20,84],[12,86],[51,105],[5,32],[10,29],[-3,28],[-15,63],[15,26],[33,35],[8,38]],[[615,7039],[-8,57],[107,16],[12,-79]],[[886,7535],[28,-182],[35,-220],[9,-52]],[[136,6977],[7,45],[12,22],[-7,22],[11,32],[16,14],[-1,53],[25,14],[7,19],[30,15],[10,18],[28,15],[4,24],[24,37],[1,15],[15,14],[7,24],[20,14],[2,21],[30,12],[18,18],[21,-3],[8,25],[11,6],[23,69]],[[1785,7019],[-170,-26],[-66,-4],[-3,12]],[[2264,6487],[292,-112]],[[1760,5381],[-112,-58],[-101,-48]],[[1395,6048],[-3,48],[-8,251],[-8,89]],[[1007,6464],[7,-56],[-21,-37],[8,-40],[-6,-20],[28,-56],[30,-15],[39,-50],[75,-70],[14,-18],[-1,-82]],[[315,9952],[28,-33],[110,-14],[19,30],[31,15],[43,27],[14,29],[88,37],[20,16]],[[281,8988],[-22,20],[-28,40],[-2,30],[-23,36],[14,22],[4,28],[-17,37],[-3,21],[-27,28],[14,64],[-5,26],[31,26],[-17,26],[19,29],[-3,23],[33,45],[-9,11],[3,43],[17,7],[-11,31],[16,12],[16,36],[-17,14],[3,29],[-1,77],[2,72],[-3,35],[7,21],[35,49],[8,26]],[[315,9952],[19,61],[14,20],[25,21],[12,40],[-7,71],[-22,21],[-46,59],[-45,29],[-20,21],[-15,27],[-15,9],[-7,58],[5,35],[29,26],[11,21],[32,150],[15,35],[31,33],[25,17],[9,23],[-4,117],[6,84],[-1,21],[-44,56],[-16,55],[14,27],[28,87],[555,13]],[[4162,4725],[-4,-44]],[[4067,4544],[-34,21],[-26,6],[-16,15],[-43,19],[-55,7],[-38,32],[-29,31],[-16,32],[-24,63],[-32,14],[-3,24],[-16,56],[-19,5]],[[1027,8627],[15,-8],[38,9],[-14,16],[28,36],[11,1]],[[1105,8681],[-13,-25],[2,-29],[-11,-11],[-4,-37],[25,-7],[6,-18]],[[1097,8362],[-16,10],[-49,-9],[-3,59]],[[982,8582],[28,-29],[14,-4],[19,-54],[33,0],[22,7],[-7,30],[9,20],[-41,21],[-24,0],[-37,26],[-16,-17]],[[2395,9791],[-151,31],[-2,-2],[-124,24],[-153,31],[-179,35],[-195,42],[-294,61]],[[2907,7090],[-12,-6],[-25,-42],[-1,-21],[11,-46],[-17,-10],[-28,-44],[-8,-27],[13,-7],[-5,-25],[5,-24],[-24,-31],[-43,-16],[-13,-19],[-61,13],[-6,15],[-40,8],[-46,-16],[-155,58]],[[499,4389],[17,10],[21,106],[38,105],[157,-9]],[[706,3977],[-16,19],[0,36],[5,15],[-25,29],[-11,25],[-41,33],[-42,12],[-1,17],[-13,8],[-23,-7],[-22,9],[19,25],[-17,11],[12,27],[9,33],[-10,29],[-17,24],[-15,8],[7,27],[-6,32]],[[1831,4594],[-2,18]],[[1829,4612],[-48,90],[-166,301],[-16,37]],[[1406,4590],[1,-26],[14,0],[6,-57],[-8,-24],[12,-79],[18,1],[2,-31],[-18,0],[2,-30],[15,2],[22,-21],[19,0]],[[1491,4325],[17,-34],[-3,-17],[22,-20],[10,-23],[29,0],[-2,-99]],[[1225,4580],[138,8],[43,2]],[[1559,4597],[270,15]],[[1491,4325],[27,0],[-5,22],[-20,49],[25,2],[5,58],[30,1],[-6,43],[20,4],[12,13],[-2,43],[-20,12],[2,25]],[[1406,4590],[-6,17],[-17,90],[50,27],[30,0],[5,-60],[-3,-17],[17,-2],[10,-23],[-9,-24],[76,-1]],[[1126,5017],[50,-217],[34,-155]],[[499,4389],[-19,22],[-11,-20],[-24,13],[-28,3],[-68,-5],[-31,-19],[-8,16],[-44,-12],[-26,1],[10,-19],[-23,-35],[14,-32],[-2,-11],[-39,-33],[6,-20],[-19,-11],[16,-25],[-10,-11],[10,-20],[-6,-19],[-20,-3],[-8,-24],[-23,-9],[-27,15],[-42,32],[-13,19],[-30,12],[-6,32],[32,61],[-8,46],[22,40],[-2,14],[-35,54],[5,40],[30,28],[12,41],[26,62],[16,71],[-6,22],[11,23],[22,14],[40,77],[28,29],[26,38],[3,90],[26,46]],[[605,8827],[18,-15],[15,-31],[101,-99],[22,6]],[[761,8688],[29,-55],[-15,-19],[13,-20]],[[788,8594],[-31,-8],[17,-40],[2,-58],[-9,-10]],[[1408,8987],[1,-49],[-9,-62],[-9,-15],[-24,-100],[30,-33],[-46,-24],[-6,-25],[4,-21],[11,-9],[16,-38],[-19,-38]],[[1254,8681],[-59,32],[-27,-15],[-63,-17]],[[670,8798],[3,-12],[37,-10],[35,-32],[5,-37],[11,-19]],[[866,8641],[2,-8]],[[792,8600],[-4,-6]],[[2600,2478],[9,-34],[-26,-17],[-14,-50],[15,-25],[-19,-11],[-11,-17],[-9,-37],[-11,-10],[-25,1],[-38,-39],[5,-26],[-7,-15],[6,-19],[-25,-36],[-11,-62],[10,-51]],[[2449,2030],[-197,70],[-147,49]],[[2794,845],[58,-3],[225,-6]],[[3077,836],[12,-14],[27,-87],[-5,-20],[-15,-22],[28,-50],[15,-40]],[[3139,603],[1,-57],[-23,-67]],[[3117,479],[-227,10],[-108,2]],[[2782,491],[12,354]],[[2798,956],[91,-4],[13,29],[13,50],[18,94],[15,61]],[[2948,1186],[99,-5]],[[3047,1181],[140,-6],[177,-6],[5,-21]],[[3369,1148],[-41,-32],[-9,-28],[23,-21],[7,-47],[-3,-34],[10,-46],[-1,-20],[-15,-10],[-10,-28],[1,-44],[-5,-10]],[[3326,828],[-249,8]],[[2794,845],[4,111]],[[2510,1274],[-35,-152],[-29,-119],[-16,-36]],[[2430,967],[-2,-11],[-76,0]],[[2352,956],[-63,5],[-300,17],[-91,0]],[[1898,978],[4,323],[86,-6],[314,-15],[208,-6]],[[3326,828],[-28,-32],[-46,-22],[-9,-47],[-1,-38],[4,-35],[-8,-25]],[[3238,629],[-36,-15],[-63,-11]],[[3242,2488],[-5,-74],[-4,-453],[4,1]],[[3237,1962],[-59,-279],[-14,1],[-33,-234]],[[3131,1450],[-10,0],[-12,-69],[-20,-33],[-2,-55],[-34,-1],[-6,-111]],[[2948,1186],[-43,1],[0,23],[9,23],[40,10],[9,10],[-11,31],[7,25],[-25,12],[-9,28],[7,18],[-39,37],[2,25],[-158,8],[-183,13]],[[2554,1450],[32,133]],[[2586,1583],[95,368],[-77,25],[-155,54]],[[3237,1962],[63,-1],[250,-9]],[[3550,1952],[123,-4]],[[3673,1948],[19,-21],[3,-24],[-6,-26],[-28,-22],[-6,-27],[15,-29],[0,-13],[16,-26],[-4,-28],[-38,-52],[-14,-7],[-19,-28],[-29,-24],[-17,-22],[7,-35],[17,-16],[-1,-43],[-5,-43],[12,-26]],[[3595,1436],[-44,0],[-193,8],[-227,6]],[[2586,1583],[-419,14],[-89,2],[13,295]],[[3686,2478],[-1,-19],[-16,-30],[-7,-25],[11,-58],[-3,-25],[-42,-42],[3,-18],[20,-31],[-3,-22],[-26,-21]],[[3622,2187],[-29,45],[-13,-17],[5,-59],[-3,-16],[-33,-39],[-11,-28],[0,-28],[-9,-37],[2,-22],[19,-34]],[[2554,1450],[-16,-54],[-28,-122]],[[2798,956],[-368,11]],[[2332,488],[20,468]],[[2782,491],[-5,-104],[-9,-152],[-5,-122],[-1,-82]],[[2762,31],[-452,16]],[[2310,47],[9,37],[2,90],[11,314]],[[3117,479],[159,-5]],[[3276,474],[14,-41],[3,-41],[90,-90],[29,-40],[2,-20],[-26,-30],[8,-30],[21,2],[31,21],[15,24],[17,-5],[26,-38],[16,-8],[14,-33],[7,-48],[21,-26],[27,-46],[8,-25],[-215,8],[-301,12],[-321,11]],[[3622,2187],[0,-101],[-17,-18],[-2,-15],[15,-34],[19,-12],[26,-2],[-5,-36],[15,-21]],[[3595,1436],[58,-51],[-2,-24],[-22,-24],[-34,2],[-19,-33],[-3,-23],[13,-24],[-3,-12],[-38,-45],[-14,-4],[-18,11],[-39,-31],[-43,-9],[-9,-7],[-44,-6],[-9,-8]],[[3238,629],[-2,-11],[37,-72],[3,-72]],[[2332,488],[-245,8],[-38,0],[-168,8]],[[2310,47],[-445,13]]],"transform":{"scale":[0.0002721930187637963,0.00020434850513163742],"translate":[-73.437905,42.726933]},"objects":{"Tract_50_2020":{"type":"GeometryCollection","geometries":[{"arcs":[[0,1,2,3,4]],"type":"Polygon","properties":{"id":"14000US50005957100"}},{"arcs":[[5,6,7,8,9]],"type":"Polygon","properties":{"id":"14000US50005957400"}},{"arcs":[[10,11,12,13,14,15,16,-5,17,18,19]],"type":"Polygon","properties":{"id":"14000US50005957000"}},{"arcs":[[20,-11,21,22]],"type":"Polygon","properties":{"id":"14000US50005957700"}},{"arcs":[[-4,23,-6,-18]],"type":"Polygon","properties":{"id":"14000US50005957300"}},{"arcs":[[26,27,28,29,30,31,32]],"type":"Polygon","properties":{"id":"14000US50005957800"}},{"arcs":[[-19,-10,33,-27,34]],"type":"Polygon","properties":{"id":"14000US50005957600"}},{"arcs":[[-3,35,-7,-24]],"type":"Polygon","properties":{"id":"14000US50005957200"}},{"arcs":[[-36,-2,36,-8]],"type":"Polygon","properties":{"id":"14000US50005957500"}},{"arcs":[[-34,-9,-37,37,38,-28]],"type":"Polygon","properties":{"id":"14000US50005957900"}},{"arcs":[[39,40,-15,41]],"type":"Polygon","properties":{"id":"14000US50009950200"}},{"arcs":[[42,43,-16,-41,44]],"type":"Polygon","properties":{"id":"14000US50009950100"}},{"arcs":[[-30,45,-25,46,47,48]],"type":"Polygon","properties":{"id":"14000US50017959000"}},{"arcs":[[49,50,51]],"type":"Polygon","properties":{"id":"14000US50017959400"}},{"arcs":[[52,53,54,55,56]],"type":"Polygon","properties":{"id":"14000US50017959700"}},{"arcs":[[57,58,59,60,61,62]],"type":"Polygon","properties":{"id":"14000US50017959200"}},{"arcs":[[63,64,-63,65,-52,66]],"type":"Polygon","properties":{"id":"14000US50017959300"}},{"arcs":[[-66,-62,67,68,-57,69,70,71,72,-50]],"type":"Polygon","properties":{"id":"14000US50017959500"}},{"arcs":[[-56,73,74,-70]],"type":"Polygon","properties":{"id":"14000US50017959600"}},{"arcs":[[-48,75,-54,76]],"type":"Polygon","properties":{"id":"14000US50017959800"}},{"arcs":[[77,78,-22,79,80]],"type":"Polygon","properties":{"id":"14000US50023954100"}},{"arcs":[[81,82,83,84]],"type":"Polygon","properties":{"id":"14000US50023954300"}},{"arcs":[[85,-84,86,87,88,89,90,91]],"type":"Polygon","properties":{"id":"14000US50023954400"}},{"arcs":[[-91,92,93,94,95]],"type":"Polygon","properties":{"id":"14000US50023955800"}},{"arcs":[[-88,96,97,98,99,100,101,102,103,104,-59,105,106]],"type":"Polygon","properties":{"id":"14000US50023954500"}},{"arcs":[[107,108,109,-60,-105]],"type":"Polygon","properties":{"id":"14000US50023955400"}},{"arcs":[[110,111,112,113,114,-98]],"type":"Polygon","properties":{"id":"14000US50023954600"}},{"arcs":[[-80,-20,-35,-33,115,116,117]],"type":"Polygon","properties":{"id":"14000US50023954000"}},{"arcs":[[118,-100,119,120,-113]],"type":"Polygon","properties":{"id":"14000US50023954700"}},{"arcs":[[-115,121,-120,-99]],"type":"Polygon","properties":{"id":"14000US50023954900"}},{"arcs":[[-81,-118,122,-101,-119,-112,123]],"type":"Polygon","properties":{"id":"14000US50023955000"}},{"arcs":[[-123,-117,124,-109,125,126,-102]],"type":"Polygon","properties":{"id":"14000US50023955300"}},{"arcs":[[127,128,129,130]],"type":"Polygon","properties":{"id":"14000US50015953200"}},{"arcs":[[131,-130,132,133,134]],"type":"Polygon","properties":{"id":"14000US50015953500"}},{"arcs":[[135,136,137,-133,-129]],"type":"Polygon","properties":{"id":"14000US50015953300"}},{"arcs":[[-103,-127,138]],"type":"Polygon","properties":{"id":"14000US50023955100"}},{"arcs":[[-139,-126,-108,-104]],"type":"Polygon","properties":{"id":"14000US50023955200"}},{"arcs":[[-94,139,140,141,142]],"type":"Polygon","properties":{"id":"14000US50023955600"}},{"arcs":[[143,144,145,-136,-128,146,147]],"type":"Polygon","properties":{"id":"14000US50015953000"}},{"arcs":[[-147,-131,-132,148,149,150]],"type":"Polygon","properties":{"id":"14000US50015953100"}},{"arcs":[[-134,-138,151,152,-23,-79,153]],"type":"Polygon","properties":{"id":"14000US50015953400"}},{"arcs":[[-149,-135,154,-82,155]],"type":"Polygon","properties":{"id":"14000US50015953600"}},{"arcs":[[-75,156,157,158]],"type":"Polygon","properties":{"id":"14000US50027965000"}},{"arcs":[[-93,-90,159,-140]],"type":"Polygon","properties":{"id":"14000US50023955700"}},{"arcs":[[-155,-154,-78,-124,-111,-97,-87,-83]],"type":"Polygon","properties":{"id":"14000US50023954200"}},{"arcs":[[-121,-122,-114]],"type":"Polygon","properties":{"id":"14000US50023954800"}},{"arcs":[[-72,160,161]],"type":"Polygon","properties":{"id":"14000US50027965100"}},{"arcs":[[162,163,164,165]],"type":"Polygon","properties":{"id":"14000US50027965600"}},{"arcs":[[166,167,168,169,170]],"type":"Polygon","properties":{"id":"14000US50027965800"}},{"arcs":[[171,172,173,174,175]],"type":"Polygon","properties":{"id":"14000US50027966200"}},{"arcs":[[176,-176,177,178,179]],"type":"Polygon","properties":{"id":"14000US50027966300"}},{"arcs":[[180,181,182]],"type":"Polygon","properties":{"id":"14000US50011010101"}},{"arcs":[[183,184,185,186,-182]],"type":"Polygon","properties":{"id":"14000US50011010102"}},{"arcs":[[187,188,189,190]],"type":"Polygon","properties":{"id":"14000US50007004200"}},{"arcs":[[191,192,193,-180,194,195,196]],"type":"Polygon","properties":{"id":"14000US50021964000"}},{"arcs":[[197,-196,198,199,200,201]],"type":"Polygon","properties":{"id":"14000US50021964200"}},{"arcs":[[202,203,-202,204,205]],"type":"Polygon","properties":{"id":"14000US50021964300"}},{"arcs":[[206,207,208,209]],"type":"Polygon","properties":{"id":"14000US50021963000"}},{"arcs":[[-209,210,211]],"type":"Polygon","properties":{"id":"14000US50021963100"}},{"arcs":[[212,213,214,215,216,217,218]],"type":"Polygon","properties":{"id":"14000US50003971600"}},{"arcs":[[219,220,-217,221,222,223,224,225,226]],"type":"Polygon","properties":{"id":"14000US50003970601"}},{"arcs":[[227,228,229]],"type":"Polygon","properties":{"id":"14000US50003970402"}},{"arcs":[[-205,-201,230,-228,231,-213,232]],"type":"Polygon","properties":{"id":"14000US50003971400"}},{"arcs":[[-232,-230,233,-214]],"type":"Polygon","properties":{"id":"14000US50003970401"}},{"arcs":[[234,-45,-40,235,236]],"type":"Polygon","properties":{"id":"14000US50019951100"}},{"arcs":[[237,238,239,240,241,242]],"type":"Polygon","properties":{"id":"14000US50019951300"}},{"arcs":[[243,244,245,246,247,-152,-137,-146]],"type":"Polygon","properties":{"id":"14000US50019951700"}},{"arcs":[[-241,248,249]],"type":"Polygon","properties":{"id":"14000US50019951400"}},{"arcs":[[-242,-250,250,251]],"type":"Polygon","properties":{"id":"14000US50019951500"}},{"arcs":[[252,-237,253,-239]],"type":"Polygon","properties":{"id":"14000US50019951200"}},{"arcs":[[-251,-249,-240,-254,-236,-42,-14,254,-246,255]],"type":"Polygon","properties":{"id":"14000US50019951900"}},{"arcs":[[256,257,258,259,260]],"type":"Polygon","properties":{"id":"14000US50007003600"}},{"arcs":[[261,262,263,-261,264,265]],"type":"Polygon","properties":{"id":"14000US50007003900"}},{"arcs":[[-1,-17,-44,266,-38]],"type":"Polygon","properties":{"id":"14000US50009950500"}},{"arcs":[[-170,267,268,269,-173,270]],"type":"Polygon","properties":{"id":"14000US50027965902"}},{"arcs":[[-178,-175,271,272,273,274,275]],"type":"Polygon","properties":{"id":"14000US50027966501"}},{"arcs":[[-67,-51,-73,-162,276,277,278]],"type":"Polygon","properties":{"id":"14000US50027966800"}},{"arcs":[[-195,-179,-276,279,280,281,-199]],"type":"Polygon","properties":{"id":"14000US50027966502"}},{"arcs":[[282,-171,-271,-172,-177,-194,283]],"type":"Polygon","properties":{"id":"14000US50027965901"}},{"arcs":[[284,285,286,287,288]],"type":"Polygon","properties":{"id":"14000US50007002101"}},{"arcs":[[289,290,291]],"type":"Polygon","properties":{"id":"14000US50007002602"}},{"arcs":[[292,293,294,295,296,297]],"type":"Polygon","properties":{"id":"14000US50007003000"}},{"arcs":[[298,299,300,301,302,303]],"type":"Polygon","properties":{"id":"14000US50007003501"}},{"arcs":[[304,305,-294,306]],"type":"Polygon","properties":{"id":"14000US50007002800"}},{"arcs":[[307,308,-297,309,310,-301]],"type":"Polygon","properties":{"id":"14000US50007003502"}},{"arcs":[[-296,311,-92,-96,312,-310]],"type":"Polygon","properties":{"id":"14000US50007003503"}},{"arcs":[[313,-150,-156,-85,-86,-312,-295,-306,314,315,316]],"type":"Polygon","properties":{"id":"14000US50007002900"}},{"arcs":[[-218,-221,317,318,319]],"type":"Polygon","properties":{"id":"14000US50003970800"}},{"arcs":[[320,321,-226,322]],"type":"Polygon","properties":{"id":"14000US50003971300"}},{"arcs":[[-288,323,324,325,326,327]],"type":"Polygon","properties":{"id":"14000US50007002301"}},{"arcs":[[328,329,330,331,332,333]],"type":"Polygon","properties":{"id":"14000US50021962200"}},{"arcs":[[334,335,-284,-193,336,337]],"type":"Polygon","properties":{"id":"14000US50021962800"}},{"arcs":[[-210,-212,338,339]],"type":"Polygon","properties":{"id":"14000US50021963200"}},{"arcs":[[340,341,342,-203,343]],"type":"Polygon","properties":{"id":"14000US50021963800"}},{"arcs":[[-110,-125,-116,-32,344,-68,-61]],"type":"Polygon","properties":{"id":"14000US50017959101"}},{"arcs":[[-169,345,-165,346,347,-268]],"type":"Polygon","properties":{"id":"14000US50027965700"}},{"arcs":[[348,349,350,-273]],"type":"Polygon","properties":{"id":"14000US50027966600"}},{"arcs":[[351,352,-349,-272]],"type":"Polygon","properties":{"id":"14000US50027966700"}},{"arcs":[[-277,-161,-71,-159,353,354,-167,-283,-336,355]],"type":"Polygon","properties":{"id":"14000US50027965400"}},{"arcs":[[-270,356,357,-352,-174]],"type":"Polygon","properties":{"id":"14000US50027966100"}},{"arcs":[[358,359,360,361,362],[363,364]],"type":"Polygon","properties":{"id":"14000US50011010600"}},{"arcs":[[365,-183,-187,366,-360,367]],"type":"Polygon","properties":{"id":"14000US50011010500"}},{"arcs":[[-185,368,369,370]],"type":"Polygon","properties":{"id":"14000US50011010200"}},{"arcs":[[371,-244,-145,372,-370,373]],"type":"Polygon","properties":{"id":"14000US50011010300"}},{"arcs":[[374,-365]],"type":"Polygon","properties":{"id":"14000US50011010700"}},{"arcs":[[-339,-211,-208,375]],"type":"Polygon","properties":{"id":"14000US50021963300"}},{"arcs":[[376,377,-337,-192,378]],"type":"Polygon","properties":{"id":"14000US50021963400"}},{"arcs":[[379,380,-379,-197,-198,-204,-343]],"type":"Polygon","properties":{"id":"14000US50021963500"}},{"arcs":[[381,382,383,384,-380,-342]],"type":"Polygon","properties":{"id":"14000US50021963600"}},{"arcs":[[-364,-375]],"type":"Polygon","properties":{"id":"14000US50011010800"}},{"arcs":[[385,386,-285,-362]],"type":"Polygon","properties":{"id":"14000US50011010900"}},{"arcs":[[-348,387,-357,-269]],"type":"Polygon","properties":{"id":"14000US50027966000"}},{"arcs":[[-326,388,389,390,391,392]],"type":"Polygon","properties":{"id":"14000US50007002304"}},{"arcs":[[393,394,395,396,397,398,-390]],"type":"Polygon","properties":{"id":"14000US50007002201"}},{"arcs":[[399,400,-298,-309,401,402]],"type":"Polygon","properties":{"id":"14000US50007003102"}},{"arcs":[[403,-327,-393,404,405,406,407,408]],"type":"Polygon","properties":{"id":"14000US50007002303"}},{"arcs":[[-325,409,410,411,-394,-389]],"type":"Polygon","properties":{"id":"14000US50007002202"}},{"arcs":[[412,413,-397,414,415]],"type":"Polygon","properties":{"id":"14000US50007002502"}},{"arcs":[[-398,-414,416]],"type":"Polygon","properties":{"id":"14000US50007002501"}},{"arcs":[[-189,417,-263,418,419]],"type":"Polygon","properties":{"id":"14000US50007004100"}},{"arcs":[[-408,420,421,422,-265,-260,423,424,425,426]],"type":"Polygon","properties":{"id":"14000US50007003304"}},{"arcs":[[-426,427,-299,428]],"type":"Polygon","properties":{"id":"14000US50007003402"}},{"arcs":[[-287,429,-410,-324]],"type":"Polygon","properties":{"id":"14000US50007002104"}},{"arcs":[[430,-291,431,432,-307,-293,-401,433]],"type":"Polygon","properties":{"id":"14000US50007003101"}},{"arcs":[[-425,434,-402,-308,-300,-428]],"type":"Polygon","properties":{"id":"14000US50007003401"}},{"arcs":[[-286,-387,-317,-411,-430]],"type":"Polygon","properties":{"id":"14000US50007002103"}},{"arcs":[[435,-243,-252,-256,-245,-372]],"type":"Polygon","properties":{"id":"14000US50019951600"}},{"arcs":[[-255,-13,436,-247]],"type":"Polygon","properties":{"id":"14000US50019951800"}},{"arcs":[[437,438,-227,-322,439]],"type":"Polygon","properties":{"id":"14000US50003971100"}},{"arcs":[[-319,440,441,-440,-321,442]],"type":"Polygon","properties":{"id":"14000US50003971000"}},{"arcs":[[-318,-220,-439,443,-441]],"type":"Polygon","properties":{"id":"14000US50003970900"}},{"arcs":[[-229,-231,-200,-282,444,445,446,-215,-234]],"type":"Polygon","properties":{"id":"14000US50003970500"}},{"arcs":[[-444,-438,-442]],"type":"Polygon","properties":{"id":"14000US50003971200"}},{"arcs":[[-416,447,-257,-264,-418,-188,448]],"type":"Polygon","properties":{"id":"14000US50007000600"}},{"arcs":[[449,-266,-423,450,451]],"type":"Polygon","properties":{"id":"14000US50007000800"}},{"arcs":[[-419,-262,-450,452]],"type":"Polygon","properties":{"id":"14000US50007000900"}},{"arcs":[[453,454,-451,-422]],"type":"Polygon","properties":{"id":"14000US50007001100"}},{"arcs":[[455,456,457,-334,458,459]],"type":"Polygon","properties":{"id":"14000US50001960900"}},{"arcs":[[460,461,462,463]],"type":"Polygon","properties":{"id":"14000US50001960500"}},{"arcs":[[464,465,466,-329,-458]],"type":"Polygon","properties":{"id":"14000US50001961000"}},{"arcs":[[467,468,469,470,-464,471,472,-456,473]],"type":"Polygon","properties":{"id":"14000US50001960400"}},{"arcs":[[-469,474]],"type":"Polygon","properties":{"id":"14000US50001960300"}},{"arcs":[[-303,475,-470,-475,-468,476]],"type":"Polygon","properties":{"id":"14000US50001960200"}},{"arcs":[[-302,-311,-313,477,-461,-471,-476]],"type":"Polygon","properties":{"id":"14000US50001960100"}},{"arcs":[[-462,-478,-95,-143,478,-64,-279,479,-330,-467,480]],"type":"Polygon","properties":{"id":"14000US50001960600"}},{"arcs":[[-473,481,-465,-457]],"type":"Polygon","properties":{"id":"14000US50001960800"}},{"arcs":[[-472,-463,-481,-466,-482]],"type":"Polygon","properties":{"id":"14000US50001960700"}},{"arcs":[[482,-363,-289,-328,-404,483]],"type":"Polygon","properties":{"id":"14000US50013020200"}},{"arcs":[[-368,-359,-483,484]],"type":"Polygon","properties":{"id":"14000US50013020100"}},{"arcs":[[-158,485,-163,486,-354]],"type":"Polygon","properties":{"id":"14000US50027965502"}},{"arcs":[[-487,-166,-346,-168,-355]],"type":"Polygon","properties":{"id":"14000US50027965501"}},{"arcs":[[-415,-396,487,488,-434,-400,489,-258,-448],[490]],"type":"Polygon","properties":{"id":"14000US50007004002"}},{"arcs":[[-259,-490,-403,-435,-424]],"type":"Polygon","properties":{"id":"14000US50007003301"}},{"arcs":[[-361,-367,-186,-371,-373,-144,491]],"type":"Polygon","properties":{"id":"14000US50011010400"}},{"arcs":[[-148,-151,-314,-386,-492]],"type":"Polygon","properties":{"id":"14000US50011011000"}},{"arcs":[[-89,-107,492,-141,-160]],"type":"Polygon","properties":{"id":"14000US50023955501"}},{"arcs":[[-142,-493,-106,-58,-65,-479]],"type":"Polygon","properties":{"id":"14000US50023955502"}},{"arcs":[[493,-382,-341,494]],"type":"Polygon","properties":{"id":"14000US50021963700"}},{"arcs":[[-480,-278,-356,-335,495,496,-331]],"type":"Polygon","properties":{"id":"14000US50021962100"}},{"arcs":[[497,498,-377,-381,-385,499]],"type":"Polygon","properties":{"id":"14000US50021962600"}},{"arcs":[[500,-496,-338,-378,-499,501],[-376,-207,-340]],"type":"Polygon","properties":{"id":"14000US50021962700"}},{"arcs":[[-502,-498,502]],"type":"Polygon","properties":{"id":"14000US50021962500"}},{"arcs":[[-459,-333,503,-383,-494,504]],"type":"Polygon","properties":{"id":"14000US50021962300"}},{"arcs":[[-332,-497,-501,-503,-500,-384,-504]],"type":"Polygon","properties":{"id":"14000US50021962400"}},{"arcs":[[-31,-49,-77,-53,-69,-345]],"type":"Polygon","properties":{"id":"14000US50017959102"}},{"arcs":[[-407,505,506,507,-454,-421]],"type":"Polygon","properties":{"id":"14000US50007000200"}},{"arcs":[[-491]],"type":"Polygon","properties":{"id":"14000US50007980000"}},{"arcs":[[-412,-316,508,-432,-290,509,-488,-395]],"type":"Polygon","properties":{"id":"14000US50007002701"}},{"arcs":[[-315,-305,-433,-509]],"type":"Polygon","properties":{"id":"14000US50007002702"}},{"arcs":[[510,-506,-406]],"type":"Polygon","properties":{"id":"14000US50007000100"}},{"arcs":[[-405,-392,511,-449,-191,512,-507,-511]],"type":"Polygon","properties":{"id":"14000US50007000300"}},{"arcs":[[-510,-292,-431,-489]],"type":"Polygon","properties":{"id":"14000US50007002601"}},{"arcs":[[-513,-190,-420,-453,-452,-455,-508]],"type":"Polygon","properties":{"id":"14000US50007001000"}},{"arcs":[[-391,-399,-417,-413,-512]],"type":"Polygon","properties":{"id":"14000US50007002400"}},{"arcs":[[-248,-437,-12,-21,-153]],"type":"Polygon","properties":{"id":"14000US50019952000"}},{"arcs":[[-281,513,514,-445]],"type":"Polygon","properties":{"id":"14000US50025967300"}},{"arcs":[[515,516,517,518,519]],"type":"Polygon","properties":{"id":"14000US50025968400"}},{"arcs":[[520,521,522,523,524,-516,525]],"type":"Polygon","properties":{"id":"14000US50025968300"}},{"arcs":[[526,527,528,529]],"type":"Polygon","properties":{"id":"14000US50025967900"}},{"arcs":[[-525,530,531,-517]],"type":"Polygon","properties":{"id":"14000US50025968600"}},{"arcs":[[-280,-275,532,533,534,-522,535,536,537,-514]],"type":"Polygon","properties":{"id":"14000US50025967200"}},{"arcs":[[-534,538,539,540,541]],"type":"Polygon","properties":{"id":"14000US50025967600"}},{"arcs":[[-446,-515,-538,542]],"type":"Polygon","properties":{"id":"14000US50025967400"}},{"arcs":[[-274,-351,543,544,-539,-533]],"type":"Polygon","properties":{"id":"14000US50025967100"}},{"arcs":[[-216,-447,-543,-537,545,-530,-222]],"type":"Polygon","properties":{"id":"14000US50025967500"}},{"arcs":[[-546,-536,-521,546,-527]],"type":"Polygon","properties":{"id":"14000US50025967800"}},{"arcs":[[547,-528,-547,-526,-520,548,549,550]],"type":"Polygon","properties":{"id":"14000US50025968200"}},{"arcs":[[-519,551,552,-549]],"type":"Polygon","properties":{"id":"14000US50025968700"}},{"arcs":[[553,-540,-545]],"type":"Polygon","properties":{"id":"14000US50025967000"}},{"arcs":[[-542,554,-523,-535]],"type":"Polygon","properties":{"id":"14000US50025967700"}},{"arcs":[[-532,555,-552,-518]],"type":"Polygon","properties":{"id":"14000US50025968500"}},{"arcs":[[-529,-548,556,-223]],"type":"Polygon","properties":{"id":"14000US50025968000"}},{"arcs":[[-557,-551,557,-224]],"type":"Polygon","properties":{"id":"14000US50025968100"}}]}}}