{"type":"Topology","arcs":[[[4906,7744],[57,8],[37,-18],[14,-31],[55,-3],[28,-62],[26,-26],[46,-10]],[[5169,7602],[32,-65]],[[5201,7537],[-84,7],[-72,-2],[-29,14],[-25,-17],[-79,-14]],[[4912,7525],[6,20],[-8,115]],[[4910,7660],[-4,84]],[[5201,7537],[24,-57],[72,-104]],[[5297,7376],[6,-8]],[[5303,7368],[-159,-79],[-82,-6]],[[5062,7283],[-127,64],[-47,4]],[[4888,7351],[-6,19]],[[4882,7370],[-5,26]],[[4877,7396],[5,61],[30,68]],[[4505,7426],[21,39],[-24,63]],[[4502,7528],[18,24],[29,5],[11,75]],[[4560,7632],[23,3],[52,32],[30,-2]],[[4665,7665],[36,3],[41,41],[31,-8],[-3,-23]],[[4770,7678],[-18,-25],[13,-34],[-21,-39],[0,-28],[29,-3]],[[4773,7549],[-84,-60],[64,-48],[37,-4],[0,-49],[87,8]],[[4882,7370],[-49,3],[-38,-26]],[[4795,7347],[-195,-7],[-28,-83],[-33,-65]],[[4539,7192],[-18,9]],[[4521,7201],[28,91],[-47,20],[-26,-10],[-47,-1],[-8,-26],[-35,18]],[[4386,7293],[72,64],[47,69]],[[4075,6541],[312,5]],[[4387,6546],[-21,-50],[-40,-59],[-26,-27],[-30,-6],[-38,-43],[83,-52]],[[4315,6309],[8,-48],[-37,-4],[8,-51]],[[4294,6206],[-18,4],[-28,-28],[12,-35],[-111,-77],[-33,-29],[-19,-41],[5,-31],[20,-7],[9,-107]],[[4131,5855],[1,-13],[-110,0]],[[4022,5842],[31,73],[6,57],[38,37],[15,41],[-7,233],[-3,48],[-27,210]],[[3656,6911],[94,76],[12,18],[5,54],[17,35],[-1,31],[-34,22]],[[3749,7147],[38,-11],[10,33]],[[3797,7169],[10,18],[39,6],[52,-71],[59,-25]],[[3957,7097],[-104,-58],[-58,-121]],[[3795,6918],[-36,-4],[-2,-44],[-24,5],[-35,-97],[-40,-22]],[[3658,6756],[-2,155]],[[3519,6525],[134,4]],[[3653,6529],[334,9]],[[3987,6538],[88,3]],[[4022,5842],[-262,0]],[[3760,5842],[-218,-7]],[[3542,5835],[-13,274],[-2,177],[-8,239]],[[4770,7678],[46,13],[36,41],[54,12]],[[4910,7660],[-137,-111]],[[4795,7347],[18,-48],[-55,-17],[-6,-34],[49,-61],[27,-72]],[[4828,7115],[-41,-18],[-39,56],[14,21],[-60,36],[-37,-62],[-61,-84]],[[4604,7064],[-53,22],[47,68],[-59,38]],[[3654,6976],[2,-65]],[[3658,6756],[-1,-24]],[[3657,6732],[-37,-6],[-32,10],[-69,53],[-45,1]],[[3474,6790],[-23,28],[39,19],[12,64],[-34,2],[-46,-33],[-7,29]],[[3415,6899],[2,170],[105,2],[-14,-18],[23,-53],[29,-28],[19,27],[60,1],[15,-24]],[[3232,7303],[284,8],[1,14]],[[3517,7325],[13,-13],[115,1]],[[3645,7313],[2,-92]],[[3647,7221],[7,-245]],[[3415,6899],[-73,5],[-14,68],[-61,66],[-6,47]],[[3261,7085],[19,69],[-1,62],[-25,6],[-22,81]],[[1173,6459],[397,12],[350,11],[155,4]],[[2075,6486],[284,3],[267,9],[158,2]],[[2784,6500],[318,10]],[[3102,6510],[179,9],[238,6]],[[3542,5835],[-195,-6],[-306,-4],[-116,-3],[-352,1],[-94,-26],[-122,-1],[-370,3],[-385,-2],[-449,-21]],[[1153,5776],[10,278],[10,405]],[[4459,6999],[-13,-42],[66,-13]],[[4512,6944],[147,-22],[9,-36],[-6,-84],[1,-118]],[[4663,6684],[-45,-14],[-50,-42],[-26,-37],[1,-41]],[[4543,6550],[-76,-1]],[[4467,6549],[18,76],[-3,76],[-16,49],[-50,75],[-10,63],[-29,43],[-14,-5],[-49,30]],[[4314,6956],[48,22],[3,29],[94,-8]],[[3645,7313],[170,5]],[[3815,7318],[4,-67],[-50,-12],[6,-63],[22,-7]],[[3749,7147],[-25,11],[-6,29],[-71,34]],[[2570,7285],[567,15]],[[3137,7300],[95,3]],[[3261,7085],[-19,-15],[-15,-52],[0,-32],[-49,-22],[-92,17],[-23,-26],[-15,-65],[72,-68],[8,-105],[62,6]],[[3190,6723],[-15,-24],[-6,-76],[7,-27],[-58,-53],[-16,-33]],[[2784,6500],[19,56],[28,20],[24,36],[42,18],[23,-2],[30,74],[6,63],[-22,82],[-3,70],[-98,22],[-66,57],[-30,-3],[-23,35],[-48,40],[-58,14],[-52,46],[5,82],[16,51],[-7,24]],[[3474,6790],[-68,-17],[-96,-31],[-120,-19]],[[3795,6918],[168,6],[7,-102]],[[3970,6822],[3,-30]],[[3973,6792],[-218,-7],[-44,-44],[-54,-9]],[[4888,7077],[78,33],[-8,43],[-17,21]],[[4941,7174],[74,14],[48,-4],[43,-33]],[[5106,7151],[-20,-24],[56,-39],[-19,-21]],[[5123,7067],[-15,-62],[-24,-24]],[[5084,6981],[-26,-9],[-119,8],[-154,49]],[[4785,7029],[103,48]],[[4315,6309],[75,77],[28,-28],[29,13],[18,34],[42,45],[29,56],[7,44]],[[4663,6684],[64,8],[150,-21],[146,-57]],[[5023,6614],[31,-199]],[[5054,6415],[-123,18],[-54,-1]],[[4877,6432],[-92,14],[-62,-13],[-49,-38],[-38,9],[-95,-64],[1,-36],[-69,-86],[10,-21],[-13,-28],[-40,-11],[-16,59],[-35,33],[-33,3],[-9,-20],[-43,-27]],[[5044,6873],[18,40],[35,21],[-13,47]],[[5123,7067],[32,-7],[38,46],[52,6],[18,13],[57,-25],[198,44]],[[5518,7144],[110,-146],[-7,-29],[62,-82],[-52,-72]],[[5631,6815],[-209,-94],[-35,-24]],[[5387,6697],[-135,113],[-15,32],[-68,-10],[-9,80],[-40,-9],[-29,-24],[-47,-6]],[[4073,7077],[44,101],[52,66],[64,-93],[31,0],[13,33],[28,38],[81,71]],[[4521,7201],[-62,-202]],[[4314,6956],[-77,35]],[[4237,6991],[-133,78],[-31,8]],[[3957,7097],[48,17],[44,56],[31,13],[-3,40],[44,46],[16,60]],[[4137,7329],[269,9],[34,23],[-8,35],[19,24],[54,6]],[[4073,7077],[-62,-129],[-39,-104],[-2,-22]],[[1149,7255],[534,10],[337,8]],[[2020,7273],[0,-145],[61,-159],[11,-144],[-18,-148],[1,-191]],[[1173,6459],[-6,158],[-18,638]],[[2020,7273],[314,9]],[[2334,7282],[236,3]],[[5023,6614],[18,172],[-5,46],[8,41]],[[5387,6697],[-43,-73],[-28,-29],[-113,-59],[-48,-73],[-8,-71]],[[5147,6392],[-93,23]],[[4467,6549],[-80,-3]],[[4075,6541],[12,35],[74,42],[33,47],[9,44],[0,145],[34,137]],[[3815,7318],[322,11]],[[4888,7351],[32,-147],[21,-30]],[[4888,7077],[-60,38]],[[3973,6792],[6,-64],[8,-190]],[[3653,6529],[4,203]],[[5062,7283],[72,-47],[-21,-20],[-7,-65]],[[3760,5842],[39,-99]],[[3799,5743],[4,-21],[1,-172],[-9,-145]],[[3795,5405],[-6,-234],[-1,-167],[72,-168],[20,-73],[23,-103]],[[3903,4660],[-69,15]],[[3834,4675],[-153,28]],[[3681,4703],[-385,117],[-166,49],[-53,20],[-202,60]],[[2875,4949],[-75,452],[-78,-9],[-247,-34],[-328,-42],[-268,-32]],[[1879,5284],[-286,-35],[-68,0],[-303,-49],[-90,-9]],[[1132,5191],[6,199],[15,386]],[[4294,6206],[46,-54],[44,-70],[25,-62],[118,23],[30,-35],[162,29],[38,18],[86,116],[-9,25],[76,18]],[[4910,6214],[36,-67],[4,-44],[-47,-33],[2,-26],[24,-32],[27,-16],[-30,-72],[-36,17],[-13,-27],[-25,10],[-43,-49],[21,-19],[105,-4],[12,-15],[-6,-34],[-2,-107],[-40,-57],[-82,-3],[-149,-21]],[[4668,5615],[-54,30],[7,47],[-85,29],[-45,25],[-10,24],[44,10],[-94,48],[-31,22],[-11,-35],[-29,34],[-51,13],[-7,-52],[-40,4],[-13,28],[-71,-6],[-47,19]],[[1070,3701],[17,-27],[-26,-51],[17,-48],[-64,-22],[29,-32],[24,-53],[8,-40],[49,-12],[22,5],[32,-33],[22,-2],[51,-26]],[[1251,3360],[29,-14],[15,-52],[14,-11],[103,-18],[-17,-83],[-27,-32],[-38,-24],[-20,-38],[9,-57],[28,-35],[10,-48],[-76,-10],[-114,6],[-147,48],[-46,22]],[[974,3014],[-51,54],[-34,26],[3,34],[-15,45],[-27,-1]],[[850,3172],[-4,35],[41,14],[17,40],[-9,56],[-17,20],[-56,1],[-3,60],[21,59],[-10,54],[-45,-13],[-27,-37],[-32,-16],[-14,-43],[-65,36]],[[647,3438],[-12,32],[12,33],[-5,39],[-20,26],[15,62],[27,19],[51,-9],[60,32],[74,58],[73,0],[60,-31],[30,8],[19,-20],[39,14]],[[1867,4604],[-4,23],[12,44],[-1,44],[32,0],[5,37],[35,18],[4,18],[50,59],[90,58],[40,30],[19,39],[-8,18],[-71,-3],[-11,17],[19,32],[-24,24],[-14,45],[24,13],[-13,58],[-18,6],[-16,38],[-35,4],[-24,-24],[-32,26],[-30,8],[-17,48]],[[2875,4949],[44,-249],[10,-30],[-20,-34],[12,-122],[20,1],[42,-47],[-7,-15],[20,-39],[-51,-35],[8,-30],[58,-73],[23,-57],[-18,-43],[-101,-67]],[[2915,4109],[-26,-5],[-43,-28],[-23,-31],[-29,-8]],[[2794,4037],[-58,12],[-44,0],[-7,20],[-45,-14],[-26,-19],[-56,32],[-36,1],[-18,40],[4,28],[-48,52],[-51,3],[-38,-11],[-66,31],[-30,-37],[-2,-39],[-19,-29],[-6,-42],[-38,-28],[-2,-35],[-51,-69],[12,-23],[-67,-26],[-47,3],[-43,-27],[-54,52],[-75,-17],[-27,-17],[-16,-45]],[[1840,3833],[-16,38],[-5,54],[9,55],[21,28],[22,2],[-14,44],[2,28],[40,47],[-2,65],[-24,14],[-37,-13],[-18,15],[35,119],[7,65],[27,36],[-8,31],[-28,46],[24,57],[-8,40]],[[3002,3881],[22,4],[120,-24],[95,-27],[69,9],[164,-23],[50,4],[19,19],[49,24],[40,1],[56,38],[124,-45],[14,24]],[[3824,3885],[53,17]],[[3877,3902],[53,16],[29,-25],[19,-48],[14,-11]],[[3992,3834],[-73,-17],[-135,2],[-39,-27],[-63,-134],[-32,-111],[-14,-19],[-87,-41],[-280,-40],[-143,8],[-64,-6],[-123,2],[-74,-20]],[[2865,3431],[137,450]],[[3681,4703],[-42,-44],[-92,-67],[-6,-35],[-21,-24],[-27,-62],[9,-22],[83,11],[174,-32]],[[3759,4428],[28,-32],[69,-98],[32,-74]],[[3888,4224],[-87,-29],[-97,-66],[4,-21],[36,-64],[29,-70],[51,-89]],[[3002,3881],[48,158],[-49,46],[-26,-10],[-60,34]],[[850,3172],[-58,-2],[-6,-31],[-33,4],[-18,18]],[[735,3161],[-6,67],[18,29],[-27,45],[10,47],[-31,40],[-30,14],[-22,35]],[[4467,4680],[19,11],[273,7],[18,9]],[[4777,4707],[-15,-54],[-1,-56],[19,-30],[-8,-17],[0,-79],[18,-16],[5,-49],[-5,-52],[-20,-64],[-21,-2],[-17,43],[-36,5],[-26,-16],[2,-55],[11,-42],[27,-39],[10,-33],[-8,-35],[-28,-4],[-15,-25],[-5,-44],[-29,-54],[-37,-16],[-13,-18]],[[4585,3955],[-31,41],[-48,11],[-63,101]],[[4443,4108],[17,66],[-3,43],[27,82],[-12,42],[22,102],[-4,66],[11,24],[-34,147]],[[2864,753],[15,46],[15,82],[31,78],[13,50],[50,19],[53,46],[13,89],[2,51],[37,-35],[72,55],[23,26],[22,81],[1,169],[-6,75],[26,0],[42,-63],[44,-19],[38,-2],[27,-15],[69,-101],[15,-41],[-15,-53],[-39,-71],[-30,-41],[-25,-72],[-7,-75],[15,-63],[32,-42],[35,8],[34,25],[15,-37],[-18,-10],[21,-70],[45,-21],[23,-23],[4,-96],[-30,-51],[-52,-24],[-77,-10],[-66,-19],[-168,-6],[-92,-21],[-62,3],[-57,25],[-58,36],[-24,39],[-6,78]],[[3903,4660],[45,-5],[111,-28],[330,22]],[[4389,4649],[43,7],[35,24]],[[4443,4108],[-114,-100],[-106,-53]],[[4223,3955],[-44,15],[3,23],[92,111],[8,37],[55,128],[-228,-28]],[[4109,4241],[-49,12],[-172,-29]],[[3759,4428],[75,247]],[[4286,5120],[7,46]],[[4293,5166],[83,20],[63,33],[114,0],[2,75],[-36,57],[82,10],[26,32]],[[4627,5393],[41,-42],[115,-41],[30,-23],[-30,-33],[-59,-85],[26,-57],[49,-35],[-3,-35],[23,-36],[-6,-24],[18,-102],[-8,-40],[10,-25],[-27,-41],[-29,-67]],[[4389,4649],[-14,47],[-1,40],[-30,168],[-31,46],[-1,56],[-21,57],[-5,57]],[[4668,5615],[-62,-60],[2,-58]],[[4608,5497],[-124,61],[-36,43],[-70,22]],[[4378,5623],[2,37],[-64,32],[-63,-18],[-13,10],[-131,42],[-59,24],[-43,-13],[-20,12],[-93,4],[-95,-10]],[[749,2829],[26,-28],[11,-36]],[[786,2765],[-59,-29],[11,-43],[63,-29],[40,3],[64,49],[93,17],[78,41],[96,22],[23,19],[51,16],[28,-4],[55,11],[87,-9],[98,18],[23,20],[131,67],[63,15]],[[1731,2949],[-3,-102],[6,-141]],[[1734,2706],[-99,-23],[-77,-28],[-39,-22],[-73,28],[-80,9],[-439,-93],[-92,-32],[-126,-37],[-156,-75],[-76,-56],[-22,7],[6,53],[-41,23],[-56,-4],[-139,-57],[-53,0],[12,51],[16,149],[-67,60]],[[133,2659],[15,41],[98,-50],[74,-44],[78,-31],[89,18],[54,45],[41,57],[30,13],[72,50],[65,71]],[[5754,4953],[60,-53]],[[5814,4900],[-47,-51],[-18,-33],[2,-78]],[[5751,4738],[-17,-3],[7,-71],[-36,-11]],[[5705,4653],[-14,15],[-65,19],[-37,39],[-3,33],[31,79],[-31,47],[48,42],[13,33],[40,8],[67,-15]],[[5921,5372],[103,-88]],[[6024,5284],[-13,-66],[6,-111],[-25,-94],[-33,-56]],[[5959,4957],[-45,5],[-31,-7],[-16,53],[50,8],[0,34],[-69,55],[14,54],[-19,34],[19,27],[50,-30],[16,46],[-23,30],[-32,16],[24,54],[24,36]],[[5739,7824],[20,19]],[[5759,7843],[327,-163]],[[6086,7680],[-21,-226]],[[6065,7454],[-24,-40],[-4,-73]],[[6037,7341],[-45,5],[-17,53]],[[5975,7399],[-36,44],[-77,18],[-96,78],[-19,31],[1,84],[-7,27],[3,129],[-5,14]],[[5297,7376],[80,68],[30,112]],[[5407,7556],[24,16],[184,150]],[[5615,7722],[11,-11],[3,-87],[9,-66],[-9,-113],[8,-30]],[[5637,7415],[-18,-11],[-10,-53],[-33,-22],[-45,-17],[-135,-36]],[[5396,7276],[-93,92]],[[5637,7415],[54,-18],[284,2]],[[6037,7341],[21,-48],[-2,-54]],[[6056,7239],[-17,-90],[-47,-66]],[[5992,7083],[-12,-34],[-200,-197],[-129,-118]],[[5651,6734],[-20,81]],[[5518,7144],[-122,132]],[[5615,7722],[6,6]],[[5621,7728],[71,58]],[[5692,7786],[47,38]],[[6065,7454],[95,-107],[27,6],[44,-30],[-1,-21]],[[6230,7302],[-4,-44],[-111,-1],[-59,-18]],[[6086,7680],[228,-115],[339,-454],[176,-255]],[[6829,6856],[-20,-29]],[[6809,6827],[-320,99],[-12,53],[-20,22],[-49,141],[-39,-9]],[[6369,7133],[-43,76],[-34,32],[9,59],[-71,2]],[[6369,7133],[-117,-20]],[[6252,7113],[-234,-38],[-26,8]],[[6241,6710],[18,-62],[-7,-43],[-19,-26],[-32,13],[-37,-18],[-53,-7]],[[6111,6567],[-9,117],[83,21],[56,5]],[[6241,6710],[80,21]],[[6321,6731],[13,-71],[135,18],[24,36],[25,-16],[221,27]],[[6739,6725],[-30,-44],[-4,-57],[-64,-85],[-232,-245],[-52,-42],[-90,4]],[[6267,6256],[-42,41],[-45,90],[-28,11],[-42,-8]],[[6110,6390],[1,177]],[[6809,6827],[-70,-102]],[[6321,6731],[-29,152],[-40,230]],[[6110,6390],[-79,-15]],[[6031,6375],[-16,-3],[-47,-49],[-37,-19],[-66,-1],[-43,17],[-40,39],[-26,37],[-35,75],[-19,58],[-51,205]],[[5182,7863],[188,18],[-12,-39],[37,-19]],[[5395,7823],[15,-37]],[[5410,7786],[-28,-82],[25,-40],[0,-108]],[[5169,7602],[13,261]],[[5621,7728],[-84,24],[-87,2],[-8,20],[-32,12]],[[5395,7823],[12,44],[71,24],[130,-5],[55,-51],[29,-49]],[[5046,9140],[57,10],[33,36]],[[5136,9186],[-14,-32],[28,-23],[-8,-44]],[[5142,9087],[-110,-17]],[[5032,9070],[-36,36]],[[4996,9106],[50,34]],[[4984,9233],[29,10]],[[5013,9243],[59,26],[22,-3],[29,-29],[15,-41]],[[5138,9196],[-2,-10]],[[5046,9140],[-62,93]],[[4912,9211],[72,22]],[[4996,9106],[-44,28],[8,22],[-48,55]],[[4911,9210],[1,1]],[[5032,9070],[-111,-18]],[[4921,9052],[-35,122],[25,36]],[[4246,10357],[116,-69],[15,-96],[-12,-16],[124,-125]],[[4489,10051],[25,-35],[23,-75],[18,-91],[16,-32],[75,-94]],[[4646,9724],[-21,-13]],[[4625,9711],[-67,74],[-17,32],[-85,33],[-4,25],[-35,37],[-64,20],[-4,37],[-27,62],[6,25],[-96,52],[-44,52],[-85,22]],[[4103,10182],[143,175]],[[4584,9001],[44,7]],[[4628,9008],[115,17]],[[4743,9025],[20,-103]],[[4763,8922],[24,-116]],[[4787,8806],[-122,18]],[[4665,8824],[-50,6]],[[4615,8830],[-52,58]],[[4563,8888],[-10,29],[19,21],[12,63]],[[4221,8749],[43,47],[-8,11]],[[4256,8807],[82,17]],[[4338,8824],[21,4]],[[4359,8828],[10,-42],[19,5],[49,-21],[43,-7],[21,-22]],[[4501,8741],[-175,-138]],[[4326,8603],[-41,-33]],[[4285,8570],[-4,37],[10,62],[-25,31],[-27,-6],[-18,55]],[[786,2765],[42,71],[-1,15],[60,9],[20,12],[23,39],[15,61],[29,42]],[[1251,3360],[-4,54],[44,25],[46,43],[22,-34],[36,42],[12,31],[50,33],[22,41],[75,-4],[-1,-25],[29,-33],[138,-44]],[[1720,3489],[9,-312],[2,-228]],[[4077,3872],[57,28],[3,12],[86,43]],[[4585,3955],[-22,-19],[-29,21],[-28,0],[-84,-60],[9,-31],[-6,-80],[29,-71],[-2,-108],[-31,-22],[3,-23],[-61,-45],[0,-52],[-25,-25],[-33,-2],[-21,-32]],[[4284,3406],[-52,20],[-79,19],[25,59],[14,88],[0,73],[-28,75],[3,89],[-4,33],[-86,10]],[[1720,3489],[37,-17],[0,54],[38,31],[3,37],[-37,25],[-29,55],[8,37],[32,53],[-1,47],[41,26],[28,-4]],[[2794,4037],[-70,-27],[-90,-57],[-21,-28],[-16,-52],[-55,-61],[-15,-68],[8,-66],[21,-38],[7,-33],[44,-83],[19,-85],[-26,-61],[-19,-87],[-19,-9],[-16,-85],[4,-72],[59,-9],[38,-18],[8,-23],[-30,-16],[-5,-38],[7,-46]],[[2627,2975],[-17,7],[-96,-28],[-331,-103],[-90,-32],[-56,-36],[-72,-56],[-58,-26],[-66,-6],[-55,15],[-52,-4]],[[3992,3834],[5,-39],[27,-11]],[[4024,3784],[-16,-76],[-60,1],[-16,-116],[-94,-261],[-87,-104]],[[3751,3228],[-69,0],[-62,-41],[-50,-2],[-66,15],[-31,-2],[-135,-31],[-78,-12],[-120,-30],[-74,-29],[-259,-37],[-62,-20]],[[2745,3039],[7,16],[113,376]],[[4877,6432],[30,-21],[2,-60],[-7,-85],[8,-52]],[[749,2829],[12,14],[-19,102],[-46,31],[-17,58],[1,75],[55,52]],[[2745,3039],[-74,-30],[-44,-34]],[[4378,5623],[-7,-57],[-21,-66],[8,-41],[-24,-37],[-12,-65],[3,-41],[-37,-33],[6,-45],[-1,-72]],[[4286,5120],[-149,114],[-36,56],[-12,34],[-24,121],[-15,35],[-35,6],[-75,-4],[-15,-19],[-58,-28],[-14,-38],[-47,-16],[-11,24]],[[4116,8744],[46,25],[59,-20]],[[4285,8570],[-36,-26]],[[4249,8544],[-9,23],[-41,-9],[-1,38],[-31,52],[-3,60],[-48,36]],[[4012,8316],[82,-3],[102,42],[68,16]],[[4264,8371],[42,-129],[-5,-73]],[[4301,8169],[-18,-24],[-38,-8],[-25,11],[-9,30],[-62,-2],[-81,9]],[[4068,8185],[-28,28],[-28,103]],[[4085,9714],[46,-155]],[[4131,9559],[173,-602]],[[4304,8957],[-85,-14]],[[4219,8943],[-196,-30]],[[4023,8913],[-186,-29]],[[3837,8884],[-4,125],[-14,52],[-53,110],[-8,71],[26,46],[86,75],[21,26],[20,49],[21,126],[18,39],[42,44],[93,67]],[[3655,10347],[14,-44],[65,-34],[91,-38]],[[3825,10231],[5,-3]],[[3830,10228],[74,-150],[-216,58],[-61,24],[-31,23],[-116,104],[-43,61],[-13,37]],[[3424,10385],[10,33],[42,2],[70,-34],[45,-31],[64,-8]],[[1100,8745],[461,9],[129,8],[193,2],[230,5]],[[2113,8769],[56,-379],[41,-265],[73,-496],[7,-64],[44,-283]],[[1149,7255],[-9,288],[-5,231],[-10,291],[-9,222],[-16,458]],[[4918,7809],[35,55],[221,46]],[[5174,7910],[8,-47]],[[4906,7744],[0,48],[12,17]],[[4840,7799],[19,16],[12,51],[36,13],[34,76]],[[4941,7955],[119,5],[110,-22]],[[5170,7938],[4,-28]],[[4918,7809],[-60,-14],[-18,4]],[[4703,7789],[21,67]],[[4724,7856],[43,-11],[42,-35],[31,-11]],[[4665,7665],[38,124]],[[4607,7875],[50,42],[-9,42]],[[4648,7959],[97,-1]],[[4745,7958],[10,0]],[[4755,7958],[-31,-102]],[[4703,7789],[-28,-2],[-80,11]],[[4595,7798],[-3,27],[15,50]],[[4595,7798],[-105,-11],[-34,23]],[[4456,7810],[20,24],[81,69],[50,-28]],[[4446,8188],[98,13],[9,-29]],[[4553,8172],[14,-15]],[[4567,8157],[5,-71],[19,-52],[6,-46],[27,-28]],[[4624,7960],[-115,22],[-45,65]],[[4464,8047],[-21,16],[7,109],[-4,16]],[[4146,7364],[44,56],[43,26],[71,93],[65,100]],[[4369,7639],[37,-40],[49,-32],[-5,-26],[52,-13]],[[4137,7329],[9,35]],[[4518,8567],[4,-75]],[[4522,8492],[-81,-1]],[[4441,8491],[-8,40]],[[4433,8531],[20,32],[65,4]],[[4522,8492],[11,-89]],[[4533,8403],[-104,7]],[[4429,8410],[-29,5],[7,51],[34,25]],[[4219,8943],[40,-21],[2,-32]],[[4261,8890],[-26,-22],[-64,-1],[4,-72],[81,12]],[[4116,8744],[-10,21],[-15,76],[-37,30],[-31,42]],[[4304,8957],[52,10],[228,34]],[[4563,8888],[-63,-24],[-141,-36]],[[4338,8824],[-17,29],[-41,17],[-19,20]],[[4615,8830],[-78,-60]],[[4537,8770],[-36,-29]],[[4180,7500],[61,239]],[[4241,7739],[9,-37],[20,-19],[51,14],[36,-4]],[[4357,7693],[12,-54]],[[4146,7364],[34,136]],[[4250,7898],[110,29]],[[4360,7927],[-74,-82],[-35,-71],[-10,-35]],[[4180,7500],[-41,23]],[[4139,7523],[35,90],[0,61],[-11,44],[-31,54],[-27,29],[-105,63],[-27,27]],[[3973,7891],[61,9],[44,-25],[67,-8],[55,10],[50,21]],[[3920,7989],[81,23],[82,10],[50,41],[45,18]],[[4178,8081],[56,-30],[19,-41],[-8,-72],[5,-40]],[[3973,7891],[-53,98]],[[4894,9048],[9,-85]],[[4903,8963],[-140,-41]],[[4743,9025],[151,23]],[[4894,9048],[27,4]],[[5032,9070],[28,-27]],[[5060,9043],[-72,-49],[-19,-30]],[[4969,8964],[-15,-28],[-25,-2],[-26,29]],[[5142,9087],[-7,-74],[-16,-13]],[[5119,9000],[-13,-36]],[[5106,8964],[-25,27],[-21,52]],[[5188,9203],[51,7]],[[5239,9210],[-11,-26]],[[5228,9184],[-40,-92]],[[5188,9092],[-23,9],[-4,56],[27,46]],[[5228,9184],[45,-72]],[[5273,9112],[6,-12]],[[5279,9100],[-43,-11],[-48,3]],[[5239,9210],[162,23]],[[5401,9233],[5,-29]],[[5406,9204],[-133,-92]],[[5401,9233],[154,21],[-10,-97]],[[5545,9157],[-42,2],[-98,-28]],[[5405,9131],[1,73]],[[5545,9157],[-11,-96],[20,-66]],[[5554,8995],[-23,-22],[-27,26],[-100,23]],[[5404,9022],[1,109]],[[5138,9196],[50,7]],[[5279,9100],[21,-54]],[[5300,9046],[-78,-18],[-2,-14]],[[5220,9014],[-67,-14],[-34,0]],[[4937,8894],[36,50],[-4,20]],[[5106,8964],[2,-9]],[[5108,8955],[-36,-34]],[[5072,8921],[-11,6],[-90,-17],[-34,-16]],[[4937,8894],[-21,-42],[-13,-81]],[[4903,8771],[-37,-1],[-15,27],[-64,9]],[[4654,9582],[26,-40],[65,-16],[32,-39],[92,-57],[35,-33],[23,5]],[[4927,9402],[54,0],[-25,-68],[-3,-48],[38,-19],[22,-24]],[[4911,9210],[-33,-9],[-48,52],[-35,13],[-22,35],[-125,47]],[[4648,9348],[-32,63],[17,70],[51,-2],[25,25],[-44,36],[-11,42]],[[3672,8859],[165,25]],[[4249,8544],[0,-30],[19,-17]],[[4268,8497],[-47,8],[-62,37],[-75,-19],[-36,-48],[-86,3]],[[3962,8478],[-22,22],[-11,35],[12,92],[18,26],[-51,26],[-89,27],[-50,40],[-44,24],[-49,61],[-4,28]],[[2351,9637],[263,7],[101,0],[382,15]],[[3097,9659],[58,-328],[24,-122],[25,-148]],[[3204,9061],[46,-266]],[[3250,8795],[-376,-11]],[[2874,8784],[-445,-11],[-177,-2]],[[2252,8771],[30,232],[29,57],[-4,104],[21,70],[-10,44],[28,66],[-19,74],[-23,27],[21,137],[26,55]],[[3439,9696],[631,73]],[[4070,9769],[15,-55]],[[3672,8859],[7,68],[-16,44],[-44,37]],[[3619,9008],[46,29],[-5,28],[-37,71],[-17,73],[-28,37],[-20,7],[-10,70],[-44,79],[-31,25],[-10,24],[1,51],[31,20],[-21,87],[-35,87]],[[3400,7995],[40,2],[77,30],[128,12]],[[3645,8039],[40,-22],[117,-29],[42,-4],[76,5]],[[3973,7891],[-23,-1],[-83,18],[-129,-52],[-106,-64],[77,-56],[55,-17],[32,-36],[4,-50],[38,-55],[38,14],[86,-13],[35,2],[50,-38],[35,16],[57,-36]],[[3517,7325],[-14,62],[-87,495],[-16,113]],[[5273,8280],[46,100],[-33,13],[62,111]],[[5348,8504],[43,-9],[45,-23],[14,-26],[-6,-31],[40,2]],[[5484,8417],[-15,-31],[81,-170],[-2,-22]],[[5548,8194],[-72,36],[-156,38]],[[5320,8268],[-47,12]],[[4268,8497],[56,-31],[21,-29],[2,-35],[-91,-6],[8,-25]],[[4012,8316],[-28,59],[-23,-3],[-52,42],[-7,27],[60,37]],[[4625,9711],[31,-49],[-2,-80]],[[4648,9348],[-37,10],[-26,-7],[-37,-37],[-54,-15],[20,-59],[53,-83],[61,-149]],[[4131,9559],[29,126],[23,52],[42,1],[-12,25],[54,-2],[137,-24],[48,-57],[18,-11],[54,4],[66,17],[35,21]],[[4942,8519],[49,6],[21,-21]],[[5012,8504],[33,-45],[5,-35],[-33,-4],[-4,-39]],[[5013,8381],[-56,-6]],[[4957,8375],[-15,144]],[[2113,8769],[139,2]],[[2874,8784],[17,-35],[35,-26],[-36,-52],[-7,-53],[21,-48],[49,-10],[29,-15],[52,-11],[25,-22],[6,-40],[22,-57],[-37,-118],[-3,-36],[-28,-145],[-32,-120],[-7,-137],[77,-159],[43,-101],[8,-47],[-25,-55],[-47,-47],[9,-44],[31,-17],[82,35],[50,4],[22,-24],[-58,-14],[-36,-71],[1,-19]],[[4357,7693],[74,87]],[[4431,7780],[41,-33],[57,-65],[2,-23],[29,-27]],[[5043,8883],[71,-13],[2,-94]],[[5116,8776],[-72,-2]],[[5044,8774],[-83,-2]],[[4961,8772],[82,111]],[[2998,10228],[25,32],[18,83],[15,23],[82,-4],[22,11],[32,39],[71,-10],[26,16],[57,-41],[78,8]],[[3830,10228],[144,-27],[129,-19]],[[4103,10182],[-17,-50],[15,-20],[11,-77],[-12,-35],[11,-37],[-15,-60],[6,-89],[32,-15],[-7,-39],[-29,19],[-28,-10]],[[3439,9696],[-342,-37]],[[3097,9659],[-44,266],[-55,303]],[[2937,10576],[758,21]],[[3695,10597],[-13,-34],[8,-26]],[[3690,10537],[-100,0],[65,-190]],[[2998,10228],[-61,348]],[[4921,9806],[63,-15],[57,13],[11,18],[58,20],[29,-22]],[[5139,9820],[-1,-371]],[[5138,9449],[-47,16],[13,35],[-112,-8]],[[4992,9492],[-19,39],[-15,58],[-25,44],[26,45],[3,25],[-39,81],[-2,16]],[[4921,9800],[0,6]],[[4415,8270],[31,-82]],[[4446,8188],[-111,-12]],[[4335,8176],[-13,9]],[[4322,8185],[33,73],[60,12]],[[5022,8658],[20,-3],[-13,-61],[-62,-3]],[[4967,8591],[-44,14],[-44,-3]],[[4879,8602],[27,55],[44,-4],[72,5]],[[4409,7936],[48,-4],[-13,71],[20,44]],[[4624,7960],[24,-1]],[[4456,7810],[-25,-30]],[[4431,7780],[-3,37],[23,23],[-7,39],[-35,57]],[[5072,8921],[-29,-38]],[[4961,8772],[-58,-1]],[[5108,8955],[40,-48],[18,-55]],[[5166,8852],[18,-71]],[[5184,8781],[-68,-5]],[[5220,9014],[12,-60],[-34,-10],[14,-30],[-33,-19],[16,-24],[-29,-19]],[[5404,9021],[-1,-94]],[[5403,8927],[-98,2]],[[5305,8929],[-5,117]],[[5300,9046],[104,-25]],[[5404,9021],[0,1]],[[5554,8995],[47,-156],[-6,-14]],[[5595,8825],[-66,-7]],[[5529,8818],[22,35],[-17,22],[-132,9],[1,43]],[[5529,8818],[-128,-15]],[[5401,8803],[-90,-10]],[[5311,8793],[-6,136]],[[5311,8793],[-110,-13]],[[5201,8780],[-17,1]],[[3695,10597],[171,14]],[[3866,10611],[-18,-64]],[[3848,10547],[-46,-70]],[[3802,10477],[-65,-1],[-11,38],[-36,23]],[[5144,8075],[60,50],[6,25],[72,-16]],[[5282,8134],[41,-9],[-8,-30],[125,-34],[42,-30],[39,-13],[58,-3],[36,-27],[31,-5]],[[5646,7983],[-9,-34],[19,-54],[103,-52]],[[5170,7938],[83,-16],[-19,74],[-55,61],[-35,18]],[[5138,9449],[0,-253]],[[4927,9402],[-14,46],[44,-7],[46,30],[-11,21]],[[4102,10489],[75,-21],[32,8],[22,-27],[44,-5],[59,21]],[[4334,10465],[-88,-108]],[[4103,10182],[-33,80],[-21,105],[-41,54],[-11,38]],[[3997,10459],[-1,22],[106,8]],[[2240,10557],[13,-41],[-31,-34],[-22,-69],[0,-41],[-15,-25],[8,-90],[1,-76],[42,-94]],[[2236,10087],[-29,8],[-35,-16],[-76,34],[-88,8],[-28,34],[-51,-15],[10,-89],[-55,-29],[-32,42],[-13,-35],[-80,17],[-16,-34],[73,-18],[19,-33],[40,-37],[43,-25],[48,-9],[-4,-86],[-27,-179]],[[1935,9625],[-189,-8],[-676,-16]],[[1070,9601],[-3,289],[-2,45],[-9,581],[271,17],[913,24]],[[3250,8795],[27,-167],[18,-81],[43,-257],[57,-295],[5,0]],[[4301,8169],[21,16]],[[4335,8176],[-23,-15],[-16,-65],[-39,2],[-9,-22],[-70,5]],[[3645,8039],[41,86],[3,27],[31,11],[39,-4],[60,26],[76,-17],[79,0],[94,17]],[[5595,8825],[-77,-193],[70,-103],[-96,-92],[-8,-20]],[[5348,8504],[49,78],[28,62],[-23,24],[-1,135]],[[3802,10477],[-18,-28]],[[3784,10449],[-26,-10],[-24,-40]],[[3734,10399],[-56,-46],[-23,-6]],[[4334,10465],[38,46],[17,117]],[[4389,10628],[616,12],[134,0],[-1,-216],[1,-199]],[[5139,10225],[-11,-12],[-86,-46],[-29,19],[-105,28]],[[4908,10214],[-61,11],[-47,-4],[8,-50],[-32,-82],[-70,17],[-110,-31],[-42,21],[-33,-11],[-32,-34]],[[3250,8795],[422,64]],[[4646,9724],[22,-20],[57,20],[44,50],[57,43],[25,9],[35,-6],[35,-20]],[[3734,10399],[24,-17],[16,-35],[61,-34]],[[3835,10313],[-10,-82]],[[3784,10449],[18,-38]],[[3802,10411],[11,-37],[45,2]],[[3858,10376],[-23,-63]],[[3858,10376],[118,-18],[37,18],[-16,25]],[[3997,10401],[-11,22],[11,36]],[[3802,10411],[26,-11],[21,25]],[[3849,10425],[56,-20],[92,-4]],[[3947,10501],[50,-42]],[[3849,10425],[31,43],[67,33]],[[3848,10547],[91,-1],[34,-13]],[[3973,10533],[-26,-32]],[[3204,9061],[30,-26],[78,-35],[140,-48],[36,-17],[53,78],[60,3],[18,-8]],[[2240,10557],[697,19]],[[2351,9637],[-330,-10]],[[2021,9627],[-19,52],[-20,29],[2,53],[18,51],[-5,51],[16,15],[42,-21],[56,-44],[57,10],[-6,97],[5,19],[51,20],[-1,34],[22,12],[90,-19],[30,29],[17,71],[-19,17],[-22,81],[-16,-62],[-23,-6],[5,-42],[-37,-40],[-28,53]],[[5279,9100],[126,31]],[[4326,8603],[16,-93],[63,-22],[28,43]],[[4429,8410],[-24,-39]],[[4405,8371],[-78,13],[-63,-13]],[[4360,7927],[49,9]],[[4909,8076],[58,36],[87,66]],[[5054,8178],[47,-36],[43,-67]],[[4941,7955],[-32,121]],[[5548,8194],[-16,-78],[6,-32],[59,-28],[22,-43],[27,-30]],[[5282,8134],[25,82],[-12,22],[25,30]],[[2021,9627],[-86,-2]],[[4064,10624],[325,4]],[[4102,10489],[-22,21]],[[4080,10510],[7,12],[-34,32],[-5,48]],[[4048,10602],[16,22]],[[1100,8745],[-11,268],[-19,588]],[[4702,8093],[84,30]],[[4786,8123],[1,0]],[[4787,8123],[77,-74]],[[4864,8049],[-70,-44],[-39,-47]],[[4745,7958],[-10,36],[-37,66]],[[4698,8060],[4,33]],[[4752,8230],[6,10],[73,-7]],[[4831,8233],[-6,-35],[32,-55]],[[4857,8143],[-70,-20]],[[4786,8123],[-10,16],[-24,91]],[[4864,8049],[45,27]],[[4857,8143],[34,10],[18,-77]],[[4909,8348],[69,-116],[28,10]],[[5006,8242],[14,-42],[34,-22]],[[4831,8233],[16,3],[-15,48],[-25,29]],[[4807,8313],[30,25],[72,10]],[[4739,8318],[39,19]],[[4778,8337],[29,-24]],[[4752,8230],[-12,35]],[[4740,8265],[15,29],[-16,24]],[[4773,8418],[13,69]],[[4786,8487],[67,-6],[9,-30]],[[4862,8451],[37,-66]],[[4899,8385],[10,-37]],[[4778,8337],[-18,34]],[[4760,8371],[13,47]],[[4628,8397],[55,17],[90,4]],[[4760,8371],[-59,6],[-55,-21]],[[4646,8356],[-18,41]],[[4570,8302],[34,72],[24,23]],[[4646,8356],[13,-46]],[[4659,8310],[-8,-1]],[[4651,8309],[-81,-7]],[[4739,8318],[-80,-8]],[[4740,8265],[-24,-46]],[[4716,8219],[-33,3]],[[4683,8222],[-15,41]],[[4668,8263],[-17,46]],[[4668,8263],[-38,-34],[-16,5],[-56,-17]],[[4558,8217],[12,85]],[[4567,8157],[79,-33]],[[4646,8124],[29,-22],[23,-42]],[[6724,5960],[11,64]],[[6735,6024],[33,2],[13,18]],[[6781,6044],[82,-25]],[[6863,6019],[66,-31],[58,44],[75,29],[77,42],[29,6],[160,-5],[58,-9],[83,35],[74,11]],[[7543,6141],[-47,-54],[-18,-130],[16,-89],[20,-14],[65,-114],[37,-352]],[[7616,5388],[-312,-80],[-144,-33],[-392,-99]],[[6768,5176],[-39,16],[9,83],[21,31],[-10,14],[-43,0],[-24,47],[31,38],[47,-15],[25,13],[21,115],[-10,39],[1,40],[-54,37],[4,31],[47,49],[0,45],[52,7],[-29,47],[-46,89],[-2,73],[-45,-15]],[[4533,8403],[38,-2]],[[4571,8401],[57,-4]],[[4570,8302],[-88,13]],[[4482,8315],[-32,40],[-45,16]],[[4522,8492],[58,1],[33,15],[48,4]],[[4661,8512],[16,-34],[-92,-53],[-14,-24]],[[4665,8592],[13,-1]],[[4678,8591],[-19,-56]],[[4659,8535],[2,-23]],[[4518,8567],[-2,42],[45,-23],[32,14],[72,-8]],[[4659,8535],[25,-1],[102,-47]],[[4678,8591],[47,-38],[56,33]],[[4781,8586],[25,-51]],[[4806,8535],[-20,-48]],[[4638,8657],[17,10]],[[4655,8667],[20,69],[22,-6]],[[4697,8730],[61,-96],[23,-48]],[[4665,8592],[5,35],[-36,3],[4,27]],[[7107,6505],[35,64],[2,30]],[[7144,6599],[426,-91],[-17,-188],[-10,-179]],[[6863,6019],[34,57],[42,2],[50,72],[38,27],[8,123],[32,123],[40,82]],[[4806,8535],[37,33],[4,80]],[[4847,8648],[32,-46]],[[4967,8591],[-26,-62]],[[4941,8529],[-37,-1],[-29,-19],[8,-55],[-21,-3]],[[5044,8774],[21,-48],[-18,-11],[-25,-57]],[[4847,8648],[12,68],[44,55]],[[5201,8780],[26,-80],[1,-83],[-7,-61]],[[5221,8556],[-1,-16]],[[5220,8540],[-113,-15],[-95,-21]],[[4942,8519],[-1,10]],[[5220,8540],[-5,-48],[-38,-37],[-52,-76]],[[5125,8379],[-70,6],[-42,-4]],[[4957,8375],[-31,-3],[-27,13]],[[5125,8379],[-27,-42]],[[5098,8337],[-15,-31],[-63,-18],[-14,-46]],[[5348,8504],[-51,59],[-76,-7]],[[5273,8280],[-45,13],[-98,41],[-32,3]],[[1070,3701],[11,295]],[[1081,3996],[51,42],[94,58],[157,166],[202,164],[24,16],[173,99],[85,63]],[[1081,3996],[25,524],[16,367],[10,304]],[[4716,8219],[-18,-89],[4,-37]],[[4646,8124],[37,98]],[[4665,8824],[32,-94]],[[4655,8667],[-47,48],[-71,55]],[[4558,8217],[-9,-3]],[[4549,8214],[-16,44],[-58,-18],[-15,35],[-45,-5]],[[4415,8270],[-3,24],[55,6],[15,15]],[[4549,8214],[4,-42]],[[5139,10225],[0,-405]],[[4921,9806],[26,108],[-8,122],[20,73],[0,37],[-51,68]],[[4638,8657],[-119,56],[-18,28]],[[5676,4415],[14,-43],[58,16],[4,-21],[77,5]],[[5829,4372],[161,10]],[[5990,4382],[-4,-14],[10,-83],[-55,-23],[-18,-32],[13,-18],[-16,-76],[-15,-32],[-33,-18],[-62,-6],[-41,40],[-51,1],[-33,-33],[-64,-12],[-18,-24],[-43,-1],[-20,36],[-40,8],[-50,-35],[-81,-22],[-38,35],[-10,82],[-28,18],[-23,43],[25,63],[60,18],[16,27],[73,29],[69,70],[20,38],[36,19],[27,-3],[29,-62],[24,-12],[27,12]],[[4604,7064],[115,-62]],[[4719,7002],[-212,-39],[5,-19]],[[4785,7029],[-27,-17]],[[4758,7012],[-39,-10]],[[5023,6614],[-61,112],[-33,85],[-12,47],[-30,43],[-70,38],[-33,55],[-26,18]],[[6359,6244],[29,-58],[-31,-120],[5,-83]],[[6362,5983],[61,-164],[-31,-87],[-5,-33]],[[6387,5699],[-53,25],[-58,16],[-35,-52],[-51,-4],[-21,8],[-22,35],[-34,4],[-60,29]],[[6053,5760],[0,21],[26,50],[74,189],[-8,20],[12,44],[22,25],[71,21],[33,37],[24,45],[52,32]],[[6267,6256],[-12,-29],[-38,-32],[-89,-4],[-68,12],[-36,30],[-15,34],[-1,39],[26,49],[-3,20]],[[5254,6512],[32,23],[30,-7],[32,15],[48,-21],[36,23],[-20,29],[34,33],[65,5],[42,-33],[6,-39],[31,-30],[28,-62],[-14,-35],[45,-59],[-3,-87],[-42,-10],[28,-25],[67,-17],[74,-8],[76,-52],[59,-79],[31,-72],[-3,-65],[5,-50],[-45,-64],[-25,-95],[-62,-109],[-62,-54],[-62,-25],[-66,15],[-65,80],[-10,48],[3,74],[22,122],[51,41],[-9,29],[40,87],[2,51],[-29,34],[-120,42],[-32,-9],[-33,6],[-29,38],[-21,100],[2,67],[17,40],[22,6],[16,31],[-26,5],[-24,-58],[-57,-31],[-43,40],[-14,65],[-28,47]],[[5186,5795],[35,74],[23,34],[50,23],[57,3],[25,-29],[-6,-49],[-34,-43],[-94,-45],[-56,32]],[[6387,5699],[14,-61],[-1,-65],[15,-98],[-79,-261],[-66,-114]],[[6270,5100],[-144,99],[-102,85]],[[5921,5372],[-58,42]],[[5863,5414],[56,57],[0,61],[-19,94],[21,33],[75,52],[48,55],[9,-6]],[[4608,5497],[-17,-42],[-35,-19],[6,-27],[65,-16]],[[4077,3872],[-47,-51],[-6,-37]],[[3877,3902],[-14,6],[32,68],[18,91],[42,-12],[21,40],[22,-35],[44,-6],[56,23],[21,20],[-10,144]],[[2232,727],[49,230],[33,180],[25,71],[40,69],[90,102],[51,98],[62,85],[10,161],[11,55],[58,157],[102,120],[149,91],[173,84],[204,55],[128,0],[211,-91],[192,-168],[160,-248],[76,-106],[28,-66],[28,-95],[18,-109],[-12,-147],[-39,-115],[70,-98],[40,-120],[16,-88],[-1,-144],[-25,-88],[-85,-202],[-31,-63],[-102,-110],[-60,-45],[-93,-52],[-104,-46],[-75,-17],[-169,-18],[-158,-33],[-236,-16],[-178,18],[-70,20],[-112,50],[-98,57],[-93,66],[-152,135],[-28,28],[-42,69],[-34,83],[-22,86],[-5,115]],[[3751,3228],[56,-21],[-22,-41],[31,-138],[46,-72],[59,-5],[87,58],[52,5],[71,26],[41,-6],[22,48],[-29,51],[1,45],[34,51],[40,87],[6,42],[38,48]],[[5147,6392],[-9,-44],[-5,-86],[-43,-59],[-3,-27],[15,-58],[-13,-65],[2,-123],[-16,-101],[5,-92],[-61,-205],[-37,-151],[-12,-67],[-27,-338],[3,-112],[-14,-42],[-56,-63],[-33,-48],[-14,-67],[26,-77],[20,-86],[6,-73],[-13,-115],[-198,-353],[-299,-721],[-135,-215],[-47,-63],[-34,-28],[-240,-414],[-28,-56]],[[3887,2443],[-167,12],[-169,44],[-128,42],[-179,54],[-96,-48],[-127,-48],[-258,-76],[-75,-14],[-39,-19],[-203,-72],[-26,-3],[-127,-87],[-219,-74],[-105,-22],[-58,-2],[-81,6],[-34,-17],[-92,-32],[-65,-16],[-257,-14],[-123,10],[-128,-34],[0,-255],[5,-757],[-1,-1],[-619,758],[-40,42],[-208,260],[-268,325],[55,95],[13,39],[65,120]],[[5932,4869],[27,88]],[[6270,5100],[-1,-1]],[[6269,5099],[-103,-141],[-70,-48],[-97,-33]],[[5999,4877],[-67,-24],[0,16]],[[6362,5983],[39,22],[56,-18],[13,61],[79,-9]],[[6549,6039],[-11,-13],[-1,-138],[-14,-76],[-7,-85],[11,-22],[-8,-37],[54,-106],[31,-24],[-14,-36],[0,-77],[-21,-60],[3,-62],[32,-27],[-3,-47],[-15,-67],[13,-23],[-11,-26],[0,-58],[17,-18],[40,-6],[22,-40],[-22,-104],[-21,-28],[-10,-50]],[[6614,4809],[-29,12],[-316,278]],[[5999,4877],[39,-115],[1,-35],[-23,-4],[-33,-42],[7,-42]],[[5990,4639],[-60,74]],[[5930,4713],[-20,27]],[[5910,4740],[-85,143]],[[5825,4883],[107,-14]],[[6614,4809],[-15,-9],[-19,-43],[-27,-30],[1,-27],[-23,-60],[-54,-69],[-5,-39],[24,-22],[57,12],[21,-27],[-9,-71],[-46,-71],[-33,-3],[-14,-30],[-43,-6],[-15,21],[4,48],[21,49],[-19,24],[-52,33],[-95,28],[-24,-70],[-61,-48],[-30,-2],[-22,21],[-31,63],[-30,31],[-27,-4]],[[6048,4508],[34,13],[-92,118]],[[5727,4498],[57,56]],[[5784,4554],[35,11]],[[5819,4565],[-11,-59]],[[5808,4506],[3,-61],[18,-73]],[[5676,4415],[62,15],[-11,68]],[[6782,6326],[10,93],[42,100]],[[6834,6519],[64,-8],[91,-21],[17,31],[101,-16]],[[6781,6044],[-13,33],[-24,9]],[[6744,6086],[31,174],[7,66]],[[6724,5960],[-26,8],[-5,43],[42,13]],[[6359,6244],[45,36],[32,15],[48,4],[54,-8],[46,63],[43,16],[15,49],[29,51],[38,25],[38,-12],[10,-33],[-11,-63],[26,-28],[10,-33]],[[6744,6086],[-37,-23],[-118,-12],[-40,-12]],[[5825,4883],[-11,17]],[[5754,4953],[-65,77],[18,40],[94,381],[62,-37]],[[5910,4740],[-66,-40],[16,-50],[-79,-62]],[[5781,4588],[-20,12],[-10,138]],[[5781,4588],[3,-34]],[[5727,4498],[-17,2],[-5,-49],[-44,-20],[-39,32],[-5,43],[7,67],[17,21],[32,11],[24,-18],[8,66]],[[5492,4619],[24,43],[41,3],[23,-43],[-13,-41],[-33,-11],[-34,12],[-8,37]],[[7616,5388],[53,-474],[18,-279],[7,-32]],[[7694,4603],[-86,-7],[-22,-9],[-56,-44],[20,-69],[-11,-28],[-56,-68],[-38,-5],[-10,-18],[-117,3],[-28,-49],[-49,-16],[15,-86],[-45,-27],[-68,-8],[-74,1],[-65,-39],[-47,-12],[-41,32],[-25,59],[12,68],[28,30],[4,65],[28,39],[-2,54],[-74,83],[-2,60],[-50,17],[-11,50],[25,101],[24,53],[-35,27],[-3,58],[-32,54],[1,49],[31,97],[-5,21],[-62,37]],[[6928,6716],[27,-38],[193,-42],[-4,-37]],[[6834,6519],[45,72],[35,111],[14,14]],[[5930,4713],[-3,-52],[-43,-11],[28,-44],[-45,-42],[-29,20],[-19,-19]],[[6048,4508],[-40,-19]],[[6008,4489],[-40,14],[-12,23],[-48,-6],[-60,-24],[-40,10]],[[6008,4489],[-20,-15],[2,-92]],[[6829,6856],[99,-140]],[[7694,4603],[-12,-27],[46,-95],[272,-614],[-151,-107],[-149,-100],[-52,-21],[-1225,-389],[-81,-31],[-1136,-416],[-1030,-304],[-30,-19],[-116,-42],[-115,0],[-28,5]],[[4882,4617],[35,-44],[-3,-47],[26,-27],[10,-79],[-3,-80],[21,-46],[-44,-52],[-16,-47],[-3,-94],[-6,-31],[33,-39],[43,-4],[33,43],[70,45],[16,30],[2,75],[60,9],[25,74],[-4,30],[48,0],[58,28],[120,14],[42,65],[-14,27],[-40,8],[-12,42],[-54,85],[4,36],[39,21],[40,41],[6,32],[-17,48],[-33,26],[-42,7],[-4,18],[34,57],[19,67],[-3,36],[-37,128],[49,100],[7,49],[-33,132],[-11,67],[-39,46],[-55,9],[-50,-13],[-22,-17],[-31,-50],[-26,-56],[0,-33],[-30,-12],[-12,-22],[-2,-96],[-10,-15],[-1,-121],[-22,-21],[-41,-131],[7,-101],[17,-24],[103,-91],[-46,-53],[-20,-52],[-46,-17],[-10,24],[-59,-12],[3,30],[66,39],[0,34],[-17,43],[-72,7],[-45,-39],[-1,-106]],[[5437,5080],[6,-81],[17,-20],[74,-11],[24,29],[6,75],[-40,74],[-26,9],[-44,-12],[-17,-63]],[[3866,10611],[131,11],[67,2]],[[4048,10602],[-30,-16],[-33,15],[-11,-20],[-1,-48]],[[4080,10510],[-23,7],[-66,-10],[-18,26]]],"transform":{"scale":[0.00010233587499999964,0.00008674473684210462],"translate":[-71.907258,41.095834]},"objects":{"Tract_44_2020":{"type":"GeometryCollection","geometries":[{"arcs":[[0,1,2,3,4]],"type":"Polygon","properties":{"id":"14000US44003021002"}},{"arcs":[[-3,5,6,7,8,9,10,11]],"type":"Polygon","properties":{"id":"14000US44003021300"}},{"arcs":[[12,13,14,15,16,17,-11,18,19,20,21,22]],"type":"Polygon","properties":{"id":"14000US44003021100"}},{"arcs":[[23,24,25,26,27,28]],"type":"Polygon","properties":{"id":"14000US44003020904"}},{"arcs":[[29,30,31,32,33,34]],"type":"Polygon","properties":{"id":"14000US44003020200"}},{"arcs":[[35,36,37,-29,38,39,40]],"type":"Polygon","properties":{"id":"14000US44003020903"}},{"arcs":[[41,-5,42,-17]],"type":"Polygon","properties":{"id":"14000US44003021001"}},{"arcs":[[43,44,45,-20]],"type":"Polygon","properties":{"id":"14000US44003980000"}},{"arcs":[[46,-35,47,48,49,50]],"type":"Polygon","properties":{"id":"14000US44003020604"}},{"arcs":[[51,52,53,54,-51,55,56]],"type":"Polygon","properties":{"id":"14000US44003020601"}},{"arcs":[[57,58,59,60,-41,61,62]],"type":"Polygon","properties":{"id":"14000US44003020800"}},{"arcs":[[63,64,65,66,67,68]],"type":"Polygon","properties":{"id":"14000US44003022000"}},{"arcs":[[69,70,-31,71,-54]],"type":"Polygon","properties":{"id":"14000US44003020400"}},{"arcs":[[72,73,-57,74,75,-60,76]],"type":"Polygon","properties":{"id":"14000US44003020703"}},{"arcs":[[-56,-50,77,-75]],"type":"Polygon","properties":{"id":"14000US44003020602"}},{"arcs":[[-34,78,79,80,-48]],"type":"Polygon","properties":{"id":"14000US44003020102"}},{"arcs":[[81,82,83,84,85,86]],"type":"Polygon","properties":{"id":"14000US44003021800"}},{"arcs":[[87,-66,88,89,90,91,-26]],"type":"Polygon","properties":{"id":"14000US44003022400"}},{"arcs":[[92,-85,93,94,95,96]],"type":"Polygon","properties":{"id":"14000US44003021502"}},{"arcs":[[97,-22,98,-69,99,100]],"type":"Polygon","properties":{"id":"14000US44003022100"}},{"arcs":[[101,102,-23,-98,103,-79,-33]],"type":"Polygon","properties":{"id":"14000US44003022300"}},{"arcs":[[104,105,-58,106]],"type":"Polygon","properties":{"id":"14000US44003020701"}},{"arcs":[[107,108,-77,-59,-106]],"type":"Polygon","properties":{"id":"14000US44003020702"}},{"arcs":[[109,-97,110,111,-90]],"type":"Polygon","properties":{"id":"14000US44003021600"}},{"arcs":[[-100,-68,112,-24,113]],"type":"Polygon","properties":{"id":"14000US44003022201"}},{"arcs":[[114,-102,-32,-71]],"type":"Polygon","properties":{"id":"14000US44003020500"}},{"arcs":[[-72,-30,-47,-55]],"type":"Polygon","properties":{"id":"14000US44003020300"}},{"arcs":[[-19,-10,115,-82,116,-44]],"type":"Polygon","properties":{"id":"14000US44003021401"}},{"arcs":[[-81,117,-37,118]],"type":"Polygon","properties":{"id":"14000US44003020101"}},{"arcs":[[-78,-49,-119,-36,-61,-76]],"type":"Polygon","properties":{"id":"14000US44003020603"}},{"arcs":[[-43,-4,-12,-18]],"type":"Polygon","properties":{"id":"14000US44003021200"}},{"arcs":[[-113,-67,-88,-25]],"type":"Polygon","properties":{"id":"14000US44003020901"}},{"arcs":[[119,-83,-116,-9]],"type":"Polygon","properties":{"id":"14000US44003021402"}},{"arcs":[[-62,-40,120,121,122,123,124,125,126,127,128]],"type":"Polygon","properties":{"id":"14000US44009050500"}},{"arcs":[[129,130,131,-27]],"type":"Polygon","properties":{"id":"14000US44009050103"}},{"arcs":[[132,133,134,135,136]],"type":"Polygon","properties":{"id":"14000US44009050901"}},{"arcs":[[137,-127,138,139,140,141]],"type":"Polygon","properties":{"id":"14000US44009050600"}},{"arcs":[[142,143,144,145,146]],"type":"Polygon","properties":{"id":"14000US44009051304"}},{"arcs":[[-126,147,148,149,-143,150,-139]],"type":"Polygon","properties":{"id":"14000US44009051306"}},{"arcs":[[-136,151,152]],"type":"Polygon","properties":{"id":"14000US44009050801"}},{"arcs":[[153,154,155,156]],"type":"Polygon","properties":{"id":"14000US44009051502"}},{"arcs":[[157]],"type":"Polygon","properties":{"id":"14000US44009041500"}},{"arcs":[[-124,158,159,-157,160,161,162,-149,163]],"type":"Polygon","properties":{"id":"14000US44009051305"}},{"arcs":[[164,165,166,-154,-160,167]],"type":"Polygon","properties":{"id":"14000US44009050402"}},{"arcs":[[-28,-132,168,169,170,-121,-39]],"type":"Polygon","properties":{"id":"14000US44009050102"}},{"arcs":[[171,172,173,174,175]],"type":"Polygon","properties":{"id":"14000US44009051000"}},{"arcs":[[176,177,178,179]],"type":"Polygon","properties":{"id":"14000US44005041200"}},{"arcs":[[180,181,182]],"type":"Polygon","properties":{"id":"14000US44005040303"}},{"arcs":[[183,184,185,186,187,188]],"type":"Polygon","properties":{"id":"14000US44001030300"}},{"arcs":[[189,190,191,192,193,-7]],"type":"Polygon","properties":{"id":"14000US44001030100"}},{"arcs":[[-193,194,-188,195,196,197,198,-95,199]],"type":"Polygon","properties":{"id":"14000US44001030400"}},{"arcs":[[200,201,202,-189,-195,-192]],"type":"Polygon","properties":{"id":"14000US44001030200"}},{"arcs":[[203,204,-196,-187]],"type":"Polygon","properties":{"id":"14000US44001030500"}},{"arcs":[[205,206,207,208,-204,-186]],"type":"Polygon","properties":{"id":"14000US44001030601"}},{"arcs":[[-205,-209,209,210,-197]],"type":"Polygon","properties":{"id":"14000US44001030602"}},{"arcs":[[211,212]],"type":"Polygon","properties":{"id":"14000US44001030700"}},{"arcs":[[-212,213,214,215,216,217]],"type":"Polygon","properties":{"id":"14000US44001030800"}},{"arcs":[[-210,-208,218,-215,219]],"type":"Polygon","properties":{"id":"14000US44001030901"}},{"arcs":[[-198,-211,-220,-214,-213,-218,220,221]],"type":"Polygon","properties":{"id":"14000US44001030902"}},{"arcs":[[222,223,224,-190,-6,-2,225]],"type":"Polygon","properties":{"id":"14000US44007010600"}},{"arcs":[[-202,226,-224,227]],"type":"Polygon","properties":{"id":"14000US44007010701"}},{"arcs":[[-227,-201,-191,-225]],"type":"Polygon","properties":{"id":"14000US44007010702"}},{"arcs":[[228,229,230,231,232]],"type":"Polygon","properties":{"id":"14000US44007010800"}},{"arcs":[[233,234,235,-229,236]],"type":"Polygon","properties":{"id":"14000US44007010900"}},{"arcs":[[237,-237,-233,238]],"type":"Polygon","properties":{"id":"14000US44007011000"}},{"arcs":[[239,-239,-232,240,241]],"type":"Polygon","properties":{"id":"14000US44007011100"}},{"arcs":[[242,243,244,245,246]],"type":"Polygon","properties":{"id":"14000US44007011403"}},{"arcs":[[247,248,249,250,251,252,253,254]],"type":"Polygon","properties":{"id":"14000US44007011800"}},{"arcs":[[255,256,257,258,259,260,261]],"type":"Polygon","properties":{"id":"14000US44007012000"}},{"arcs":[[262,-134,263,264,-173]],"type":"Polygon","properties":{"id":"14000US44009050902"}},{"arcs":[[265,-161,-156,266,267]],"type":"Polygon","properties":{"id":"14000US44009051503"}},{"arcs":[[268,-141,269,270,-174,-265]],"type":"Polygon","properties":{"id":"14000US44009051101"}},{"arcs":[[-146,271,272,273,274]],"type":"Polygon","properties":{"id":"14000US44009051302"}},{"arcs":[[-92,275,-130]],"type":"Polygon","properties":{"id":"14000US44009050104"}},{"arcs":[[-152,-135,-263,-172,276]],"type":"Polygon","properties":{"id":"14000US44009050802"}},{"arcs":[[-140,-151,-147,-275,277,-270]],"type":"Polygon","properties":{"id":"14000US44009051102"}},{"arcs":[[-122,-171,278,-165,279]],"type":"Polygon","properties":{"id":"14000US44009050301"}},{"arcs":[[-280,-168,-159,-123]],"type":"Polygon","properties":{"id":"14000US44009050401"}},{"arcs":[[280,-262,281,282]],"type":"Polygon","properties":{"id":"14000US44007012102"}},{"arcs":[[283,284,285,286]],"type":"Polygon","properties":{"id":"14000US44007012402"}},{"arcs":[[287,288,289,290,291,292]],"type":"Polygon","properties":{"id":"14000US44007012602"}},{"arcs":[[293,294,295,296]],"type":"Polygon","properties":{"id":"14000US44007012802"}},{"arcs":[[297,298,-108,-105,299]],"type":"Polygon","properties":{"id":"14000US44007013300"}},{"arcs":[[300,301,-226,-1,302]],"type":"Polygon","properties":{"id":"14000US44007013400"}},{"arcs":[[303,304,305,-301,306]],"type":"Polygon","properties":{"id":"14000US44007013500"}},{"arcs":[[307,308,-307,-303,-42,-16,309]],"type":"Polygon","properties":{"id":"14000US44007013600"}},{"arcs":[[310,311,312,313,-308,314,315]],"type":"Polygon","properties":{"id":"14000US44007013701"}},{"arcs":[[-316,316,317]],"type":"Polygon","properties":{"id":"14000US44007013702"}},{"arcs":[[318,319,320,321,322]],"type":"Polygon","properties":{"id":"14000US44007014100"}},{"arcs":[[323,324,-13,-103,325]],"type":"Polygon","properties":{"id":"14000US44007014200"}},{"arcs":[[326,327,328,329]],"type":"Polygon","properties":{"id":"14000US44007002101"}},{"arcs":[[-328,330,331,332]],"type":"Polygon","properties":{"id":"14000US44007002102"}},{"arcs":[[-291,333,334,-256,-281,335]],"type":"Polygon","properties":{"id":"14000US44007012104"}},{"arcs":[[-290,336,-255,337,-258,338,-334]],"type":"Polygon","properties":{"id":"14000US44007011902"}},{"arcs":[[-338,-254,339,340,-259]],"type":"Polygon","properties":{"id":"14000US44007011901"}},{"arcs":[[-339,-257,-335]],"type":"Polygon","properties":{"id":"14000US44007012103"}},{"arcs":[[341,342,343,-324,344]],"type":"Polygon","properties":{"id":"14000US44007014400"}},{"arcs":[[345,346,-342,347,348,349]],"type":"Polygon","properties":{"id":"14000US44007014502"}},{"arcs":[[350,351,-350,352]],"type":"Polygon","properties":{"id":"14000US44007014800"}},{"arcs":[[353,354,-250,355]],"type":"Polygon","properties":{"id":"14000US44007015000"}},{"arcs":[[356,-241,357,358,359,-354]],"type":"Polygon","properties":{"id":"14000US44007015100"}},{"arcs":[[-231,360,361,362,-358]],"type":"Polygon","properties":{"id":"14000US44007015200"}},{"arcs":[[363,364,365,366]],"type":"Polygon","properties":{"id":"14000US44007015300"}},{"arcs":[[-366,367,368,369]],"type":"Polygon","properties":{"id":"14000US44007015400"}},{"arcs":[[370,371,372,-368,-365]],"type":"Polygon","properties":{"id":"14000US44007015500"}},{"arcs":[[373,374,375,-372]],"type":"Polygon","properties":{"id":"14000US44007015700"}},{"arcs":[[-375,376,377,378]],"type":"Polygon","properties":{"id":"14000US44007015800"}},{"arcs":[[-361,-230,-236,379,-367,-370,380,381,382]],"type":"Polygon","properties":{"id":"14000US44007016000"}},{"arcs":[[383,-359,-363,384,385,386]],"type":"Polygon","properties":{"id":"14000US44007016100"}},{"arcs":[[-355,-360,-384,387,388,-251]],"type":"Polygon","properties":{"id":"14000US44007016300"}},{"arcs":[[389,390,-234,-238,-240,391,392]],"type":"Polygon","properties":{"id":"14000US44007011701"}},{"arcs":[[393,-292,-336,-283,394,395,396]],"type":"Polygon","properties":{"id":"14000US44007012300"}},{"arcs":[[397,398,399,400,401,402]],"type":"Polygon","properties":{"id":"14000US44007013102"}},{"arcs":[[403,404,-293,-394,405,406]],"type":"Polygon","properties":{"id":"14000US44007012601"}},{"arcs":[[407,408,-353,409,-348,-345,-326,-115,-70,-53,410]],"type":"Polygon","properties":{"id":"14000US44007014600"}},{"arcs":[[-349,-410]],"type":"Polygon","properties":{"id":"14000US44007014501"}},{"arcs":[[411,412,413,414,415]],"type":"Polygon","properties":{"id":"14000US44007010300"}},{"arcs":[[-396,416,-284,417]],"type":"Polygon","properties":{"id":"14000US44007012401"}},{"arcs":[[418,-393,419,-248,-337,-289,420]],"type":"Polygon","properties":{"id":"14000US44007011600"}},{"arcs":[[421,422,423,424]],"type":"Polygon","properties":{"id":"14000US44007003601"}},{"arcs":[[425,-402,426,-73,-109,-299]],"type":"Polygon","properties":{"id":"14000US44007013202"}},{"arcs":[[427,428,-14,-325,-344]],"type":"Polygon","properties":{"id":"14000US44007013900"}},{"arcs":[[-392,-242,-357,-356,-249,-420]],"type":"Polygon","properties":{"id":"14000US44007011702"}},{"arcs":[[429,430,431,432]],"type":"Polygon","properties":{"id":"14000US44007016500"}},{"arcs":[[433,-296,434,435,-404,436,437]],"type":"Polygon","properties":{"id":"14000US44007012803"}},{"arcs":[[438,439,440,-297,-434,441]],"type":"Polygon","properties":{"id":"14000US44007012801"}},{"arcs":[[442,443,444,445,446]],"type":"Polygon","properties":{"id":"14000US44007011302"}},{"arcs":[[447,448,449,450]],"type":"Polygon","properties":{"id":"14000US44007001700"}},{"arcs":[[451,452,453]],"type":"Polygon","properties":{"id":"14000US44007003200"}},{"arcs":[[454,-322,455,-311,-318,456,457]],"type":"Polygon","properties":{"id":"14000US44007014000"}},{"arcs":[[-387,458,-433,459,-388]],"type":"Polygon","properties":{"id":"14000US44007016400"}},{"arcs":[[-459,-386,460,461,462,-430]],"type":"Polygon","properties":{"id":"14000US44007016600"}},{"arcs":[[-383,463,-461,-385,-362]],"type":"Polygon","properties":{"id":"14000US44007016700"}},{"arcs":[[464,465,466,467]],"type":"Polygon","properties":{"id":"14000US44007016800"}},{"arcs":[[-465,468,-378,469,470,471]],"type":"Polygon","properties":{"id":"14000US44007016900"}},{"arcs":[[-466,-472,472,473,474]],"type":"Polygon","properties":{"id":"14000US44007017000"}},{"arcs":[[-464,-382,-467,-475,475,476,-462]],"type":"Polygon","properties":{"id":"14000US44007017100"}},{"arcs":[[477,478,479,480,-440]],"type":"Polygon","properties":{"id":"14000US44007017300"}},{"arcs":[[481,482,483,-184,-203,-228,-223,-302,-306,484]],"type":"Polygon","properties":{"id":"14000US44007010502"}},{"arcs":[[-445,485,-235,-391,486]],"type":"Polygon","properties":{"id":"14000US44007011200"}},{"arcs":[[487,488,-247,489,490]],"type":"Polygon","properties":{"id":"14000US44007018500"}},{"arcs":[[491,492,493,494]],"type":"Polygon","properties":{"id":"14000US44007013001"}},{"arcs":[[-436,-246,-421,-288,-405]],"type":"Polygon","properties":{"id":"14000US44007011500"}},{"arcs":[[-401,495,-411,-52,-74,-427]],"type":"Polygon","properties":{"id":"14000US44007013201"}},{"arcs":[[-286,496,-450,497,-351,-409,498]],"type":"Polygon","properties":{"id":"14000US44007012500"}},{"arcs":[[-473,-471,499,-413,500]],"type":"Polygon","properties":{"id":"14000US44007010102"}},{"arcs":[[-481,501,502,503,-441]],"type":"Polygon","properties":{"id":"14000US44007017400"}},{"arcs":[[-489,504,505,506,507,-243]],"type":"Polygon","properties":{"id":"14000US44007011402"}},{"arcs":[[508,-397,-418,-287,-499,-408,-496]],"type":"Polygon","properties":{"id":"14000US44007012200"}},{"arcs":[[-245,509,-446,-487,-390,-419]],"type":"Polygon","properties":{"id":"14000US44007011301"}},{"arcs":[[510,511,-294,-504]],"type":"Polygon","properties":{"id":"14000US44007017500"}},{"arcs":[[-503,512,513,514,-511]],"type":"Polygon","properties":{"id":"14000US44007017600"}},{"arcs":[[-515,515,516,-490,-435,-295,-512]],"type":"Polygon","properties":{"id":"14000US44007017700"}},{"arcs":[[517,518,-516,-514]],"type":"Polygon","properties":{"id":"14000US44007017800"}},{"arcs":[[519,-517,-519,520]],"type":"Polygon","properties":{"id":"14000US44007017900"}},{"arcs":[[-480,521,522,-521,-518,-513,-502]],"type":"Polygon","properties":{"id":"14000US44007018000"}},{"arcs":[[-406,-509,-400,523]],"type":"Polygon","properties":{"id":"14000US44007012702"}},{"arcs":[[-492,524,-442,-438,-398,525,526]],"type":"Polygon","properties":{"id":"14000US44007013002"}},{"arcs":[[527,-379,-469,-468,-381]],"type":"Polygon","properties":{"id":"14000US44007015900"}},{"arcs":[[-282,-261,528,-329,-333,529,530,-417,-395]],"type":"Polygon","properties":{"id":"14000US44007002000"}},{"arcs":[[-437,-407,-524,-399]],"type":"Polygon","properties":{"id":"14000US44007012701"}},{"arcs":[[531,-458,-428,-343,-347]],"type":"Polygon","properties":{"id":"14000US44007014300"}},{"arcs":[[532,533,-485,-305,534]],"type":"Polygon","properties":{"id":"14000US44007000101"}},{"arcs":[[-415,535,-483,536]],"type":"Polygon","properties":{"id":"14000US44007010501"}},{"arcs":[[-376,-528,-369,-373]],"type":"Polygon","properties":{"id":"14000US44007015600"}},{"arcs":[[-527,537,-493]],"type":"Polygon","properties":{"id":"14000US44007012900"}},{"arcs":[[538,-505,-488,539,540,541]],"type":"Polygon","properties":{"id":"14000US44007018400"}},{"arcs":[[-494,-538,-526,-403,-426,-298,542]],"type":"Polygon","properties":{"id":"14000US44007013101"}},{"arcs":[[543,544,545,546,-313,547,548]],"type":"Polygon","properties":{"id":"14000US44007000200"}},{"arcs":[[549,550,551,-545,552]],"type":"Polygon","properties":{"id":"14000US44007000400"}},{"arcs":[[-314,-547,553,-535,-304,-309]],"type":"Polygon","properties":{"id":"14000US44007000102"}},{"arcs":[[-552,554,-554,-546]],"type":"Polygon","properties":{"id":"14000US44007000500"}},{"arcs":[[555,556,-533,-555,-551,557,558]],"type":"Polygon","properties":{"id":"14000US44007000600"}},{"arcs":[[559,560,-558,-550,561,562]],"type":"Polygon","properties":{"id":"14000US44007000700"}},{"arcs":[[563,564,565,566,-559,-561,567,568]],"type":"Polygon","properties":{"id":"14000US44007000800"}},{"arcs":[[569,-569,570,571]],"type":"Polygon","properties":{"id":"14000US44007000900"}},{"arcs":[[572,-572,573,574,575]],"type":"Polygon","properties":{"id":"14000US44007001000"}},{"arcs":[[-571,-568,-560,576,-574]],"type":"Polygon","properties":{"id":"14000US44007001100"}},{"arcs":[[-575,-577,-563,577,578,579,580]],"type":"Polygon","properties":{"id":"14000US44007001200"}},{"arcs":[[-576,-581,581,582]],"type":"Polygon","properties":{"id":"14000US44007001300"}},{"arcs":[[583,584,-548,-312,-456,-321]],"type":"Polygon","properties":{"id":"14000US44007001500"}},{"arcs":[[585,586,587,588,589,590,591]],"type":"Polygon","properties":{"id":"14000US44005041702"}},{"arcs":[[-332,592,593,-573,594,595,-530]],"type":"Polygon","properties":{"id":"14000US44007001900"}},{"arcs":[[596,597,-593,-331]],"type":"Polygon","properties":{"id":"14000US44007002200"}},{"arcs":[[598,599,600,-597,-327,601]],"type":"Polygon","properties":{"id":"14000US44007002300"}},{"arcs":[[-601,602,-564,-570,-594,-598]],"type":"Polygon","properties":{"id":"14000US44007002500"}},{"arcs":[[603,604,605,-603,-600]],"type":"Polygon","properties":{"id":"14000US44007002600"}},{"arcs":[[606,607,608,-604,-599,609]],"type":"Polygon","properties":{"id":"14000US44007002700"}},{"arcs":[[610,611,-589,612]],"type":"Polygon","properties":{"id":"14000US44005041701"}},{"arcs":[[-606,613,614,-453,615,616,-565]],"type":"Polygon","properties":{"id":"14000US44007003100"}},{"arcs":[[-460,-432,617,-454,-615,618]],"type":"Polygon","properties":{"id":"14000US44007003300"}},{"arcs":[[-616,-452,-618,-431,-463,-477,619,620,621,-422,622]],"type":"Polygon","properties":{"id":"14000US44007003400"}},{"arcs":[[-622,623,624,-423]],"type":"Polygon","properties":{"id":"14000US44007003500"}},{"arcs":[[-617,-623,-425,625,-566]],"type":"Polygon","properties":{"id":"14000US44007003602"}},{"arcs":[[-626,-424,-625,626,627,-556,-567]],"type":"Polygon","properties":{"id":"14000US44007003700"}},{"arcs":[[-476,-474,-501,628,-620]],"type":"Polygon","properties":{"id":"14000US44007010101"}},{"arcs":[[-624,-621,-629,-412,629,-627]],"type":"Polygon","properties":{"id":"14000US44007010200"}},{"arcs":[[630,631,-142,-269,-264,-133]],"type":"Polygon","properties":{"id":"14000US44009050702"}},{"arcs":[[-128,-138,-632,632]],"type":"Polygon","properties":{"id":"14000US44009050701"}},{"arcs":[[-579,633,-549,-585,634]],"type":"Polygon","properties":{"id":"14000US44007000301"}},{"arcs":[[-340,-253,635,-608,636]],"type":"Polygon","properties":{"id":"14000US44007002802"}},{"arcs":[[-595,-583,637,638,639]],"type":"Polygon","properties":{"id":"14000US44007001601"}},{"arcs":[[-639,640,-319,-448]],"type":"Polygon","properties":{"id":"14000US44007001602"}},{"arcs":[[-507,641,-443,642]],"type":"Polygon","properties":{"id":"14000US44007011404"}},{"arcs":[[-578,-562,-553,-544,-634]],"type":"Polygon","properties":{"id":"14000US44007000302"}},{"arcs":[[-341,-637,-607,643]],"type":"Polygon","properties":{"id":"14000US44007002801"}},{"arcs":[[-508,-643,-447,-510,-244]],"type":"Polygon","properties":{"id":"14000US44007011405"}},{"arcs":[[644,645,646]],"type":"Polygon","properties":{"id":"14000US44005040900"}},{"arcs":[[-99,-21,-46,647,648,-64]],"type":"Polygon","properties":{"id":"14000US44003021901"}},{"arcs":[[-117,-87,649,650,-648,-45]],"type":"Polygon","properties":{"id":"14000US44003021902"}},{"arcs":[[-101,-114,-38,-118,-80,-104]],"type":"Polygon","properties":{"id":"14000US44003022202"}},{"arcs":[[-8,-194,-200,-94,-84,-120]],"type":"Polygon","properties":{"id":"14000US44003021501"}},{"arcs":[[-86,-93,-110,651,-650]],"type":"Polygon","properties":{"id":"14000US44003021700"}},{"arcs":[[-651,-652,-89,-65,-649]],"type":"Polygon","properties":{"id":"14000US44003021903"}},{"arcs":[[[652,653,654,655]],[[-221,-217,656]],[[657]],[[658]]],"type":"MultiPolygon","properties":{"id":"14000US44005040105"}},{"arcs":[[-655,659,660,-181,661,662]],"type":"Polygon","properties":{"id":"14000US44005040104"}},{"arcs":[[-170,663,-166,-279]],"type":"Polygon","properties":{"id":"14000US44009050302"}},{"arcs":[[-162,-266,664,-272,-145,665]],"type":"Polygon","properties":{"id":"14000US44009051202"}},{"arcs":[[-163,-666,-144,-150]],"type":"Polygon","properties":{"id":"14000US44009051201"}},{"arcs":[[666],[-158]],"type":"Polygon","properties":{"id":"14000US44009990200"}},{"arcs":[[-175,-271,-278,-274,667,-267,-155,-167,-664,-169,-131,-276,-91,-112,668,669]],"type":"Polygon","properties":{"id":"14000US44009990100"}},{"arcs":[[670,-182,-661,671,672,673]],"type":"Polygon","properties":{"id":"14000US44005040304"}},{"arcs":[[-660,-654,674,675,676,-672]],"type":"Polygon","properties":{"id":"14000US44005040102"}},{"arcs":[[-674,677,678,679,680,681]],"type":"Polygon","properties":{"id":"14000US44005040302"}},{"arcs":[[-673,-677,682,683,-678]],"type":"Polygon","properties":{"id":"14000US44005040400"}},{"arcs":[[684,685,686,687,-645,688]],"type":"Polygon","properties":{"id":"14000US44005041000"}},{"arcs":[[689,690,-613,-588,691,692]],"type":"Polygon","properties":{"id":"14000US44005041602"}},{"arcs":[[[-586,693]],[[694,-693,695,-675,-653]]],"type":"MultiPolygon","properties":{"id":"14000US44005040101"}},{"arcs":[[-662,-183,-671,-682,696,-177,697]],"type":"Polygon","properties":{"id":"14000US44005040200"}},{"arcs":[[-697,-681,698,699,-178]],"type":"Polygon","properties":{"id":"14000US44005040500"}},{"arcs":[[[-179,-700,700,-685,701]],[[702]]],"type":"MultiPolygon","properties":{"id":"14000US44005041100"}},{"arcs":[[-591,703,704]],"type":"Polygon","properties":{"id":"14000US44005041400"}},{"arcs":[[705,-611,-691,706]],"type":"Polygon","properties":{"id":"14000US44005041601"}},{"arcs":[[-699,-680,707,-686,-701]],"type":"Polygon","properties":{"id":"14000US44005040600"}},{"arcs":[[-708,-679,-684,708,709,-687]],"type":"Polygon","properties":{"id":"14000US44005040700"}},{"arcs":[[-710,710,-646,-688]],"type":"Polygon","properties":{"id":"14000US44005040800"}},{"arcs":[[-669,-111,-96,-199,-222,-657,-216,-219,-207,711,-707,-690,-695,-656,-663,-698,-180,-702,-689,-647,-711,-709,-683,-676,-696,-692,-587,-694,-592,-705,712],[713],[-659],[-658],[714],[-703]],"type":"Polygon","properties":{"id":"14000US44005990000"}},{"arcs":[[[-715]],[[-714]]],"type":"MultiPolygon","properties":{"id":"14000US44005041300"}},{"arcs":[[-125,-164,-148]],"type":"Polygon","properties":{"id":"14000US44009051400"}},{"arcs":[[-665,-268,-668,-273]],"type":"Polygon","properties":{"id":"14000US44009051504"}},{"arcs":[[715,-542,716,-522,-479]],"type":"Polygon","properties":{"id":"14000US44007018100"}},{"arcs":[[-717,-541,717]],"type":"Polygon","properties":{"id":"14000US44007018200"}},{"arcs":[[-718,-540,-491,-520,-523]],"type":"Polygon","properties":{"id":"14000US44007018300"}},{"arcs":[[-457,-317,-315,-310,-15,-429]],"type":"Polygon","properties":{"id":"14000US44007013800"}},{"arcs":[[-252,-389,-619,-614,-605,-609,-636]],"type":"Polygon","properties":{"id":"14000US44007002900"}},{"arcs":[[-630,-416,-537,-482,-534,-557,-628]],"type":"Polygon","properties":{"id":"14000US44007010400"}},{"arcs":[[-498,-449,-323,-455,-532,-346,-352]],"type":"Polygon","properties":{"id":"14000US44007014700"}},{"arcs":[[-531,-596,-640,-451,-497,-285]],"type":"Polygon","properties":{"id":"14000US44007001800"}},{"arcs":[[-260,-644,-610,-602,-330,-529]],"type":"Polygon","properties":{"id":"14000US44007002400"}},{"arcs":[[-638,-582,-580,-635,-584,-320,-641]],"type":"Polygon","properties":{"id":"14000US44007001400"}}]}}}