{"type":"Topology","arcs":[[[5077,12016],[5,-41],[-34,-97],[-14,-35],[-42,-71],[-45,-53],[-65,-50],[-13,-17],[-24,-42],[-14,-16],[-24,-52],[-41,-61],[-11,-30],[-4,-33],[-2,-79],[-18,-43],[1,-24],[-5,-59],[5,-52],[22,-128],[7,-19],[13,-17]],[[4774,10997],[-1,-113],[1,-174],[-1,-79],[0,-252],[0,-253],[-287,0],[-194,0]],[[4292,10126],[-2,442],[1,680],[-2,141],[1,420],[1,84],[-1,125],[105,1],[436,-3],[246,0]],[[16,12001],[29,-11],[42,-24],[21,-30],[10,-31],[9,-48],[15,-23],[26,2],[29,20],[12,18],[5,26],[-3,22],[18,15],[48,3],[43,-23],[40,-35],[23,-32],[23,-44],[20,-29],[12,-10],[82,32],[26,4],[23,12],[20,17],[20,33],[18,89],[28,42],[2,15],[-7,23],[-24,40],[16,38],[12,0],[90,-88],[12,-22],[0,-54],[-9,-40],[16,-6],[23,15],[21,25],[35,48],[13,34],[18,77],[1,30],[-5,53],[-17,47],[0,20],[8,49],[17,48],[21,22],[29,-7],[18,-10],[53,-77],[25,-15],[20,3],[8,14],[29,25],[15,6],[39,33],[13,20],[5,43],[-12,23],[-27,15],[-66,66],[-12,25],[-1,16],[7,18],[18,13],[49,52],[18,26]],[[1126,12659],[50,39],[24,15],[42,20],[26,4],[20,-5]],[[1288,12732],[30,-14],[38,-35],[36,-13],[20,2],[40,32],[28,35],[22,44],[25,22],[20,0]],[[1547,12805],[19,-12],[6,-44],[-22,-23],[-37,-21],[-17,-17],[2,-27],[62,-86],[16,-12],[56,-27],[33,-4],[33,3],[5,-11],[-15,-47],[-23,-31],[-47,-42],[-30,-36],[-13,-29],[-2,-31],[3,-27],[8,-15],[44,-34],[41,-9],[34,0],[52,9],[22,-14],[16,-38],[14,-42],[27,-53]],[[1834,12085],[-84,-88],[-18,-32],[26,-55],[2,-47],[18,-14],[0,-33],[20,-66],[16,-26],[1,-18],[11,-26],[-1,-14],[16,-37],[12,-20],[4,-25],[-10,-22],[-52,3],[2,-35],[1,-642]],[[1798,10888],[0,-253],[73,0],[0,-94],[0,-408],[-16,-27],[0,-395],[7,-10],[5,-45],[-1,-24],[11,-21],[15,-17],[18,-39],[-3,-17],[5,-75],[12,-58],[17,-6],[29,-19],[16,10],[4,-13],[36,-10],[10,-22],[11,2],[17,21],[27,7],[17,-28],[1,-31],[-11,-25],[-9,-4],[-49,5],[-22,-8],[7,-19],[-3,-19],[-18,-3],[2,18],[-15,14],[-47,-14],[-30,-2],[-19,36],[-19,18],[-17,-3],[-4,-30],[-14,-21],[-10,2],[-3,36],[-14,20],[-16,10],[-29,9],[-61,-39],[28,-27],[-10,-30],[-34,-12],[-43,-29],[21,-21],[2,-18],[-23,-10],[-21,4],[6,49],[-20,18],[-18,-11],[-7,-20],[-19,-11],[-12,4],[-9,21],[4,18],[-6,15],[-21,8],[-11,-10],[27,-20],[-9,-22],[-29,-4],[-11,4],[-7,30],[-10,11],[-13,-2],[-17,-17],[0,-20],[17,-26],[-4,-31],[-31,-31],[-4,-32],[25,-14],[13,-14],[4,-25],[12,-23],[-38,-8],[-6,-8],[14,-25],[-5,-18],[-12,-10],[-10,-24],[-25,-38],[23,-15],[9,-22],[1,-15],[-11,-15],[-26,-6],[-4,27],[-10,4],[-29,-32],[-6,-16],[5,-20],[27,4],[15,-8],[11,-16],[0,-28],[-20,-3],[-15,-11],[-2,-18],[17,-31],[17,-6],[14,13],[15,1],[11,-12],[-13,-17],[0,-13],[23,-13],[26,-33],[-30,-17],[-5,-19],[35,-7],[25,-22],[3,-14],[-21,-12],[-22,-27],[7,-10],[15,-1],[9,-22],[-8,-18],[29,-57],[-5,-29],[-52,-38],[-9,25],[-15,17],[-20,-4],[-29,-23],[-16,-31],[15,-36],[14,-16],[5,-16],[-19,-9],[-10,-31],[-40,-32]],[[1330,8118],[-33,0]],[[1297,8118],[-284,1],[-141,2],[-140,-1],[-220,2],[-247,0],[-69,1],[-183,0]],[[13,8123],[1,446],[1,286],[1,535],[1,467],[0,108],[2,412],[-1,89],[1,155],[3,271],[3,334],[-2,155],[0,108],[-3,212],[-4,300]],[[23046,1769],[272,1],[82,-2],[68,0],[63,2],[149,2],[68,-1],[72,2],[0,127],[71,1],[421,-1],[177,1]],[[24489,1901],[-2,-210],[1,-342],[-6,-516],[2,-238],[-3,-342],[0,-164],[-4,-26],[-10,-28],[11,-3],[-1,25],[40,0],[0,-33],[91,-20]],[[24608,4],[-323,0],[-176,-2],[-91,3],[-16,-2],[-71,1],[-272,0],[-229,-1],[-77,0],[-202,-1]],[[23151,2],[0,154],[-1,177],[-103,25],[-3,4],[1,352],[-1,215],[1,334],[0,87],[1,419]],[[1424,15714],[274,0],[4,1],[367,-3],[177,-1],[627,0],[40,3],[39,-2],[555,-1],[441,0]],[[3948,15711],[0,-168],[0,-338]],[[3948,15205],[0,-419],[0,-415],[0,-177],[1,0]],[[3949,14194],[-63,-1],[-180,0],[-1,-178],[-266,1],[-23,2],[-152,1],[-1,174],[-52,0],[0,28],[-34,-27],[-282,-1],[0,-177],[-32,1],[-447,2],[-259,-1],[-377,0],[-37,6],[-27,-6],[-253,0],[-20,-12]],[[1443,14006],[-6,11],[-2,44],[1,115],[4,39],[1,136],[-1,47],[0,359],[1,199],[-1,92],[-3,30],[3,39],[1,386],[-3,26],[-16,66],[2,119]],[[3,15715],[111,-1],[375,0],[100,-1],[128,0],[296,0],[276,0],[135,1]],[[1443,14006],[-7,-18],[0,-349],[0,-190]],[[1436,13449],[-59,0],[-27,-22],[-48,1],[12,-16],[-25,-46],[1,-99],[-8,-8],[-66,0],[1,-253]],[[1217,13006],[-147,0],[0,-337],[43,-1],[13,-9]],[[16,12001],[0,167],[-3,519],[-1,253],[0,173],[-2,485],[0,229],[-1,190],[-2,357],[-2,554],[-1,326],[-1,461]],[[1415,13001],[21,5]],[[1436,13006],[0,-84]],[[1436,12922],[-80,0]],[[1356,12922],[9,23],[42,50],[8,6]],[[6257,9546],[16,-12],[57,-25],[58,-10],[19,-6],[40,10],[29,0],[29,6],[24,10],[43,-1],[43,8],[38,18],[22,3],[21,-5],[29,-20],[18,-5],[38,5],[29,13],[20,1],[25,-19],[19,-36],[7,-22],[-3,-17],[-27,-55],[-5,-20],[6,-21],[13,-13],[27,-12],[25,4],[36,12],[34,4],[61,-2],[33,-6],[55,-24],[41,-28],[37,-33],[107,-106],[25,-9],[59,3],[46,-17],[71,-37],[30,-2],[34,12],[32,20],[24,22],[26,14],[163,135],[27,17],[69,27]],[[7927,9327],[20,8],[34,5],[41,-6],[70,-20],[79,-36],[22,-5],[29,9],[51,-2],[114,31],[76,33],[19,17],[53,22],[18,5],[56,21],[47,32],[26,1],[39,-7],[21,9],[65,36],[26,7],[34,-1],[29,-13],[36,-42]],[[8932,9431],[71,-99],[23,-13],[59,-47],[9,-17],[-4,-34],[-16,-27],[-39,-38],[-75,-43],[-25,-20],[-26,-30],[-41,-60],[-13,-23],[-9,-45],[4,-35],[13,-27],[50,-65],[36,-71],[8,-27],[9,-48],[10,-87],[6,-32],[31,-76],[35,-51],[26,-43],[44,-29],[8,-17],[2,-22],[-3,-35],[10,-92],[3,-86],[28,-71],[6,-51],[-1,-45],[4,-24],[20,-17],[51,-8],[14,2],[72,-39],[28,-7],[25,-11],[22,-16],[23,-11],[36,-30],[10,-21]],[[9476,7743],[-2,-137],[-288,1],[-112,1],[-219,-1],[-169,0],[-145,-1],[-502,0],[-106,1],[-35,2],[-73,-2]],[[7825,7607],[0,137],[-1,149],[0,50],[-156,-1],[-32,-7],[-31,-16],[-44,-15],[-81,-6],[-83,3],[-2,-12],[-2,-91],[81,-73],[17,-9],[34,-4],[16,-20],[22,-14],[29,2],[29,11],[8,-10],[26,-1],[20,5],[7,-6],[1,-93],[70,19]],[[7753,7605],[0,-82],[2,-238],[-1,-15],[0,-258],[0,-83],[1,-248],[-1,-252],[0,-337]],[[7754,6092],[-344,0],[-158,1],[-73,-1],[-411,0],[-139,0]],[[6629,6092],[-166,1],[0,168]],[[6463,6261],[0,502],[1,170],[0,338],[-1,336],[2,340],[-1,164],[-207,0],[-1,250],[1,171],[0,169],[0,167],[-1,245],[1,184],[0,183],[0,66]],[[8112,8020],[0,-162],[8,0],[0,-50],[21,-11],[32,10],[7,26],[10,11],[-3,21],[14,16],[10,-14],[64,-17],[10,13],[6,20],[-18,36],[4,11],[19,-6],[10,-11],[16,6],[17,-1],[16,36],[-5,26],[-12,31],[5,17],[-54,0],[0,78],[7,18],[16,20],[0,52],[-28,0],[-8,6],[0,78],[-144,0],[1,-167],[-21,-2],[0,-91]],[[6960,688],[14,14],[7,-22],[-4,-11],[9,-17],[15,8],[13,-8],[13,8],[16,-2],[21,36],[17,-18],[16,-5],[3,23],[12,17],[23,7],[5,27],[28,19],[14,-32],[15,-6],[7,-17],[18,-15],[5,9],[-10,15],[15,10],[25,-13],[3,26],[38,-22],[12,0],[9,21],[-15,20],[7,21],[25,-5],[12,-17],[4,26],[22,-10],[-4,-15],[10,-13],[18,3],[8,14],[17,-9],[24,22],[-5,17],[24,11],[9,-22],[1,-20],[-11,-19],[13,-13],[-1,-38],[11,-15],[-32,-24],[21,-18],[1,-17],[18,-20],[-3,-26],[8,-13],[29,11],[4,26],[14,-3],[38,-55],[3,18],[24,-1],[13,-15],[17,6],[-7,24],[18,17],[12,-9],[15,16],[17,-10],[9,20],[31,-35],[13,2],[31,45],[5,-19],[17,7],[-4,-36],[-9,-15],[7,-10],[17,-1],[9,25],[14,24],[21,-6],[16,2],[18,-40],[21,-3],[-1,-20],[25,3],[18,-20],[12,17],[14,-7],[-4,-16],[18,-12],[13,0],[10,-17],[31,-3],[-1,-17],[20,-2],[18,8],[18,-12],[57,25],[3,26],[-10,16],[11,7],[-12,17],[15,12],[15,-5],[-3,21],[12,19],[46,6],[-4,-21],[13,-18],[15,-37],[15,-2],[-5,-21],[28,-16],[30,4],[-3,-15],[17,-11],[7,14],[29,15],[1,16],[18,13],[20,-23],[16,-6],[-3,-24],[17,-17],[7,6],[30,-6],[8,22],[13,8],[24,2],[3,-14],[19,7],[5,11],[-13,20],[-2,30],[-13,14],[4,15],[17,-11],[20,-1],[22,12],[-8,-28],[6,-3],[27,7],[18,-7],[10,-15],[17,5],[9,22],[27,4],[-6,13],[-16,-2],[-11,21],[12,8],[9,26],[-29,-8],[1,21],[22,12],[4,11],[19,18],[-1,21],[19,2],[2,14],[19,-7],[-8,29],[14,4],[11,-10],[2,-41],[32,-3],[29,18],[40,9],[16,-10],[4,18],[19,27],[19,-10],[11,6],[8,-11],[12,13],[-14,21],[19,13],[9,25],[13,3],[19,15],[-1,19],[16,-3],[24,16],[15,-13],[26,-3],[19,-8],[6,-24],[15,-4],[6,36],[15,6],[7,-18],[24,9],[2,19],[31,12],[4,19],[-22,2],[-3,25],[39,15],[23,-3],[5,26],[23,-5],[10,8],[-17,20],[20,10],[8,13],[24,10],[13,-4],[-7,29],[13,10],[3,19],[-5,13],[6,15],[-16,3],[-14,19],[-19,10],[11,15],[11,-3],[22,28],[3,-24],[13,0],[3,34],[23,10],[13,-2],[-3,-24],[20,-9],[7,12],[-2,21],[14,3],[14,-28],[19,46],[20,4],[7,-23],[13,6],[-2,27],[32,-16],[8,24],[17,-3],[17,-23],[5,17],[26,30],[-14,18],[12,8],[12,-5],[12,19],[4,20],[41,-19],[15,-30],[15,-2],[3,14],[-14,22],[-8,30],[3,15],[25,9],[-1,17],[-18,12],[5,38],[-11,11],[13,31],[-17,0],[-4,12],[17,22],[7,22],[44,21],[14,-6],[28,16],[-13,22],[6,9],[32,-19],[14,13],[23,3],[14,11],[0,35],[18,9],[21,20],[19,-17],[21,18],[13,-1],[7,32],[11,7],[16,22],[16,11],[5,20],[-9,20],[0,18],[-10,37],[-38,-8],[3,17],[11,16],[21,11],[1,36],[8,10],[29,-4],[14,10],[9,55],[-28,3],[2,28],[30,14],[18,-1],[13,-11],[15,5],[26,-20],[35,1],[4,39],[18,19],[16,8],[22,-12],[4,-23],[24,-1],[21,17],[-7,32]],[[10261,2034],[-1,20],[11,20],[14,15],[3,28],[7,7],[34,-20],[14,18],[2,18],[13,9],[-21,18],[-14,2],[-14,-8],[-8,8],[7,33],[-17,29],[1,13],[23,17],[18,0],[5,-21],[9,-2],[18,-23],[16,5],[24,19],[-3,32],[6,23],[10,4],[10,-21],[9,-4],[16,19],[2,16],[-11,13],[3,15],[46,22],[-11,45],[15,7],[31,1],[20,8],[1,43],[-13,17],[7,43],[19,17],[-6,32],[24,-5],[9,12],[-8,18],[21,8],[3,25],[16,19],[3,30],[37,14],[17,0],[21,-10],[-4,19],[3,26],[25,10],[18,23],[15,0],[7,-27],[-1,-21],[-16,-52],[4,-12],[41,-4],[27,33],[-2,22],[11,7],[4,19],[14,-15],[0,-29],[57,-26],[15,10],[8,-28],[30,6],[22,-25],[23,0],[9,30],[17,5],[36,1],[30,-3],[24,8],[2,15],[13,21],[14,0],[6,-23],[17,13],[18,-3],[15,-17],[11,15],[13,30],[17,4],[10,-29],[-11,-29],[20,-6],[22,14],[12,-15],[-5,-54],[15,-2],[16,19],[23,16],[-11,37],[3,24],[12,11],[11,-28],[14,0],[21,23],[19,69],[16,14],[24,3],[30,-37],[25,9],[13,18],[12,6],[29,3],[11,11],[42,27],[-2,29],[7,9],[16,-11],[5,-23],[13,-13],[19,-3],[11,14],[-4,17],[-18,12],[13,16],[22,-17],[9,30],[34,-8]],[[11740,2870],[6,-20],[26,-50],[22,-62],[19,-61],[23,-54],[21,-63],[15,-65],[3,-35],[3,-98],[3,-43],[-2,-24],[-14,-57],[-20,-67],[-26,-62],[-28,-49],[-18,-43],[-4,-33],[6,-20],[29,-59]],[[11804,1905],[-117,0],[-36,7],[-25,-7],[-298,-1],[0,-78],[-6,-7],[-274,0],[-13,10],[-21,-8],[-12,-34],[-17,-6],[-16,-17],[-7,-20],[1,-22],[-23,-6],[-8,13],[-25,1],[-33,11],[-43,-32],[-35,-46],[-12,-3],[-15,-28],[-1,-150],[62,0],[108,-128],[45,-17],[2,-34],[-10,-32],[4,-22],[23,-51],[9,-29],[1,-42],[-16,-26],[-18,-5],[-32,9],[-9,-15],[6,-31],[-18,-31],[-17,-10],[-1,-134],[-28,7],[-18,-2],[-16,-9],[-20,-29],[-14,-13],[7,-23],[-43,4],[-9,-9],[1,-17],[0,-153],[-3,-17],[0,-37],[14,-10],[6,-18],[-18,-7],[8,-31],[-11,-3],[-11,-32],[23,-10],[-8,-19],[0,-404],[0,-2]],[[10767,50],[-45,1],[-251,-1],[-262,-1],[-130,0],[-94,3],[-63,-1],[-168,1],[-226,0],[-29,1],[-125,-1],[-259,0],[-34,1],[-159,-2],[-131,0],[-139,3],[-74,-2],[-230,2],[-169,-1],[-499,1],[-158,2],[-220,1],[-141,-2],[-202,1]],[[6959,56],[1,501],[0,131]],[[11804,1905],[16,-31],[27,-40],[3,-49],[-4,-29],[-34,-105],[-22,-54],[-9,-15],[-22,-22],[-26,-38],[-18,-38],[-61,-118],[-15,-34],[-23,-70],[-9,-36],[1,-67],[9,-42],[35,-65],[7,-39],[1,-67],[-12,-56],[1,-36],[8,-58],[9,-36],[13,-37],[27,-54],[30,-42],[41,-74],[16,-22],[23,-59],[25,-45],[35,-29],[35,-15],[22,-2],[19,-25],[38,-81],[18,-49],[14,-43],[1,-29],[-3,-36],[-14,-44],[-1,-24]],[[12005,50],[-221,1],[-104,-2],[-140,1],[-247,2],[-98,-2],[-119,1],[-153,-1],[-156,0]],[[7562,11136],[239,2],[461,-1],[145,1],[509,2],[100,0],[339,1]],[[9355,11141],[227,0],[202,0],[136,1],[264,-2],[115,0],[148,3]],[[10447,11143],[0,-3],[87,0],[204,1],[287,-1],[229,-1],[235,-1],[268,-1]],[[11757,11137],[0,-167],[-1,-170],[2,-329],[-1,-5],[0,-120],[0,-220],[-296,0],[-1,-23],[0,-296],[-1,-177],[0,-86],[-1,-420]],[[11458,9124],[-28,-1],[-196,1],[-240,-1],[-11,6],[-13,-6],[-309,1],[0,-83],[7,-12],[-7,-20],[1,-108],[-7,-21],[-18,-10],[-185,0],[-442,0],[1,220],[-1,376],[16,29],[2,16],[-17,7],[-160,112],[-372,1],[-284,0],[-56,-1],[-65,-63],[-142,-136]],[[7927,9327],[50,136],[13,5],[1,160],[-433,0],[0,471],[0,194],[2,169],[4,169],[0,84],[-1,253],[-1,168]],[[5994,11136],[304,0],[145,1],[145,-1],[292,0],[509,0]],[[7389,11136],[173,0]],[[6257,9546],[-56,75],[-15,38],[-17,26],[-56,56],[-14,11],[-35,47],[-11,37],[7,63],[-3,80],[-5,41],[1,58],[9,63],[-4,84],[1,40],[4,30],[4,59],[1,58],[-7,23],[-32,19],[-32,30],[-13,26],[-18,74],[6,20],[12,5],[44,-6],[19,9],[21,27],[10,32],[1,36],[-10,44],[-37,23],[-59,14],[-62,30],[-41,26],[-55,22],[-23,-3],[-33,-25],[-21,-33],[-34,-91],[-11,-45],[-13,-22],[-35,-32]],[[5645,10615],[0,522],[23,0],[326,-1]],[[1330,8118],[161,-3],[1,-1],[289,-1],[80,2],[136,0],[73,-1],[301,0],[217,2],[70,-3],[145,1],[204,0],[127,2],[89,-1]],[[3223,8115],[227,0],[0,-459],[-1,-52],[1,-252],[-1,-84],[0,-169],[-1,-85],[1,-422],[0,-51],[0,-162],[0,-122],[0,-169]],[[3449,6088],[-198,0],[-475,-2],[-1,-185],[1,-168],[-1,-169],[0,-289],[1,-48],[-1,-185],[0,-492],[0,-43],[-1,-462]],[[2774,4045],[-304,1],[-140,0],[-75,1],[-126,-1],[-158,1],[-107,-1],[-372,-1]],[[1492,4045],[1,421],[0,84],[-2,195],[1,226],[0,504],[1,167],[0,253],[-2,189],[-195,-1],[0,175],[-1,245],[1,226],[0,298],[1,65],[-1,253],[0,337],[-1,85],[0,83],[2,268]],[[16235,9622],[436,2],[287,-2],[122,-1],[236,1],[287,-2],[72,2],[218,0],[84,0],[491,-2],[366,0]],[[18834,9620],[1,-84],[0,-253],[-1,-182],[1,-324],[1,-6],[0,-329],[1,-340]],[[18837,8102],[-507,0],[-104,1],[-418,0],[-16,1],[-113,0],[-41,-1],[-419,1],[-319,0],[-376,0],[-290,1]],[[16234,8105],[-1,342],[0,418],[1,507],[1,250]],[[13358,8107],[201,0],[71,-1]],[[13630,8106],[212,1],[147,0],[147,0],[362,-1],[73,1],[141,-1],[72,1],[140,-1],[369,0],[211,-1]],[[15504,8105],[1,-80],[-1,-169],[0,-199],[1,-54],[-1,-507],[-1,-421],[1,-420],[0,-168],[120,-1],[-2,-257]],[[15622,5829],[-2,-305],[-3,-539],[-2,-240],[0,-177],[-2,-216],[1,-4],[-3,-292]],[[15611,4056],[-346,1],[-250,1],[-261,2],[-300,0],[-425,3]],[[14029,4063],[-133,2],[-81,-2],[-71,2],[-71,-1],[-64,1],[-142,1]],[[13467,4066],[3,250],[1,179],[3,163],[1,134],[2,118],[2,226],[3,337],[1,140],[5,479],[-2,2],[-132,0]],[[13354,6094],[0,444],[1,331],[2,261],[0,526],[2,333],[-1,118]],[[10299,13187],[100,-52],[44,-19],[50,-28],[23,-5],[287,0],[237,0],[117,-1],[94,1],[0,-22],[18,0],[24,8],[6,13],[131,0],[42,6],[0,-48],[35,0],[18,25],[26,15],[13,2],[19,-11],[17,11],[155,0],[9,10],[0,36],[6,9],[35,14],[28,0],[33,15],[224,-1],[114,0],[0,-253],[221,-1],[0,-84],[512,1]],[[12937,12828],[1,-170],[0,-507],[134,0],[0,-257],[0,-171],[-1,-586]],[[13071,11137],[-132,-1],[-15,-1],[-293,0],[-436,1],[-438,1]],[[10447,11143],[0,244],[1,272],[0,243],[1,254],[-151,0],[0,272],[1,8],[-1,328],[2,144],[-1,279]],[[10898,4806],[28,17],[19,1],[26,13],[15,20],[10,32],[0,23],[7,10],[43,0]],[[11046,4922],[24,0],[26,10],[7,15]],[[11103,4947],[35,-13]],[[11138,4934],[10,-13],[5,-23],[-1,-76],[6,-13],[25,-24],[5,-11],[-1,-80],[2,-33],[12,-31],[7,-36],[14,-11],[22,0],[13,-14],[0,-54],[13,-15],[45,0],[14,-21],[-1,-46],[8,-14],[47,0],[53,20],[34,-21],[72,1]],[[11542,4419],[0,-83]],[[11542,4336],[-12,1],[-50,-25],[-31,-11],[-21,-15],[-22,-24],[-45,-38],[-36,-18],[-53,-10],[-30,14],[-25,25],[-4,20],[9,41],[15,21],[0,23],[-5,24],[-14,31],[-15,16],[-27,-4],[-46,-27],[-28,-5],[-24,12],[-12,19],[-12,67],[-19,72],[23,18],[43,8],[11,14],[4,36],[-6,25],[-13,21],[-16,4],[-23,-5],[-13,4],[-36,-9]],[[11009,4661],[-41,11],[-43,40],[-16,28],[-5,47],[-6,19]],[[11477,5260],[2,303],[2,116],[71,0],[2,168],[4,84],[0,169]],[[11558,6100],[299,-3],[187,0],[14,2],[229,-2],[182,0],[123,-2],[107,1],[60,-2],[97,0],[213,0],[69,2],[179,-4],[37,2]],[[13467,4066],[-143,2],[-9,-1],[-121,0],[-237,3],[-130,-1],[-426,2],[-223,1],[-228,1],[-222,2],[-232,-2]],[[11496,4073],[-6,29],[14,62],[25,46],[21,21],[14,23],[8,59],[-7,15],[-23,8]],[[11542,4419],[1,73],[1,90],[2,337],[1,85],[-72,0],[2,256]],[[11120,5219],[35,-1]],[[11155,5218],[31,-5],[5,-18],[-1,-47]],[[11190,5148],[-16,-3],[-14,-13],[-56,1]],[[11104,5133],[5,29],[11,23],[0,34]],[[11190,5050],[37,-30],[20,13],[12,15],[4,47],[0,123]],[[11263,5218],[22,2],[28,10],[42,24],[29,7],[93,-1]],[[11138,4934],[7,25],[44,4],[1,87]],[[11046,5038],[23,-1],[0,12],[31,-1]],[[11100,5048],[-1,-89],[4,-12]],[[11046,4922],[0,116]],[[10938,5142],[18,1],[16,-27],[45,-34],[30,-15]],[[11047,5067],[-1,-29]],[[10898,4806],[-4,36],[10,24],[21,30],[33,81],[5,26],[-2,15],[7,49],[-30,75]],[[11047,5067],[0,67]],[[11047,5134],[54,-1]],[[11101,5133],[-1,-69]],[[11100,5064],[0,-16]],[[11101,5133],[3,0]],[[11190,5148],[0,-98]],[[11190,5050],[-33,13],[-57,1]],[[10912,5164],[91,49],[14,5],[31,1]],[[11048,5219],[-1,-85]],[[10938,5142],[-26,22]],[[11155,5218],[108,0]],[[11048,5279],[1,64]],[[11049,5343],[72,-1]],[[11121,5342],[-1,-123]],[[11120,5219],[-72,0]],[[11048,5219],[0,60]],[[10466,7116],[84,-1],[276,0],[373,2],[2,510],[-2,482],[259,0]],[[11458,8109],[73,-1],[89,1],[156,-1],[288,-1],[68,1],[341,-1],[145,0],[241,0],[136,0],[363,0]],[[11558,6100],[-279,1],[-85,2],[-138,0]],[[11056,6103],[-69,1],[-6,-2],[-209,4],[-51,-1],[-12,16],[-11,-8],[-12,24],[-11,11],[-18,39]],[[10657,6187],[46,30],[46,72],[8,41],[4,94],[-19,52],[-29,43],[-32,33],[-19,25],[-41,46],[-19,26],[-36,74],[-5,23],[-2,71],[-5,55],[-1,49],[-17,92],[-14,33],[-14,20],[-25,21],[-17,29]],[[6628,4558],[381,-1],[99,1],[229,0],[150,-1],[137,1],[85,-1],[202,1],[-1,-504],[1,-2],[89,0],[339,-1],[135,-1],[176,-1],[127,1],[303,-1],[219,1]],[[9299,4050],[35,-1],[0,-244],[0,-336],[0,-506],[1,-254],[-1,-168],[168,1],[256,-2],[285,2],[141,-1],[0,-168],[0,-338],[77,-1]],[[6960,688],[0,127],[1,84],[-1,207],[1,134],[0,334]],[[6961,1574],[1,333],[-1,123],[-165,0],[-2,276],[0,143],[-1,99],[-3,400],[1,16],[-3,414],[-4,422],[-3,252],[-155,0]],[[6626,4052],[2,254],[-1,84],[1,168]],[[23804,11359],[0,81]],[[23804,11440],[24,-1],[16,-9]],[[23844,11430],[-3,-18],[18,-18],[1,-13],[-18,-14],[-1,-20],[24,-30],[-18,-22],[7,-13],[15,-7],[38,-7],[12,-12],[-12,-25],[21,-21]],[[23928,11210],[-156,1]],[[23772,11211],[0,84],[26,1],[5,21],[1,42]],[[23700,11634],[52,0]],[[23752,11634],[21,-33],[0,-52]],[[23773,11549],[-37,0]],[[23736,11549],[-13,0]],[[23723,11549],[0,22],[-23,0],[0,63]],[[20932,11127],[35,2],[72,-1],[110,1],[0,-85],[146,0],[0,86],[74,-2],[446,-3],[357,0],[147,1],[365,2]],[[22684,11128],[-2,-402],[-2,-300],[-2,-312]],[[22678,10114],[-357,0]],[[22321,10114],[-290,0],[-74,1],[-225,0],[-510,0],[-291,0]],[[20931,10115],[-1,41],[1,381],[1,590]],[[20859,12568],[440,0],[0,-418],[7,-5],[73,0],[457,0],[106,0],[475,-1],[149,0],[29,-2],[96,-44],[-2,-231]],[[22689,11867],[-36,-1],[0,-21],[-37,0],[0,42],[-18,0],[1,84],[-42,0],[1,21],[-14,0],[-2,-232],[-55,-1],[0,-84],[18,0],[0,-40],[175,1]],[[22680,11636],[7,-47],[-3,-461]],[[20932,11127],[0,448],[0,570],[-73,1],[0,338],[0,84]],[[23796,11558],[33,40]],[[23829,11598],[35,-39],[-14,-18],[3,-14]],[[23853,11527],[-9,-4],[-40,0]],[[23804,11523],[1,26],[-9,9]],[[20860,13158],[145,1]],[[21005,13159],[374,-1],[288,0],[511,0],[298,1]],[[22476,13159],[148,0],[436,-6],[297,-2],[89,1]],[[23446,13152],[-5,-16],[-24,-30],[10,-22],[18,5],[17,-12],[2,-24],[-10,-12],[-21,-4],[-8,-9],[11,-58],[19,-18],[38,20],[20,-8],[1,-16],[-11,-13],[-50,-29],[-25,-43],[10,-18],[23,13],[35,-10],[14,-14],[-2,-12],[-16,-5],[-6,-18],[9,-52],[18,-42],[2,-27],[-8,-33],[12,-8],[22,5],[13,-8],[3,-26],[22,-21],[-1,-13],[-24,-11],[5,-12],[20,-8],[7,-14],[2,-27],[-4,-27],[-12,-17],[1,-16],[17,-2],[23,-41],[15,-31],[11,-14],[30,-23],[15,-40],[8,-106],[-12,-48]],[[23680,12137],[-205,2],[-355,0],[-4,-46],[-1,-119],[-1,-340],[-151,0],[-49,2],[-226,0]],[[22688,11636],[0,82],[37,0],[0,22],[-37,0],[1,127]],[[20859,12568],[1,422],[0,168]],[[23792,11678],[11,-7],[2,-18],[-6,-18],[10,-23],[20,-14]],[[23796,11558],[-23,-9]],[[23752,11634],[-1,18],[17,6],[23,0],[1,20]],[[23680,11634],[3,-7],[-20,-26],[-1,-10]],[[23662,11591],[-34,1],[0,-26],[12,-16]],[[23640,11550],[-71,0],[-6,-2]],[[23563,11548],[-84,0],[0,87],[201,-1]],[[23773,11549],[0,-85]],[[23773,11464],[-37,0]],[[23736,11464],[0,85]],[[23640,11550],[27,0]],[[23667,11550],[56,-1]],[[23736,11464],[-36,1]],[[23700,11465],[-148,-1]],[[23552,11464],[1,67],[10,17]],[[23804,11465],[0,58]],[[23853,11527],[15,-11],[7,-25],[-2,-12],[-30,-5],[13,-18],[-1,-16],[-11,-10]],[[23804,11440],[0,25]],[[23804,11465],[-31,-1]],[[22688,11636],[-8,0]],[[18183,5740],[0,-49]],[[18183,5691],[-15,-9],[-21,11],[-11,19],[-1,28],[48,0]],[[18111,5800],[26,1],[6,37],[9,26],[-1,30],[11,15],[20,1]],[[18182,5910],[1,-170]],[[18183,5691],[4,-35]],[[18187,5656],[-25,17],[-50,-2]],[[18112,5671],[-1,129]],[[20701,16793],[227,-1],[141,-3],[44,0],[35,6],[73,-1],[61,3],[90,0],[71,-4],[0,-85],[73,-6],[28,5],[53,4],[140,1],[105,-2],[194,-1]],[[22036,16709],[0,-83]],[[22036,16626],[-1,-251],[1,-167],[-2,-13],[0,-242],[0,-345],[0,-422]],[[22034,15186],[-370,1],[-455,-1],[-62,0]],[[21147,15186],[-368,0]],[[20779,15186],[-1,361],[1,343],[-1,306],[0,7],[-75,0],[1,85],[-3,159],[0,307],[0,39]],[[7825,7607],[-72,-2]],[[19143,16462],[0,79],[223,0],[0,-169],[-223,0],[0,90]],[[16898,12297],[0,-145],[35,0],[33,50],[2,44],[16,19],[11,3],[17,32],[17,-4],[23,27],[20,-10],[18,3],[9,12],[34,-13],[-2,-27],[-8,-20],[23,-87],[1,-21],[10,-31],[22,-13],[-3,-16],[6,-32],[-9,-10],[3,-20],[-17,-34],[8,-37],[17,14],[12,18],[31,12],[17,-2],[15,6],[32,29],[32,-4]],[[17323,12040],[-6,-36],[-8,-17],[7,-28],[-1,-19],[44,-25],[28,-10],[-10,-11],[-10,-35],[3,-8],[1,-717]],[[17371,11134],[-82,-3],[-181,-1],[-289,2],[-8,4],[-188,-2],[-5,2],[-418,-4],[-72,0]],[[16128,11132],[-117,0]],[[16011,11132],[-4,17],[-20,2],[-44,35],[8,19],[-13,24],[-21,0],[-16,12],[-5,18],[-20,11],[-21,5],[-11,16],[-2,17],[-12,5],[-13,33],[10,13],[-11,48],[10,9],[-2,26],[-30,26],[-2,22],[10,36],[-10,18],[-4,20],[-9,4],[-16,23],[-1,46],[74,0],[-1,169],[147,0],[-1,169],[74,-1],[0,172],[73,0],[1,82],[4,3],[103,-1],[3,42],[18,3],[-1,123],[-20,42],[19,4],[30,39],[31,-12],[12,-31],[15,-10],[10,-16],[25,-8],[16,56],[30,57],[10,-2],[-13,-80],[-6,-19],[-8,-63],[1,-28],[25,22],[10,-7],[15,-28],[9,4],[3,54],[12,34],[0,18],[14,19],[14,-12],[12,-21],[-31,-64],[-6,-58],[17,-16],[19,21],[10,-18],[40,-5],[26,-8],[11,-11],[30,15],[77,1],[14,-9],[12,-37],[21,3],[-16,19],[-15,33],[-1,18],[94,0],[74,3]],[[17323,12040],[56,-34],[38,42],[6,23],[-8,15],[-6,43],[7,16],[42,12],[30,22]],[[17488,12179],[-8,-36],[3,-21],[17,-29],[14,-12],[12,39],[8,37],[17,37],[33,27],[16,21],[54,39],[20,7],[22,21],[11,25],[18,22],[6,31],[47,-12]],[[17778,12375],[25,-2],[24,-17],[-14,-14],[-4,-17],[2,-25],[17,-48],[12,-16],[5,-18],[21,-22],[-5,-24],[8,-71],[-12,-17],[4,-20],[12,-8],[0,-23],[46,-17],[7,8],[-5,24],[0,43],[12,2],[6,-25],[15,-16],[-14,-22],[7,-21],[27,-24],[10,-63],[-10,-27],[-20,-23],[-32,7],[-33,-10],[-20,-24],[-1,-21],[-25,-39],[-17,-15],[9,-30],[15,-1],[18,23],[17,33],[23,21],[8,20],[18,11],[7,12],[13,-6],[23,6],[60,54],[22,50],[16,47],[10,6],[23,0],[26,28],[39,2],[38,-16],[39,-4],[28,-48],[-4,-38],[-19,-30],[17,-33],[7,-61],[13,-24],[26,-35],[32,-35],[49,-44],[9,-22],[-17,-23],[-16,-11],[8,-10],[4,-34],[22,-41],[143,1],[3,-8],[193,-1]],[[18748,11529],[0,-400]],[[18748,11129],[-64,-1],[-2,7],[-273,1],[-91,-1],[-299,1],[-66,1],[-180,-1],[-244,-2],[-62,1],[-96,-1]],[[1798,10888],[234,-1],[334,0],[13,-1],[130,-36],[17,-3]],[[2526,10847],[0,-50],[5,0],[65,-73],[3,-6],[72,0],[0,84],[146,-1]],[[2817,10801],[0,-109],[27,-26],[37,-10],[43,-23],[70,-41],[45,-20],[2,-32],[-5,-14],[-1,-30],[16,-29],[-16,-23],[0,-101],[33,-20],[55,-22],[35,4],[9,-19],[11,-38],[-25,-3],[-32,-18],[-13,-18],[4,-29],[-10,-29],[6,-18],[-21,-36],[9,-31],[1,-29],[24,4],[14,-32],[8,-4],[15,-31],[25,-13],[39,-1]],[[3222,9960],[1,-169],[1,-332],[-1,-173],[-1,-167],[1,-83],[0,-589],[1,-81],[-1,-251]],[[1834,12085],[25,-27],[16,-4],[39,9],[35,34],[28,48],[24,23],[22,6],[31,17],[33,34],[19,8],[29,-2],[16,-6],[64,-39],[56,-16],[18,1],[61,20],[115,65],[22,10],[24,3],[42,-14],[19,-2],[25,22],[13,29],[9,58],[14,17],[44,9],[49,-14],[23,1],[14,9],[24,37],[6,40],[-15,34],[-18,15],[-50,19],[-12,16],[5,20],[52,93],[34,45],[34,49],[12,21],[22,27],[18,11],[58,-6],[94,12],[40,13],[23,17],[23,9],[21,0],[31,14],[32,7],[35,-4],[16,-16],[2,-30],[-6,-59],[15,-18],[27,12],[21,21],[19,12],[28,4],[56,12],[57,2],[63,-21],[17,2],[34,21],[71,12],[64,-4],[23,-7],[30,-21],[33,-51],[30,-11],[44,0],[25,9],[24,17],[29,30],[32,27],[33,5],[33,-13],[51,-28],[39,-36]],[[4142,12744],[15,-7],[60,-21],[40,2],[32,15],[27,19],[27,26],[10,5],[29,-9],[44,-29],[17,-23],[8,-19],[-4,-62],[-10,-30],[-10,-9],[-38,-17],[-9,-7],[9,-16],[40,-8],[37,-16],[31,-3],[38,3],[31,-2],[50,-25],[40,-6],[32,-16],[14,-19],[4,-47],[-4,-57],[-12,-26],[-3,-20],[6,-22],[16,-25],[23,-21],[51,-12],[25,7],[23,14],[31,32],[28,1],[20,-30],[10,-23],[2,-62],[-1,-41],[5,-29],[13,-18],[31,-21],[41,-22],[54,-20],[12,-12]],[[4292,10126],[-200,2],[-116,0],[-218,-1],[-289,0],[-104,1],[-143,1],[0,-169]],[[2817,10801],[-1,169],[-290,1],[0,-124]],[[4774,10997],[38,-50],[23,-50],[42,-35],[53,-31],[44,-36],[73,-52],[48,2],[42,13],[46,5],[33,-6],[44,-14],[39,-31],[21,-27],[29,-30],[46,-23],[50,-4],[40,-6],[12,-6],[48,-36],[30,-4],[31,11],[39,28]],[[6463,6261],[-215,0],[-292,0],[-276,0],[-149,1],[-74,-1],[-143,-1]],[[5314,6260],[-143,1],[0,-169],[-215,1],[-317,-1],[-115,0],[-233,-3],[-205,0],[-257,0],[-86,-1],[-180,0]],[[3563,6088],[-114,0]],[[22036,16626],[74,-2],[162,0],[228,1],[129,-1],[122,0],[173,-2],[13,1],[169,-2],[118,0],[75,-2],[70,-1],[22,-8]],[[23391,16610],[-5,-25],[29,-4],[10,-7],[-9,-16],[-22,-9],[-8,-15],[25,-15],[19,-37],[-6,-25],[-20,-14],[-4,-14],[12,-30],[10,-7],[20,4],[14,-4],[7,-22],[-1,-24],[-17,-25],[-2,-10],[15,-12],[28,-2],[4,-13],[-11,-14],[-15,-3],[-1,-17],[36,-30],[14,-41],[9,-13],[30,-19],[-2,-12],[-29,-8],[0,-24],[14,-17],[15,-30],[18,-16],[46,-22],[-2,-22],[-26,6],[-6,-14],[6,-56],[-3,-19],[-24,-16],[2,-15],[24,0],[2,-24],[-23,-37],[-3,-21],[-28,-29],[14,-17],[9,-40],[-6,-13],[-14,-7],[-32,21],[-12,0],[-12,-15],[8,-23],[30,-33],[3,-16],[-15,-5],[-25,27],[-14,-12],[22,-31],[-13,-13],[-32,10],[-21,-6],[-9,-12],[5,-17],[19,-5],[20,5],[9,-16],[-15,-17],[-15,-28],[-28,-4],[-1,-22],[23,1],[12,-10],[-1,-39],[-7,-24],[-9,-3],[-24,10],[-17,-4],[3,-23],[27,-4],[9,-23],[-10,-30],[-13,-9],[-59,-10],[-10,-25],[12,-11],[24,-11],[45,3],[32,-5],[12,-15],[-13,-16],[-52,1],[-15,15],[-16,-17],[4,-24],[13,-27]],[[23378,15182],[-60,-1],[-329,3],[-137,0],[-199,1],[-172,0]],[[22481,15185],[-447,1]],[[22035,17850],[320,0],[309,0],[484,-1],[-15,-13],[3,-18],[21,-8],[-21,-22],[-17,-28],[-2,-30],[2,-41],[-5,-22],[3,-18],[27,-10],[9,-11],[-14,-36],[-8,-49],[6,-8],[19,-4],[-1,-37],[4,-24],[13,-16],[17,1],[8,-17],[-10,-15],[-7,-30],[9,-17],[13,-6],[9,-18],[-7,-35],[8,-28],[11,-11],[47,-23],[11,-18],[-6,-20],[-30,4],[10,-35],[-8,-23],[11,-20],[20,-13],[34,2],[10,-15],[-36,-42],[-2,-25],[18,4],[17,-11],[0,-31],[19,-29],[-11,-37],[8,-28],[-2,-22],[-31,-15],[1,-26],[19,-27],[-9,-33],[-28,-14],[-1,-16],[24,6],[27,-19],[31,0],[21,-6],[4,-18],[-12,-13],[-19,-4],[-45,-24],[-1,-21],[16,3],[13,17],[18,5],[15,-12],[-6,-20],[-21,4],[-15,-12],[10,-15],[23,-7],[16,4],[8,-23]],[[22036,16709],[1,329],[-1,351],[-2,343],[1,118]],[[20701,17849],[243,1],[349,0],[464,0],[278,0]],[[20701,16793],[2,336],[2,160],[-1,89],[-5,170],[2,301]],[[11458,9124],[1,-254],[-1,-511],[0,-250]],[[10466,7116],[-4,9],[-30,42],[-26,45],[-24,80],[-10,50],[1,47],[22,79],[20,49],[14,48],[1,37],[-5,55],[-15,31],[-22,13],[-15,20],[-4,27],[-30,34],[-56,39],[-24,27],[-46,30],[-48,13],[-21,18],[-79,12],[-16,6],[-23,-7],[-39,0],[-28,-9],[-34,-6],[-71,-39],[-26,-9],[-23,-3],[-56,-14],[-24,-14],[-8,-18],[-10,-43],[2,-46],[-23,-69],[-25,-11],[-44,9],[-45,27],[-20,23],[-53,38],[-23,7]],[[23674,8551],[6,66],[5,19],[54,-1],[0,42],[18,0],[0,22],[52,-1],[21,6],[36,1],[0,-113],[-36,1],[0,-83],[-147,0],[-9,41]],[[22319,9188],[68,-1],[11,7],[16,-7],[61,0],[20,-7],[54,-61]],[[22549,9119],[24,-16],[31,-1],[1,-84],[71,-1],[73,2],[70,-3],[67,0],[-1,42],[7,1],[-1,42]],[[22891,9101],[60,-3],[36,3],[64,-1],[386,-1],[194,2],[160,0],[180,-2],[440,-1],[21,14]],[[24432,9112],[7,-11],[-41,-34],[-10,-14],[38,-16],[1,-10],[-14,-13],[-21,6],[-20,-38],[12,-4],[15,22],[15,3],[14,-12],[-11,-24],[-19,-13],[3,-30],[19,-33],[-13,-21],[-17,-3],[3,-14],[18,0],[8,-12],[-15,-12],[7,-11],[-9,-20],[13,-35],[-6,-12],[-15,-2],[1,-15],[23,-9],[-30,-26],[1,-14],[21,4],[10,-13],[-26,-15],[-13,-20],[17,-11],[-3,-16],[11,-23],[12,-6],[36,15],[7,-10],[-33,-29],[24,-13],[19,-20],[-13,-17],[-16,-6],[-3,-13],[13,-7],[18,2],[7,-17],[-14,-23],[13,-17],[-11,-12],[-23,12],[-7,-11],[18,-15],[-4,-21],[-24,2],[-4,-14],[16,-11],[15,-1],[19,17],[7,-13],[-21,-18],[-24,8],[-23,-4],[2,-16],[20,1],[8,-22],[-11,-12],[4,-20],[39,-5],[-20,-19],[-7,-18],[2,-18],[14,-16],[4,-15],[21,-2],[15,-18],[-12,-29],[-30,-6],[-11,-18],[8,-13],[12,1],[17,24],[15,-5],[7,-12],[-9,-13],[-18,-5],[7,-25],[-8,-13],[-13,1],[-18,-9],[12,-19],[-4,-20],[27,4],[17,-34],[-14,-14],[-5,-18],[-25,-39],[1,-27],[8,-30],[3,-46],[-20,-14],[4,-24],[30,0],[5,-13],[-17,-12],[-18,5],[-8,-16],[39,-1],[-1,-18],[-8,-20],[-20,-27],[8,-11],[16,21],[17,-30],[-8,-15],[-14,-6],[18,-36]],[[24491,7587],[-46,-2],[-111,3],[-64,0],[-148,3],[-155,1],[-374,-1],[-295,1],[-299,-2],[-272,2],[-234,0],[-100,1]],[[22393,7593],[1,137],[0,200],[-1,160],[-77,1],[0,253],[0,40],[1,171],[0,203],[2,92],[0,333],[0,5]],[[20585,10116],[346,-1]],[[22321,10114],[-1,-456],[-1,-429],[0,-41]],[[22393,7593],[-98,1],[-243,-2],[-90,1],[-432,5]],[[21530,7598],[-291,2],[-217,0],[-143,2],[-216,-2]],[[20663,7600],[2,340],[1,6],[1,153],[-90,1],[2,168],[-1,116],[1,75],[2,400],[1,442],[2,393],[-1,7],[2,415]],[[14029,4063],[-1,-431],[-1,-270],[-2,-295],[0,-418],[0,-454],[-1,-110],[1,-58],[131,-2]],[[14156,2025],[-1,-113],[0,-189],[1,-250],[-2,-99],[0,-154],[0,-85],[-1,-165],[0,-56],[-1,-449],[-1,-87],[0,-257],[-1,-84]],[[14150,37],[-50,0],[-238,2],[-277,1],[-268,2],[-55,1],[-64,0],[-293,3],[-158,0],[-50,2],[-240,-1],[-107,2],[-345,1]],[[11740,2870],[-24,65],[-4,26],[1,45],[18,81],[5,45],[1,35],[15,80],[11,38],[16,37],[13,13],[41,24],[41,45],[16,32],[6,31],[-1,19],[-46,70],[-36,59],[-26,39],[-37,63],[-2,19],[7,15],[16,8],[32,-17],[21,4],[15,34],[0,21],[-24,36],[-57,32],[-58,24],[-80,50],[-14,12],[-39,49],[-42,38],[-29,31]],[[5077,12016],[80,-1],[370,2],[153,-1],[109,0],[293,-1],[48,3]],[[6130,12018],[-29,-4],[-38,-35],[7,-18],[-19,-4],[-2,-16],[-17,-17],[9,-22],[-18,-5],[1,-14],[-26,-27],[-12,4],[-15,-15],[7,-31],[-6,-7],[12,-43],[-28,-22],[-2,-21],[10,-16],[-28,-44],[2,-38],[-22,-1],[-15,-29],[3,-12],[-19,-54],[7,-44],[16,16],[16,-21],[-13,-39],[12,-15],[-13,-35],[0,-50],[16,-30],[15,-8],[-17,-31],[15,-4],[13,-29],[1,-23],[7,-23],[20,-21],[14,-34]],[[20509,2024],[282,-2],[456,1],[172,-1],[231,0],[363,1],[248,0]],[[22261,2023],[6,0]],[[22267,2023],[0,-165],[-62,1],[-3,-440],[-1,-151],[-70,1],[0,84],[-71,-1],[0,-84],[-212,2],[-213,0],[-1,-252],[0,-169],[-214,0],[-207,-1],[0,-84],[-71,0],[0,85],[-286,-2],[1,170],[-351,-1]],[[20506,1016],[1,250],[2,758]],[[4135,5571],[41,21],[20,3],[78,0]],[[4274,5595],[0,-32]],[[4274,5563],[0,-10]],[[4274,5553],[-24,-2],[-16,-8],[-32,0],[0,-61]],[[4202,5482],[-41,-7],[-31,-18]],[[4130,5457],[0,105],[5,9]],[[4274,5732],[0,-137]],[[4135,5571],[-5,20],[0,141],[144,0]],[[6130,12018],[315,-2],[423,-1],[86,-2],[290,0],[99,0],[47,3]],[[7390,12016],[0,-205],[-1,-85],[1,-253],[-1,-84],[0,-253]],[[3948,15205],[176,0],[267,0],[375,1],[610,0],[318,-1],[467,0]],[[6161,15205],[414,0],[470,1],[0,-422],[0,-511],[-1,-81],[174,0],[1,-263]],[[7219,13929],[0,-452],[0,-455],[0,-231],[-1,-128],[1,-147],[0,-357],[171,0],[0,-143]],[[4142,12744],[1,8],[1,268],[-1,17],[0,303],[1,89],[-1,151],[0,73],[0,541],[-194,0]],[[24610,5467],[14,-2]],[[24624,5465],[31,-3],[30,4]],[[24685,5466],[-19,-18],[4,-21],[-11,-32]],[[24659,5395],[-49,0]],[[24610,5395],[0,72]],[[24574,5395],[36,0]],[[24659,5395],[21,-24],[0,-22],[-20,12],[-3,-22],[14,-5],[13,8],[8,-16],[-22,-12]],[[24670,5314],[-36,7],[-25,-2]],[[24609,5319],[-36,-7]],[[24573,5312],[1,83]],[[22895,5056],[64,1],[218,1],[351,-1],[218,3]],[[23746,5060],[429,3]],[[24175,5063],[0,-63]],[[24175,5000],[2,-445],[144,-2]],[[24321,4553],[343,-3]],[[24664,4550],[-17,-14],[12,-17],[-16,-16],[16,-11],[-25,-16],[17,-33],[5,-22],[-17,-34],[17,-6],[-10,-17],[0,-37],[-15,-9],[-10,17],[-15,-10],[2,-22],[16,-14],[-3,-26],[-13,11],[6,-53],[-6,-14],[0,-20],[28,-30],[-12,-15],[12,-22],[16,-15],[-16,-8],[-8,-26],[-17,-23]],[[24611,4048],[-29,0],[-270,0],[-97,0],[-261,-2],[-257,0],[-235,-2],[-284,-1],[-203,0]],[[22975,4043],[-82,0]],[[22893,4043],[1,422],[-1,252],[2,339]],[[22468,6073],[355,-2],[0,284],[2,222],[142,-1],[180,0],[131,0],[55,2],[59,0],[298,1],[-2,-304],[-1,-206],[69,0]],[[23756,6069],[-3,-16],[-4,-149],[-2,-252],[-144,0],[1,-85],[-37,0],[0,-84],[180,2],[-1,-425]],[[22895,5056],[-152,0],[-277,1],[1,241],[0,334],[1,441]],[[24538,5443],[43,0],[0,24],[29,0]],[[24574,5395],[-36,-1]],[[24538,5394],[0,49]],[[24536,6066],[-8,-40],[10,-15],[21,-7],[12,-14],[17,20],[14,6],[18,-12],[-15,-41],[-13,-12],[14,-16],[2,-19],[-17,-26],[15,-14],[22,14],[6,-18],[-3,-17],[8,-21],[-5,-18]],[[24634,5816],[-22,-1],[-1,-169],[36,1]],[[24647,5647],[0,-21],[-36,-1],[0,-63]],[[24611,5562],[-59,1]],[[24552,5563],[-21,0],[-61,37]],[[24470,5600],[-74,47]],[[24396,5647],[0,189],[0,231],[140,-1]],[[22393,7593],[0,-93],[1,-207],[2,-501],[-1,-36],[-3,-683],[76,0]],[[22893,4043],[-231,0],[-543,1],[-356,1]],[[21763,4045],[-152,1]],[[21611,4046],[0,335],[1,594],[0,440],[1,315],[-1,346],[-83,0],[1,254],[1,84],[0,176],[-1,416],[1,89],[-1,503]],[[24625,5513],[51,-5],[12,-11]],[[24688,5497],[-17,7],[4,-24],[10,-14]],[[24624,5465],[1,48]],[[24647,5647],[16,-1]],[[24663,5646],[-1,-84]],[[24662,5562],[-36,0]],[[24626,5562],[-15,0]],[[24250,5513],[13,-16],[-20,-9],[-6,-11],[9,-39],[-3,-38]],[[24243,5400],[-4,-8],[12,-37],[-11,-30]],[[24240,5325],[-64,69]],[[24176,5394],[-19,23],[-23,39],[-32,27],[-25,6],[-45,0],[0,47],[218,-23]],[[24468,5227],[69,-1]],[[24537,5226],[1,-59]],[[24538,5167],[3,-111]],[[24541,5056],[-69,4]],[[24472,5060],[0,1]],[[24472,5061],[-4,166]],[[24491,7587],[15,-19],[-9,-20],[-18,21],[-15,-10],[-5,-13],[10,-11],[24,-3],[4,-14],[-42,-22],[0,-26],[10,1],[9,28],[10,-1],[9,-16],[-12,-16],[-1,-12],[20,-20],[0,-13],[-22,-13],[20,-13],[-44,-60],[1,-17],[14,-3],[2,29],[37,-21],[6,-23],[-23,-8],[-9,-10],[12,-13],[24,13],[12,-3],[-9,-40],[-25,-3],[4,-20],[26,-3],[-6,-40],[20,-10],[-4,-14],[-15,-10],[-19,-1],[2,-16],[17,2],[5,-17],[-16,-6],[-23,11],[-20,-33],[15,-13],[15,5],[10,-18],[-17,-10],[1,-15],[17,-13],[7,-28],[-15,-30],[23,-13],[-9,-28],[-28,6],[6,-20],[14,3],[19,-20],[10,-22],[-7,-24],[22,-6],[1,-23],[-18,-22],[13,-17],[-3,-38],[-5,-10],[12,-17],[-13,-12],[0,-14],[11,-22],[-32,-12],[-11,-11],[18,-13],[2,-37],[10,-17]],[[24535,6568],[-245,5],[-100,4],[0,-170],[-70,1],[-1,-97],[1,-80],[-2,-163],[-25,1],[-337,0]],[[24663,5646],[0,52],[4,18],[16,1],[1,51]],[[24684,5768],[6,28],[45,24],[2,-16],[-9,-33],[35,-9],[-3,-12],[-21,8],[-9,-14],[21,-25],[-25,-30],[3,-14],[-6,-25],[-15,6],[-15,-16],[12,-17],[-17,-12],[-1,-26],[20,-6],[-16,-20]],[[24691,5559],[-29,3]],[[14262,14185],[285,0],[90,-1],[390,1],[192,-1],[245,0]],[[15464,14184],[596,-1],[397,-1]],[[16457,14182],[0,-524],[1,-108],[0,-561],[1,-61],[16,-17],[8,-21],[22,5],[39,-13],[56,-31],[30,-21],[10,2],[24,28],[17,1],[18,-20],[-9,-22],[15,-14],[-3,-13],[21,-20],[19,-45],[2,-15],[-9,-24],[4,-17],[27,-20],[132,1],[-1,-169],[1,-186]],[[16011,11132],[-34,-1],[-472,1],[-250,0],[-443,1],[-432,1]],[[14380,11134],[0,265],[1,750],[-123,0],[1,363],[0,143],[1,337],[0,330],[1,430],[1,184],[0,249]],[[13071,11137],[71,-1],[176,0],[190,-1]],[[13508,11135],[0,-253],[0,-169],[-1,-145],[1,-360],[-1,-85],[125,1],[-1,-76],[0,-422],[1,-169],[0,-346],[-1,-415],[-1,-83],[0,-228],[0,-146],[0,-133]],[[17013,4048],[11,2],[338,0],[389,1],[412,1],[446,0],[432,1]],[[19041,4053],[381,0]],[[19422,4053],[-1,-303],[-1,-206],[1,-326],[0,-265],[-142,1],[-1,-80],[1,-211],[0,-125],[-1,-87],[1,-425]],[[19279,2026],[-458,-1],[-89,0],[-435,0],[-46,-1],[-248,0],[-355,2],[-105,-1],[-408,1],[-8,-1]],[[17127,2025],[-116,0]],[[17011,2025],[0,251],[-1,3],[0,228],[1,195],[0,118],[0,389],[2,338],[-1,89],[1,164],[0,248]],[[19422,4053],[355,0],[312,0],[327,-2]],[[20416,4051],[2,-508],[-1,-109],[-1,-476],[-3,-432],[1,-80],[0,-422]],[[20414,2024],[-106,1],[-211,-1],[-385,1]],[[19712,2025],[-433,1]],[[13926,10715],[18,-8],[0,133],[38,-19],[10,3],[23,-8],[0,-103],[74,0],[0,-169],[-80,1],[-14,3],[-17,17],[-41,81],[-5,52],[-6,17]],[[11,2009],[121,0],[70,1],[504,0],[134,-1],[87,0],[190,0],[273,-1],[158,1],[404,-1],[332,0],[396,0],[299,0],[408,0],[189,4]],[[3576,2012],[-1,-267],[1,-162],[0,-591],[1,-343],[-1,-84],[-1,-419],[1,-87]],[[3576,59],[-133,1],[-44,-2],[-403,0],[-92,1],[-176,0],[-420,0],[-67,-2],[-73,2],[-192,0],[-93,-2],[-22,2],[-424,0],[-405,-1],[-19,1],[-415,0],[-53,-1],[-66,2],[-315,-1],[-153,0],[-3,320],[-1,141],[3,307],[2,518],[0,232],[-1,432]],[[2024,1487],[3,-27],[18,-31],[2,-22],[47,0],[0,-54],[17,-34],[14,-15],[24,-4],[16,-47],[2,114],[24,-12],[14,-1],[19,-20],[6,-16],[12,-5],[8,-44],[18,-2],[2,14],[14,20],[22,19],[0,206],[0,219],[-141,0],[0,-169],[-71,0],[0,-85],[-59,19],[-11,-23]],[[23700,11465],[-1,-85]],[[23699,11380],[-146,0]],[[23553,11380],[-1,84]],[[17138,17847],[444,0],[447,0],[500,1],[351,0],[367,0],[299,0],[351,0],[365,1],[439,0]],[[20779,15186],[-448,1],[-437,0],[-442,3]],[[19452,15190],[-384,-1],[-496,0],[-468,2],[-451,0],[-210,0],[-205,2]],[[17238,15193],[0,155],[-1,171],[1,310],[0,376],[-100,0],[-3,186],[0,262],[0,391],[2,169],[-1,4],[1,581],[1,49]],[[20472,5819],[46,25],[32,1]],[[20550,5845],[136,-19],[0,-86],[-3,-8],[-33,-1]],[[20650,5731],[-12,14],[-50,11],[-72,-2],[-35,-4],[-1,26],[-8,43]],[[18946,7601],[494,1],[365,3],[135,-2],[82,2],[206,1],[173,-3],[117,0],[80,-2]],[[20598,7601],[38,-20],[1,-10],[17,-10],[8,-17],[0,-102],[3,-137],[-12,-20],[-46,-55],[-22,-34],[-33,-42],[-22,-12],[-23,-22],[-17,-26],[-6,-22],[-28,-63],[-16,-17],[-7,-27],[1,-16],[-11,-6],[-7,-26],[6,-48],[9,-28],[16,-24],[28,-27],[14,-46],[-15,-46],[-13,-22],[-60,-54],[-19,-29],[-19,-23],[-13,-6],[-25,-28],[-15,-34],[-2,-24],[3,-34],[-13,-26],[-45,-52],[-34,-18],[-31,-32],[5,-9],[-15,-44],[7,-19],[5,-33],[15,-45],[7,-30],[15,11],[17,-17],[-13,-15],[47,-38],[7,0],[17,-44],[21,-23],[5,14],[16,-11],[19,-22],[11,11],[56,-10],[-1,-20],[16,-1],[11,-15],[9,9],[16,-20],[-2,-25],[22,-20],[3,-17],[26,3],[5,-26],[15,-15]],[[20472,5819],[-3,3],[-139,2],[-1,-157],[67,-4],[48,12],[0,16],[37,-11],[16,3],[7,-13]],[[20504,5670],[38,-74],[-1,-293],[-5,-24],[5,-28],[0,-173],[18,-33],[0,-52],[3,-10],[24,-11],[3,-102],[15,-100],[-5,-34],[0,-36],[-4,-65],[4,-28],[13,-40],[-1,-142],[-2,-27],[1,-54],[6,-21],[-8,-24],[7,-29],[-5,-33],[2,-187]],[[20612,4050],[-196,1]],[[19041,4053],[1,338],[-2,337],[2,327],[0,99],[-2,336],[1,86]],[[19041,5576],[-1,421],[-1,85],[-95,0],[1,514],[0,232],[0,434],[1,222],[0,117]],[[20650,5731],[2,-25],[-18,8],[-20,1],[0,-50],[-22,-1],[-88,6]],[[20598,7601],[65,-1]],[[21611,4046],[-323,1],[-492,2],[-114,1],[-70,0]],[[4274,5553],[-1,-61]],[[4273,5492],[-71,-10]],[[4274,5563],[72,1],[-1,-79]],[[4345,5485],[-72,7]],[[3806,4047],[112,0]],[[3918,4047],[69,1],[530,-2],[256,0],[86,1],[271,-1]],[[5130,4046],[213,0],[246,1]],[[5589,4047],[0,-160],[-18,-2],[1,-45],[17,-19],[0,-356],[71,0],[1,-119],[-16,-3],[-8,-20],[-19,7],[-12,-13],[6,-24],[-3,-15],[-13,-8],[4,-19],[-11,-39],[1,-337],[-71,-1],[0,-229],[10,-9],[-1,-21],[-8,-7],[-1,-216],[-6,-16],[-23,-23],[-6,-17],[0,-221],[-178,-3],[0,-85],[-41,0]],[[5265,2027],[-241,-3],[-323,0],[-347,-6],[-128,-1],[-238,1],[-172,-1]],[[3816,2017],[-3,338],[1,4],[-2,165],[0,135],[2,201],[0,195],[-1,130],[-1,172],[1,167],[-6,268],[-2,225],[1,30]],[[5589,4047],[91,0],[390,3],[133,2],[57,0],[261,1],[105,-1]],[[6961,1574],[-355,0],[-77,-1],[-276,1],[-347,2],[-407,0],[-33,1],[-59,-1],[-140,1],[-2,450]],[[4345,5485],[69,-10],[63,-34]],[[4477,5441],[-11,-56],[-49,-16],[0,-105],[-110,-1],[-99,24],[-6,0],[0,107],[18,1],[0,24],[-21,-13],[-31,-1],[-7,14],[-29,10],[-12,22],[10,6]],[[10657,6187],[-27,-13],[-38,-29],[-15,-18],[-11,-26]],[[10566,6101],[-104,1],[-294,-4],[-245,-1],[-179,-3],[-210,-3],[-145,-1]],[[9389,6090],[-597,1],[-90,1],[-194,-1],[-89,1],[-135,-1],[-168,0],[-362,1]],[[10672,5750],[-7,-47],[-4,-59],[14,-44],[96,-184],[40,-109],[18,-36],[16,-25],[47,-55]],[[10892,5191],[20,-26]],[[10912,5165],[-23,0],[-37,22]],[[10852,5187],[-23,21],[-21,32],[-21,14],[-75,23],[1,-21],[6,-42],[-30,-7],[-2,12],[-20,5],[-18,-8],[0,-39]],[[10649,5177],[-43,-4],[-19,5],[-120,43]],[[10467,5221],[-67,25],[-26,19],[-28,27],[-40,14],[15,81],[-1,146],[1,99],[11,43],[1,21],[-11,81],[0,124],[-2,13],[148,2],[5,-11],[35,-59],[5,-23],[-2,-44],[14,-29],[33,-31],[11,-21],[11,8],[-18,35],[6,8],[104,1]],[[9389,6090],[3,-569],[3,-292],[4,-17],[-4,-29],[1,-199],[5,-250],[0,-95],[4,-405],[-15,-18],[-79,2],[-13,-15],[2,-133],[-1,-20]],[[6628,4558],[-1,166],[0,171],[0,325],[-1,12],[-1,450],[-1,405],[5,5]],[[10852,5187],[-41,21],[-57,-14]],[[10754,5194],[-103,-24],[-2,7]],[[10566,6101],[-8,-30],[-3,-29],[4,-20],[16,-28],[71,-66],[11,-13],[10,-37],[7,-77],[-2,-51]],[[10467,5221],[1,-184],[-6,-16],[5,-23],[3,-179],[87,3],[126,2]],[[10683,4824],[19,0],[31,-9],[14,9],[37,0]],[[10784,4824],[-27,-83],[0,-85],[38,0],[186,0],[28,5]],[[9193,13367],[2,9]],[[9195,13376],[114,12],[14,3]],[[9323,13391],[3,-54],[18,0]],[[9344,13337],[0,-104]],[[9344,13233],[-18,2],[-65,19],[-21,13],[-44,47],[-12,5]],[[9184,13319],[9,48]],[[9323,13391],[21,20]],[[9344,13411],[6,8],[20,3],[11,-16],[2,-19],[17,-8]],[[9400,13379],[3,-16]],[[9403,13363],[-4,-26],[-55,0]],[[6881,16724],[1,-506],[263,-1],[345,0],[-1,-129],[-1,-561],[0,-444],[0,-384],[159,0],[284,-1],[411,-1]],[[8342,14697],[5,-13],[34,-8],[4,-11],[-6,-25],[24,-1],[18,-13],[12,12],[32,-18],[15,-26],[31,-32],[-8,-16],[22,-14],[4,-12],[19,18],[17,-19],[-13,-29],[18,-34],[3,-56],[-20,-4],[2,-25],[7,-19],[17,-6],[6,-23],[2,-48],[48,-37],[-6,-26],[-27,-1],[7,-17],[22,11],[-5,-22],[9,-11],[-7,-19],[30,-30],[27,-19],[28,-4],[-1,-14],[12,-7],[-2,-17],[26,2],[-5,-26],[14,3],[24,-15],[-3,-19],[44,-85],[11,-12],[14,18],[17,-16],[-3,-32],[-8,-18],[18,-19]],[[8871,13843],[-207,1],[-32,-10],[-38,-6],[-11,-12],[-32,9],[-30,14],[-26,5],[-329,2],[-131,-1],[-118,0],[-16,9],[-58,65],[-20,11],[-130,0],[-85,-1],[-36,7],[-38,-6],[-135,-1],[-180,0]],[[6161,15205],[0,167],[-1,293],[1,292],[1,261],[275,0],[0,259],[1,247],[443,0]],[[9343,13125],[24,-4],[9,13],[-1,18],[32,5],[11,-14],[13,1],[14,-12],[41,52],[14,-3],[5,-21],[20,3],[9,9],[13,-6],[23,21],[16,-19],[51,1],[1,190]],[[9638,13359],[234,0],[17,8],[37,42],[15,7],[46,6],[313,-1]],[[10300,13421],[-1,-234]],[[9355,11141],[0,266],[2,26],[-9,77],[12,54],[-9,52],[3,47],[0,151],[-1,53],[7,35],[1,98],[4,31],[-2,26],[-9,44],[0,44],[-9,56],[0,293],[0,420],[1,33],[0,123],[-3,55]],[[9206,13529],[83,0],[3,-28],[18,-6],[2,-31]],[[9312,13464],[-42,0],[0,-42],[-68,0]],[[9202,13422],[-4,42],[0,33],[8,32]],[[8342,14697],[533,-1],[442,-1],[280,-1],[549,-1]],[[10146,14693],[-1,-506],[155,0],[1,-87],[0,-259],[-1,-196],[0,-224]],[[9638,13359],[0,63],[-147,-1],[0,253],[-146,0]],[[9345,13674],[-50,-1],[-15,-5],[-15,-16],[-59,-123]],[[9202,13422],[-7,-46]],[[9193,13367],[-22,-6],[-5,-11],[-15,7],[-17,22],[-15,29],[-20,16],[-2,22],[-17,7],[-3,-13],[-19,12],[-11,-25],[-9,5],[-11,23],[6,21],[-14,4],[-15,-11],[-12,14],[-3,32],[-16,14],[-21,33],[-1,32],[-8,14],[-11,33],[5,26],[-16,15],[18,11],[-14,12],[4,11],[-25,32],[-7,15],[14,19],[-20,16],[-8,15],[5,37],[-17,-7]],[[9273,14524],[5,26],[20,18],[10,19],[-20,1],[-10,-20],[-46,0],[0,-21],[27,0],[1,-21],[-42,1],[0,20],[-20,0],[-10,-22]],[[9188,14525],[-2,1],[0,84],[-41,1],[-22,-43],[-67,-2],[0,-29],[-28,-11],[9,-26],[1,-16],[18,0],[45,-34],[17,-8],[67,-54],[0,-29],[17,-2],[0,-30],[15,0],[4,30],[112,0],[0,152],[-8,16],[-52,-1]],[[9344,13463],[5,21],[-4,36],[0,154]],[[9638,13359],[-29,0]],[[9609,13359],[-135,-1],[-20,14],[-29,6],[-25,1]],[[9344,13411],[0,52]],[[9344,13463],[-32,1]],[[18187,5656],[-4,0],[0,-67],[12,-43],[-9,-27],[-2,-32]],[[18184,5487],[-77,1]],[[18107,5488],[-16,58],[3,19],[26,52],[-7,17],[-1,37]],[[15353,17843],[445,1],[225,0],[509,1],[232,1],[374,1]],[[17238,15193],[-1,-263],[0,-412],[-1,-253],[0,-84],[-549,1],[-230,0]],[[15464,14184],[-1,16],[1,322],[-1,168],[0,506]],[[15463,15196],[0,400],[1,611],[-112,0],[1,505]],[[15353,16712],[-1,275],[1,398],[0,2],[0,252],[0,204]],[[24535,6568],[-16,-44],[18,-10],[7,-15],[-9,-21],[9,-13],[-16,-38],[10,-17],[8,17],[14,-6],[-11,-23],[-35,-5],[5,-17],[13,3],[22,-31],[-42,-14],[-14,-26],[-9,-33],[-3,-32],[9,-18],[30,-19],[-4,-44],[8,-16],[-13,-18],[12,-9],[8,-53]],[[24396,5647],[-9,-2],[-64,-41],[0,-98]],[[24323,5506],[-73,7]],[[24176,5394],[-1,-247]],[[24175,5147],[0,-84]],[[24465,5312],[73,-1]],[[24538,5311],[-1,-85]],[[24468,5227],[-3,85]],[[24324,5482],[71,-1],[-1,-55]],[[24394,5426],[0,-29]],[[24394,5397],[-35,0]],[[24359,5397],[-36,1]],[[24323,5398],[1,84]],[[24322,5313],[36,0]],[[24358,5313],[36,0]],[[24394,5313],[71,-1]],[[24468,5227],[-74,0]],[[24394,5227],[-72,2]],[[24322,5229],[0,84]],[[15611,4056],[143,-1],[101,0],[197,-1],[545,-3],[378,-2],[38,-1]],[[17011,2025],[-243,2],[-130,-1],[-45,0],[-219,1],[-186,1],[-236,0],[-150,1],[-213,-2],[-373,-1],[-142,0],[-196,-1],[-285,-1],[-73,-1],[-208,2],[-156,0]],[[21763,4045],[0,-80],[36,0],[1,-168],[178,0],[2,-243],[-1,-178],[143,0],[0,-80],[-2,-448],[1,-63],[70,-1],[0,-169],[142,1],[-1,-171],[-142,1],[0,-254],[71,0],[0,-169]],[[20509,2024],[-95,0]],[[21478,3012],[2,-60],[71,-2],[0,-187],[54,7],[0,-31],[87,1],[0,296],[-71,0],[-12,-40],[-28,20],[-43,21],[-60,0],[0,-25]],[[24653,5793],[0,-27],[16,13],[15,-11]],[[24647,5647],[1,84],[5,62]],[[24634,5816],[-2,-30],[9,-7],[12,14]],[[24598,5521],[27,-8]],[[24538,5443],[0,78],[60,0]],[[24394,5227],[4,-168]],[[24398,5059],[-37,0]],[[24361,5059],[-1,85],[-36,0]],[[24324,5144],[-2,85]],[[24538,5311],[35,1]],[[24609,5319],[-1,-29],[-35,-1],[-4,-16],[0,-46]],[[24569,5227],[-32,-1]],[[10490,17844],[354,0],[432,0],[449,-1],[420,0],[404,0],[353,0],[221,0]],[[13123,17843],[0,-285],[0,-360],[-1,-216],[0,-264]],[[13122,16718],[0,-508],[127,0],[-1,-473],[0,-538]],[[13248,15199],[-444,-3]],[[12804,15196],[-148,-1],[-71,1],[-222,-1],[0,167],[-1,341],[-372,4],[-210,1],[-10,-1],[-150,0],[-73,-1],[-63,2],[-173,0]],[[11311,15708],[2,43],[-28,-1],[-5,21],[-24,0],[-11,37],[-42,33],[-34,31],[-24,16],[-14,0],[-21,-18],[-17,12],[7,21],[-19,1],[-4,-32],[-10,1],[-21,85],[-31,51],[-10,43],[2,63],[-26,50],[-12,15],[-1,16],[-21,30],[-5,39],[-8,20],[-1,68],[-12,27],[-21,11],[-21,34],[-10,50],[-30,38],[-34,31],[-34,51],[-27,35],[-23,38],[-10,37],[-2,27],[-8,42],[-30,22],[0,13],[-14,28],[-18,48],[-2,20],[-13,34],[-29,54],[-20,23],[-11,20],[-8,50],[-24,13],[-13,22],[4,22],[-14,87],[-25,84],[-18,65],[-23,106],[3,89],[9,83],[18,81],[1,13],[18,55],[-2,38]],[[12155,16719],[128,-1],[19,-9],[0,178],[-147,0],[0,-168]],[[8663,17844],[333,0],[334,0],[360,0],[310,0],[490,0]],[[11311,15708],[-200,0],[-7,0],[-293,1],[-153,-1],[-291,0],[-19,-1],[-202,-1],[0,-506]],[[10146,15200],[-484,1],[-388,1],[-457,2],[0,404],[0,102],[1,506],[-155,1],[0,645],[0,281],[1,84],[-1,169],[0,448]],[[24394,5397],[0,-84]],[[24358,5313],[1,84]],[[10912,5165],[0,-1]],[[10784,4824],[4,30],[-7,44],[3,19],[16,25],[31,31],[1,17],[-9,37],[-24,49],[-41,62]],[[10758,5138],[-4,14],[0,42]],[[10758,5138],[-36,-9],[-24,2],[-26,-10],[-3,-43],[-8,-46],[0,-22],[21,-61],[1,-125]],[[12938,14186],[351,-1],[426,0],[26,-8],[2,-29],[41,-1],[0,32],[37,6],[155,0],[286,0]],[[14380,11134],[-449,2],[-60,1],[-73,-2],[-165,0],[-125,0]],[[12937,12828],[0,85],[1,253],[0,338],[0,330],[-1,7],[1,265],[0,80]],[[13248,15199],[295,-1],[370,-1],[147,2],[100,-2],[121,0],[74,-1],[223,0],[19,1],[312,0],[554,-1]],[[12938,14186],[-75,0],[-59,-1],[0,400],[0,106],[0,505]],[[24175,5147],[92,-1]],[[24267,5146],[-7,-23],[9,-20],[21,0],[2,-44]],[[24292,5059],[-32,0]],[[24260,5059],[-40,2],[0,-63],[-45,2]],[[12,3527],[140,0],[191,1],[144,-1],[140,0],[215,-1],[0,519],[437,-1],[213,1]],[[2774,4045],[143,1],[218,-1],[139,1],[325,0],[124,1],[83,0]],[[3816,2017],[-70,-1],[-170,-4]],[[11,2009],[0,417],[1,591],[1,326],[-1,184]],[[6959,56],[-149,-1],[-183,2],[-61,-1],[-230,0],[-231,1],[-118,0],[-148,0],[-398,0],[-13,1],[-172,0],[-168,-1],[-104,1],[-195,-1],[-14,2],[-210,-1],[-104,1],[-185,-1],[-133,1],[-321,-1],[-65,0],[-181,1]],[[5130,4046],[-5,507],[72,1],[-1,505],[36,0],[2,76],[6,18],[-12,31],[4,8],[1,161],[36,1],[1,214],[0,524],[45,0],[-1,168]],[[3563,6088],[-1,-39],[2,-485],[-1,-104],[10,12],[25,6],[27,-22],[12,-3],[21,-20],[17,-9],[8,-19],[-48,1],[-1,-514],[36,-5],[0,-75],[24,-7],[12,-15],[0,-238],[-1,-168],[215,0],[-3,-335],[1,-2]],[[4477,5441],[4,32],[8,6],[0,42],[-14,7],[-36,31],[-22,12],[0,161],[-143,0]],[[1436,13449],[54,0],[20,-14],[0,-156],[5,-12],[-4,-52],[0,-41],[3,-30],[10,-44],[-11,-11],[13,-33],[3,-31],[22,1],[-22,-24]],[[1529,13002],[-22,4],[-71,0]],[[1415,13001],[-1,5],[-197,0]],[[1356,12922],[-3,-53],[-34,0],[-30,-17],[-1,-120]],[[22267,2023],[510,-1],[196,0]],[[22973,2022],[72,-1],[1,-252]],[[23151,2],[-198,2],[-71,-1],[-118,2],[-301,0],[-64,-5],[-111,0],[-558,2],[-280,1],[-281,-1],[-315,2],[-350,1]],[[20504,5],[0,590],[2,168],[0,253]],[[1529,13002],[9,-46],[-3,-31],[7,-19],[-5,-26]],[[1537,12880],[-27,0],[-1,27],[-8,15],[-65,0]],[[1547,12805],[-8,36],[-7,13],[5,26]],[[18748,11529],[-1,618],[218,1],[132,-1],[1,386],[1,541],[0,84],[223,2],[218,0]],[[19540,13160],[362,-2],[150,1],[478,-2],[148,1],[182,0]],[[20585,10116],[-243,0],[-191,1],[-176,-1],[-271,0],[-51,-1],[-319,1],[-131,0],[-369,0]],[[18834,10116],[-86,0],[-1,336],[0,253],[11,14],[0,183],[-10,31],[0,196]],[[17127,2025],[-2,-29],[2,-111],[-1,-338],[-1,-322],[0,-100],[-1,-19],[-2,-312],[0,-161],[-4,-606]],[[17118,27],[-141,1],[-284,1],[-240,-1],[-323,1],[-305,2],[-191,-1],[-162,1],[-333,3],[-159,1],[-195,0],[-117,-2],[-113,0],[-356,3],[-49,1]],[[6881,16724],[1,170],[-1,236],[1,15],[0,252],[0,246],[0,197]],[[6882,17840],[138,0],[491,1],[408,1],[352,1],[392,1]],[[10146,15200],[0,-507]],[[25263,2277],[17,5],[-1,-43],[13,-10],[-3,-39],[-7,-14],[0,-23],[-8,-21],[16,-14],[-1,-12],[-21,-10],[-3,-12],[30,-8],[2,-39],[-15,-25],[15,-20],[2,-17],[-7,-23]],[[25292,1952],[-13,-2],[-14,9],[-35,0],[-16,6],[-11,-5],[-8,-18],[-15,-2]],[[25180,1940],[-7,25],[1,57],[1,254],[86,0],[2,1]],[[25292,1952],[2,-13],[-12,-34],[14,-10],[12,-21],[-8,-23],[14,-19],[21,5],[-4,-21],[-16,-11],[-11,3],[-16,-17],[2,-18]],[[25290,1773],[-62,0],[2,126]],[[25230,1899],[-5,13],[-45,28]],[[22974,2949],[263,2],[29,-3],[57,1],[145,1],[64,1],[77,-1],[218,0],[56,-1],[153,1],[0,-85],[218,1],[70,0],[133,1],[222,0],[245,0],[13,-13]],[[24937,2854],[-9,-38],[7,-6],[30,26],[6,-32],[-31,1],[7,-22],[44,9],[4,-13],[-17,-17],[9,-22],[17,11],[8,-6],[13,-40],[12,-25],[-8,-19],[22,-24],[-3,-26],[9,-21],[-3,-22],[26,-22],[11,-16],[4,-18],[22,-20],[20,-11],[-15,-12],[-2,-14],[9,-33],[12,-5],[17,13],[27,9],[5,-27],[38,-22],[-13,-22],[1,-10],[37,-26],[10,-26],[21,-4],[-21,-25]],[[25230,1899],[-110,-1],[-246,1],[-74,-1],[-67,3],[-244,0]],[[22973,2022],[0,184],[0,334],[2,157],[-1,252]],[[25290,1773],[-3,-20],[7,-21],[-3,-21],[10,-35],[-3,-17],[13,-9],[-4,-24],[15,-11],[5,-31],[-6,-12],[15,-9],[-2,-37],[-13,-1],[5,-52],[-11,-24],[8,-28],[-11,-4],[5,-21],[15,15],[29,-34],[5,-11],[-6,-39],[4,-20],[-14,-49],[4,-22],[21,-39],[4,-32],[10,-10],[-3,-43],[8,-35],[17,-4],[7,-16],[-22,-11],[13,-39],[13,-18],[1,-23],[9,-41],[-3,-38],[9,-19],[-9,-37],[-2,-27],[3,-49],[-8,-36],[-10,-25],[-13,-14],[-28,-86],[-13,-59],[13,-65],[-6,-45],[7,-26],[5,-82],[0,-73],[7,-78],[8,-30],[9,-7],[2,-40],[12,-27],[-8,-61],[-251,1],[-267,3],[-165,-1],[-116,0]],[[24611,4048],[7,5],[35,-21],[-15,-10],[6,-11],[46,-36],[-20,-3],[-2,-10],[30,-33],[-18,-10],[4,-16],[18,-6],[-4,-21],[3,-26],[17,15],[8,-24],[30,1],[-8,-20],[-11,4],[-6,-16],[19,-15],[13,9],[7,-21],[-6,-33],[-14,-5],[2,-17],[31,4],[-19,-24],[25,-5],[6,-22],[-11,-28],[-2,-23],[-19,-3],[5,-14],[20,-2],[-7,-21],[8,-21],[-16,-23],[1,-18],[25,-19],[-7,-13],[9,-36],[-9,-27],[20,5],[-5,-23],[10,-23],[-2,-11],[12,-19],[-15,-6],[1,-16],[16,-13],[-21,-29],[5,-20],[18,-6],[0,-24],[-12,-11],[9,-11],[-18,-11],[4,-11],[20,-12],[-14,-10],[33,-31],[-1,-22],[13,-10],[11,15],[16,-4],[-25,-21],[31,-23],[-16,-21],[18,-4],[2,-31],[-7,-35],[-20,1],[0,-17],[16,-2],[-9,-26],[7,-30],[16,-6],[28,6],[-15,-41],[23,-2],[-4,-24]],[[22974,2949],[2,254],[-1,86],[1,333],[0,170],[-1,251]],[[18107,5488],[-208,0],[-4,1],[0,253]],[[17895,5742],[0,169],[206,-2],[2,-84],[8,-25]],[[18182,5910],[140,1],[1,-250],[72,-5],[0,-82]],[[18395,5574],[-108,0],[-39,-10],[5,-11],[0,-65],[-69,-1]],[[15504,8105],[374,0],[163,0],[11,1],[180,0],[2,-1]],[[18837,8102],[109,0],[1,-163],[-1,-254],[0,-84]],[[19041,5576],[-287,-3],[-175,0],[-67,2],[-117,-1]],[[17895,5742],[-196,2],[-258,-1],[-145,2],[-105,0],[-197,-3],[-88,-3],[-213,0],[-1,84],[-180,0],[-140,10],[-5,-8],[-104,1],[1,156],[-69,2],[-75,1],[0,-158],[-212,2],[-286,0]],[[9344,13168],[0,65]],[[9344,13233],[29,7],[36,15],[58,3],[45,-15]],[[9512,13243],[5,4],[74,102],[18,10]],[[9343,13125],[1,43]],[[9512,13243],[-15,19],[-14,32],[-44,44],[-36,25]],[[9344,13168],[-147,1],[0,84],[-15,10],[2,56]],[[9188,14525],[5,-12],[70,-56],[13,-3],[-3,70]],[[22678,10114],[90,1],[346,0],[249,-1],[338,1],[183,-1],[252,1],[174,-1]],[[24310,10114],[-10,-10],[15,-37],[-8,-35],[5,-33],[13,-13],[-1,-47],[-18,-21],[20,-30],[10,-38],[11,-19],[-11,-27],[26,-2],[-9,-21],[20,-2],[5,-10],[24,-4],[13,-14],[3,-20],[-7,-18],[17,-20],[-4,-21],[-19,-6],[28,-18],[2,-7],[-11,-42],[1,-19],[-9,-17],[-16,-17],[27,-20],[1,-16],[-27,-5],[-21,13],[-9,-11],[7,-21],[17,-9],[41,24],[7,-12],[-21,-24],[-19,0],[-8,-9],[9,-16],[25,-9],[4,-17],[-15,-19],[-16,-8],[5,-13],[24,-9],[16,-14],[4,-13],[-14,-8],[-17,25],[-25,-2],[-6,-11],[9,-12],[21,5],[4,-12],[-19,-31],[-12,-11],[-22,0],[27,-78],[24,-7],[23,14],[18,-13],[-14,-13],[-16,7],[-5,-22],[18,4],[12,-17],[-19,-6],[-13,3],[-3,-28],[10,-13]],[[22891,9101],[0,84],[-215,3],[-13,-37],[-45,-6],[-7,-15],[-26,-9],[-14,4],[-22,-6]],[[22684,11128],[320,1],[548,-3],[1,254]],[[23699,11380],[-1,-169],[74,0]],[[23928,11210],[9,-36],[-2,-33],[16,-38],[-5,-20],[25,-5],[6,-26],[10,-14],[-5,-17],[5,-12],[18,-3],[0,-18],[-13,-3],[0,-29],[8,-33],[-13,-11],[-21,5],[4,-17],[25,-17],[11,-15],[0,-22],[29,12],[13,-29],[18,-12],[4,-17],[-14,-7],[-13,-27],[13,-4],[14,-20],[7,-30],[31,1],[2,-13],[37,-36],[-12,-19],[5,-24],[25,-16],[-9,-9],[-17,9],[-5,-14],[28,-15],[6,-11],[0,-29],[-12,-21],[-3,-18],[7,-17],[20,-30],[2,-18],[19,-11],[-8,-20],[-31,-20],[-2,-14],[16,-3],[16,17],[9,-16],[-3,-29],[23,-10],[4,-9],[-10,-20],[-21,-12],[13,-11],[19,9],[14,-43],[-8,-24],[13,-4],[14,17],[9,-13],[0,-23],[11,-45],[-1,-22],[8,-6],[27,7],[-3,-13]],[[23680,12137],[6,-15],[25,-11],[-11,-27],[7,-40],[0,-27],[5,-14],[32,-28],[0,-21],[-19,-74],[6,-27],[-15,-30],[1,-12],[21,-17],[10,-27],[-11,-39],[8,-25],[17,-17],[30,-8]],[[23700,11634],[-20,0]],[[23667,11550],[7,9],[-12,32]],[[23772,11380],[1,84]],[[23804,11359],[-32,0],[0,21]],[[23736,11464],[0,-84]],[[23736,11380],[-37,0]],[[23736,11380],[36,0]],[[14899,17219],[8,0],[0,-405],[-2,-100]],[[14905,16714],[-165,-1],[-131,1],[-185,0],[-410,1]],[[14014,16715],[1,505],[69,1],[432,-3],[324,2],[59,-1]],[[13123,17843],[451,0],[288,-1],[447,0],[184,0],[408,1]],[[14901,17843],[6,-10],[0,-606],[-8,-8]],[[14014,16715],[0,-84],[-356,0],[-239,1],[0,84],[-114,2],[-183,0]],[[14905,16714],[154,-1],[294,-1]],[[14901,17843],[452,0]],[[24541,5056],[75,0]],[[24616,5056],[0,-24],[-16,-7],[24,-17],[-9,-21],[6,-16]],[[24621,4971],[-83,2],[-67,2],[1,85]],[[24292,5059],[69,0]],[[24398,5059],[74,2]],[[24621,4971],[13,0],[14,-18],[-32,-48],[18,-7],[18,13],[9,-4],[-3,-20],[-20,1],[2,-16],[12,-15],[33,-8],[-9,-19],[-30,11],[8,-19],[-6,-17],[0,-30],[14,-4],[-5,-18],[1,-28],[-7,-23],[18,-24],[-12,-34],[12,-62],[-18,-12],[13,-20]],[[24321,4553],[2,169],[36,0],[0,43],[-36,0],[3,211],[-18,11],[-39,1],[-12,34],[3,37]],[[24323,5506],[1,-24]],[[24323,5398],[-80,2]],[[24267,5146],[57,-2]],[[24552,5563],[16,-20],[30,-22]],[[24538,5394],[-74,1]],[[24464,5395],[-2,26]],[[24462,5421],[8,116],[0,63]],[[24240,5325],[22,-12]],[[24262,5313],[2,-23],[-23,0],[12,-31],[-5,-34],[11,-11],[11,-28],[-3,-40]],[[24670,5314],[-4,-12],[24,-31],[-12,-8],[-12,11],[-21,-5],[18,-21],[-8,-21],[-24,9],[-6,-7]],[[24625,5229],[-56,-2]],[[24322,5313],[1,85]],[[24262,5313],[60,0]],[[24691,5559],[1,-23],[24,-14],[-8,-33],[-20,8]],[[24625,5513],[1,49]],[[24462,5421],[-9,4],[-59,1]],[[24465,5359],[10,-6],[63,-1],[0,42]],[[24465,5312],[0,47]],[[24538,5167],[18,1],[9,8],[28,0],[-1,-13],[18,1]],[[24610,5164],[-6,-13],[1,-31],[-9,-13],[17,-17],[5,-14],[-2,-20]],[[24465,5359],[-1,36]],[[24625,5229],[22,-15],[13,-25],[-27,9],[-2,-23],[-21,-11]],[[10906,5254],[11,-28],[32,-18],[17,7],[1,43],[66,0],[1,21],[14,0]],[[10892,5191],[6,8],[-4,27],[12,28]],[[11056,6103],[1,-52],[4,-26],[39,-125],[23,-95],[1,-29],[-1,-265]],[[11123,5511],[-3,-54],[2,-36],[-1,-79]],[[11049,5343],[0,83],[-68,0],[-109,3],[14,-77],[10,-34],[10,-64]],[[11263,5218],[0,44],[1,231],[-12,17],[-129,1]],[[20504,5],[-69,-1],[-324,1],[-171,1]],[[19940,6],[1,15],[-9,34],[5,15],[4,46],[14,25],[-1,33],[5,21],[2,54],[30,129],[21,44],[6,33],[18,10],[8,-18],[30,7],[8,10],[-21,28],[-17,45],[0,50],[13,59],[-23,30],[-5,60],[7,49],[29,57],[29,48],[9,41],[12,14],[23,11],[-8,45],[-2,40],[5,45],[3,77],[9,49],[12,28],[-3,38],[-6,16],[5,16],[-1,27],[-21,17],[1,16],[-7,15],[-4,67],[-9,10],[3,21],[-17,20],[-9,27],[-40,23],[-13,57],[-13,11],[-8,-7],[18,-23],[-28,-13],[-30,-26],[21,39],[-7,24],[-12,-2],[-4,-32],[-25,-22],[-13,1],[-12,24],[-16,-3],[1,27],[-11,17],[-29,-1],[-14,-16],[-36,-22],[-28,16],[-23,5],[-18,21],[-14,34],[-31,42],[0,25],[-10,15],[-28,12],[-28,-5],[-18,6],[-5,15],[23,63],[8,29],[-15,15],[32,7],[6,9],[1,36],[10,20],[21,8],[0,21],[11,45]],[[18672,340],[1,181],[212,-3],[-1,-262],[-27,41],[-170,4],[-15,24],[0,15]],[[19940,6],[-182,0],[-283,0],[-350,2],[-130,1],[-255,4],[-246,4],[-212,2],[-141,2],[-178,1],[-388,2],[-153,1],[-304,2]],[[18834,10116],[0,-496]],[[16235,9622],[0,421],[0,77],[-107,0],[1,296],[0,538],[-1,178]],[[3767,17843],[540,-1],[458,-1],[321,0],[319,-1],[369,0],[441,0],[356,0],[311,0]],[[3948,15711],[0,248],[1,88],[-1,172],[-184,0],[0,207],[1,130],[0,254],[0,424],[2,609]],[[3,15715],[0,262],[-2,447],[0,116],[-1,362],[0,562],[1,382],[255,0],[328,-1],[482,-1],[460,-2],[496,1],[245,0],[383,0],[466,0],[389,0],[262,0]],[[17668,12711],[0,-19],[-73,1],[3,-67],[-33,-61],[31,-20],[26,0],[25,-21],[74,-1],[26,-25],[31,-19]],[[17778,12479],[0,-104]],[[17488,12179],[-9,7],[4,37],[-8,25],[-22,10],[-39,38],[-13,27],[-19,18],[-44,35],[0,71],[24,74],[13,17],[-1,41],[20,18],[3,20],[-59,1],[0,118],[147,0],[-1,61],[74,-53],[0,161],[110,0],[0,-194]],[[19452,15190],[-1,-84],[0,-338],[1,-169],[-1,-383],[0,-39],[90,0],[-1,-257],[0,-254],[-1,-184],[0,-236],[1,-86]],[[17778,12479],[1,173],[-74,0],[0,58],[-37,1]],[[22481,15185],[-2,-423],[32,-168]],[[22511,14594],[-76,1],[-30,21],[-1,-190],[74,0],[-1,-84]],[[22477,14342],[0,-172],[0,-485],[-1,-526]],[[21005,13159],[0,393],[0,174],[1,25],[0,367],[-10,38],[-3,24],[7,35],[0,634],[147,0],[0,169],[18,12],[-17,16],[-1,140]],[[21221,14258],[148,0],[0,-84],[74,0],[-1,84],[74,0],[0,169],[-295,0],[0,-169]],[[22511,14594],[47,-253]],[[22558,14341],[-81,1]],[[22511,14594],[42,-1],[98,2],[1,-42],[36,0],[0,-36],[8,-7],[29,0],[-37,-41],[0,-128],[-130,0]],[[23378,15182],[19,-12],[34,-13],[15,-15],[-9,-23],[-30,-7],[-7,-22],[3,-29],[17,-16],[21,3],[30,19],[11,0],[13,-14],[-4,-14],[-29,-33],[-19,-4],[-24,5],[-2,-60],[15,-24],[29,-15],[16,-17],[2,-20],[-18,-3],[-9,-18],[-21,-14],[-46,-11],[-10,-11],[2,-17],[10,-6],[26,0],[35,13],[21,1],[19,-11],[2,-17],[-14,-9],[-28,20],[-18,-4],[-8,-19],[5,-18],[16,-25],[39,0],[7,-18],[-2,-36],[-21,-30],[-47,-33],[-2,-24],[12,-6],[18,3],[22,27],[17,4],[18,-16],[3,-17],[-4,-27],[-8,-11],[-16,-4],[-23,14],[-23,-5],[-2,-14],[11,-15],[27,-9],[34,-23],[7,-15],[-7,-19],[-10,3],[-21,24],[-16,4],[-43,-13],[-15,-16],[7,-21],[23,5],[11,24],[9,4],[8,-24],[21,-25],[2,-22],[-28,-24],[-16,-25],[-12,-8],[-36,-2],[-12,-9],[-4,-17],[24,-9],[-3,-27],[13,-14],[22,-11],[36,14],[2,-20],[-13,-2],[-6,-14],[12,-24],[-5,-18],[-41,4],[-12,-7],[-2,-36],[29,-25],[11,-30],[25,-12],[1,-11],[-15,-19],[3,-17],[26,-1],[17,-11],[3,-22],[-10,-32],[-30,-12],[-15,-19],[11,-14],[12,13],[21,5],[30,-6],[16,-19],[-6,-14],[-27,-11],[-20,0],[-10,-12],[-13,-32],[1,-14],[16,-3],[26,15],[11,-18],[-14,-16],[7,-22],[38,-25],[2,-14],[-23,-7],[-17,24],[-14,3],[-33,-47],[9,-22],[20,22],[16,5],[9,-9],[15,-38],[4,-23],[-11,-16],[-20,-7],[7,-19],[-12,-15],[-30,7],[-24,-3],[-7,-10],[4,-18],[30,1],[30,-9],[11,-12],[-8,-13],[-17,-3],[1,-13],[20,-31],[-11,-15],[-20,3],[-33,-19],[-12,-13],[7,-19],[20,2],[17,-14],[-7,-13],[-20,-2],[-10,-17],[18,-20],[30,-3],[30,-16],[-6,-22],[-28,19],[-14,4],[-43,-19],[-13,-24],[8,-9],[21,20],[16,2],[40,-20],[15,-12],[13,-21],[4,-18],[-9,-14],[-14,4],[-11,37],[-12,16],[-14,4],[-13,-6],[-1,-14],[14,-17],[21,-9],[-8,-16],[-25,-8],[-8,-16],[15,-20],[4,-14],[-19,-20]],[[12,3527],[0,586],[0,338],[-1,52],[1,198],[-2,599],[0,170],[1,430],[1,331],[1,173],[0,90],[0,331],[1,413],[0,452],[-3,34],[3,27],[-1,372]]],"transform":{"scale":[0.00029461643997169616,0.00017173456582633034],"translate":[-104.048889,45.935091]},"objects":{"Tract_38_2020":{"type":"GeometryCollection","geometries":[{"arcs":[[0,1,2]],"type":"Polygon","properties":{"id":"14000US38053940100"}},{"arcs":[[3,4,5,6,7,8,9,10,11]],"type":"Polygon","properties":{"id":"14000US38053962500"}},{"arcs":[[12,13,14,15]],"type":"Polygon","properties":{"id":"14000US38077971400"}},{"arcs":[[16,17,18,19,20]],"type":"Polygon","properties":{"id":"14000US38105953400"}},{"arcs":[[21,-21,22,23,24,-4,25]],"type":"Polygon","properties":{"id":"14000US38105953500"}},{"arcs":[[26,27,28,29]],"type":"Polygon","properties":{"id":"14000US38105953800"}},{"arcs":[[30,31,32,33,34,35,36,37,38],[39]],"type":"Polygon","properties":{"id":"14000US38057961800"}},{"arcs":[[40,41,42,43,44,45]],"type":"Polygon","properties":{"id":"14000US38085940800"}},{"arcs":[[46,47,-44]],"type":"Polygon","properties":{"id":"14000US38085940900"}},{"arcs":[[48,49,50,51,52,-32,53]],"type":"Polygon","properties":{"id":"14000US38055961001"}},{"arcs":[[54,55,-54,-31,56,57]],"type":"Polygon","properties":{"id":"14000US38055940100"}},{"arcs":[[-10,58,59,60,61,62]],"type":"Polygon","properties":{"id":"14000US38007963100"}},{"arcs":[[63,64,65,66]],"type":"Polygon","properties":{"id":"14000US38031959600"}},{"arcs":[[67,68,69,70,71,72,73,74]],"type":"Polygon","properties":{"id":"14000US38043966800"}},{"arcs":[[75,76,77,-51,78]],"type":"Polygon","properties":{"id":"14000US38049955900"}},{"arcs":[[79,80,81,82,83,84,85]],"type":"Polygon","properties":{"id":"14000US38015011200"}},{"arcs":[[86,87,-74,88,89,-84,90]],"type":"Polygon","properties":{"id":"14000US38015011400"}},{"arcs":[[91,92,93,94]],"type":"Polygon","properties":{"id":"14000US38015010300"}},{"arcs":[[95,96,-91,-83,97]],"type":"Polygon","properties":{"id":"14000US38015011300"}},{"arcs":[[98,99,-81,100]],"type":"Polygon","properties":{"id":"14000US38015010700"}},{"arcs":[[101,102,-101,-80,103]],"type":"Polygon","properties":{"id":"14000US38015010600"}},{"arcs":[[104,105,106,107,-99,-103]],"type":"Polygon","properties":{"id":"14000US38015010100"}},{"arcs":[[108,-94,109,110,-107]],"type":"Polygon","properties":{"id":"14000US38015010200"}},{"arcs":[[111,112,-105,-102,113]],"type":"Polygon","properties":{"id":"14000US38015010500"}},{"arcs":[[-108,-111,-98,-82,-100]],"type":"Polygon","properties":{"id":"14000US38015010800"}},{"arcs":[[114,-96,-110,-93]],"type":"Polygon","properties":{"id":"14000US38015010900"}},{"arcs":[[115,116,117,118,119]],"type":"Polygon","properties":{"id":"14000US38015011101"}},{"arcs":[[120,121,-75,-88,122,123,124]],"type":"Polygon","properties":{"id":"14000US38015011500"}},{"arcs":[[-119,-95,-109,-106,-113]],"type":"Polygon","properties":{"id":"14000US38015010400"}},{"arcs":[[125,126,-41,127,128,129]],"type":"Polygon","properties":{"id":"14000US38037965900"}},{"arcs":[[130,131,132,133,134]],"type":"Polygon","properties":{"id":"14000US38035011100"}},{"arcs":[[135,136,137,138,139]],"type":"Polygon","properties":{"id":"14000US38035010200"}},{"arcs":[[140,141,142,143,144]],"type":"Polygon","properties":{"id":"14000US38035011800"}},{"arcs":[[145,146,147,-141,148]],"type":"Polygon","properties":{"id":"14000US38035012000"}},{"arcs":[[149,150,151,152]],"type":"Polygon","properties":{"id":"14000US38035010600"}},{"arcs":[[153,154,155,156,157,158,-146,159]],"type":"Polygon","properties":{"id":"14000US38035011400"}},{"arcs":[[160,-150,161,-137,162]],"type":"Polygon","properties":{"id":"14000US38035010100"}},{"arcs":[[163,164,165,166]],"type":"Polygon","properties":{"id":"14000US38035010400"}},{"arcs":[[-138,167,168,169]],"type":"Polygon","properties":{"id":"14000US38035010700"}},{"arcs":[[-166,170,171,-139,-170,172,173,174]],"type":"Polygon","properties":{"id":"14000US38035010801"}},{"arcs":[[175,-152,176,-132,177]],"type":"Polygon","properties":{"id":"14000US38035010900"}},{"arcs":[[-162,-153,-176,178,-168]],"type":"Polygon","properties":{"id":"14000US38035011000"}},{"arcs":[[-159,179,-147]],"type":"Polygon","properties":{"id":"14000US38035011900"}},{"arcs":[[180,181]],"type":"Polygon","properties":{"id":"14000US38093967401"}},{"arcs":[[182,183,-182,184,185,186]],"type":"Polygon","properties":{"id":"14000US38093967402"}},{"arcs":[[187,188,189,190,191,192]],"type":"Polygon","properties":{"id":"14000US38067950600"}},{"arcs":[[-40]],"type":"Polygon","properties":{"id":"14000US38057961600"}},{"arcs":[[193,-35]],"type":"Polygon","properties":{"id":"14000US38057961700"}},{"arcs":[[194]],"type":"Polygon","properties":{"id":"14000US38019950900"}},{"arcs":[[195,196,197,198,199]],"type":"Polygon","properties":{"id":"14000US38005940100"}},{"arcs":[[200,201,202,203,204,-197]],"type":"Polygon","properties":{"id":"14000US38005940200"}},{"arcs":[[-9,205,206,207,208,-59]],"type":"Polygon","properties":{"id":"14000US38053962302"}},{"arcs":[[209,210,-3,211,-208,212,-206,-8]],"type":"Polygon","properties":{"id":"14000US38053962301"}},{"arcs":[[-2,213,-57,-39,214,215,216,-60,-209,-212]],"type":"Polygon","properties":{"id":"14000US38025962200"}},{"arcs":[[217,218,219,220,-190]],"type":"Polygon","properties":{"id":"14000US38067950500"}},{"arcs":[[221,-218,-189,222]],"type":"Polygon","properties":{"id":"14000US38067950100"}},{"arcs":[[223,-223,-188,224]],"type":"Polygon","properties":{"id":"14000US38067950200"}},{"arcs":[[-53,225,-121,226,-33]],"type":"Polygon","properties":{"id":"14000US38055960800"}},{"arcs":[[227]],"type":"Polygon","properties":{"id":"14000US38097970400"}},{"arcs":[[228,229,230,231,232,233],[-228]],"type":"Polygon","properties":{"id":"14000US38097970300"}},{"arcs":[[234,-144,235,-234,236,237,238]],"type":"Polygon","properties":{"id":"14000US38091968700"}},{"arcs":[[-89,-73,239,240,241,-47,-43,242]],"type":"Polygon","properties":{"id":"14000US38029966500"}},{"arcs":[[243,244,-58,-214,-1]],"type":"Polygon","properties":{"id":"14000US38061940400"}},{"arcs":[[245,246,247,248]],"type":"Polygon","properties":{"id":"14000US38081974000"}},{"arcs":[[249,250,251,252,253,254]],"type":"Polygon","properties":{"id":"14000US38089963501"}},{"arcs":[[255,-250,256]],"type":"Polygon","properties":{"id":"14000US38089963502"}},{"arcs":[[257,258,-55,-245]],"type":"Polygon","properties":{"id":"14000US38061940300"}},{"arcs":[[259,260,261,-258,-244,-211,262,-19]],"type":"Polygon","properties":{"id":"14000US38061955200"}},{"arcs":[[263,264,265,266,267]],"type":"Polygon","properties":{"id":"14000US38017000801"}},{"arcs":[[268,-267,269,270,271,272]],"type":"Polygon","properties":{"id":"14000US38017000901"}},{"arcs":[[273,274,275,276,277,278,279,280,281]],"type":"Polygon","properties":{"id":"14000US38017040600"}},{"arcs":[[282,283,-274,284]],"type":"Polygon","properties":{"id":"14000US38017040300"}},{"arcs":[[285,-268,-269,286,287]],"type":"Polygon","properties":{"id":"14000US38017000802"}},{"arcs":[[288,289,290,291,292,293,294]],"type":"Polygon","properties":{"id":"14000US38017000300"}},{"arcs":[[-237,295,-285,-282,296,297,298]],"type":"Polygon","properties":{"id":"14000US38017040100"}},{"arcs":[[299,300,-265,301]],"type":"Polygon","properties":{"id":"14000US38017000700"}},{"arcs":[[302,303,304,305,-291]],"type":"Polygon","properties":{"id":"14000US38017000400"}},{"arcs":[[306,307,308,309]],"type":"Polygon","properties":{"id":"14000US38017010201"}},{"arcs":[[310,311,312,313,314,315]],"type":"Polygon","properties":{"id":"14000US38017010303"}},{"arcs":[[-233,316,317,-283,-296]],"type":"Polygon","properties":{"id":"14000US38017040200"}},{"arcs":[[318,319,320,-304]],"type":"Polygon","properties":{"id":"14000US38017000100"}},{"arcs":[[321,322,323,-200,324,325]],"type":"Polygon","properties":{"id":"14000US38005956700"}},{"arcs":[[-52,-78,326,327,-68,-122,-226]],"type":"Polygon","properties":{"id":"14000US38083960200"}},{"arcs":[[328,329,330,331,332,333]],"type":"Polygon","properties":{"id":"14000US38045972200"}},{"arcs":[[334,335,336,337,-331]],"type":"Polygon","properties":{"id":"14000US38045972100"}},{"arcs":[[338]],"type":"Polygon","properties":{"id":"14000US38103959800"}},{"arcs":[[339,340,341],[342]],"type":"Polygon","properties":{"id":"14000US38011965300"}},{"arcs":[[343,344,345,-174]],"type":"Polygon","properties":{"id":"14000US38035010804"}},{"arcs":[[346,-225,-193,347,348,349],[-195]],"type":"Polygon","properties":{"id":"14000US38019951100"}},{"arcs":[[-213,-207]],"type":"Polygon","properties":{"id":"14000US38053962400"}},{"arcs":[[350,351,352]],"type":"Polygon","properties":{"id":"14000US38003968300"}},{"arcs":[[353,354,-351,355,356,357,-335,-330,358,359]],"type":"Polygon","properties":{"id":"14000US38003968000"}},{"arcs":[[-353,360,-356]],"type":"Polygon","properties":{"id":"14000US38003968200"}},{"arcs":[[361,-238,-299,362,-357,-361,-352,-355]],"type":"Polygon","properties":{"id":"14000US38003967900"}},{"arcs":[[363,364,-253]],"type":"Polygon","properties":{"id":"14000US38089963600"}},{"arcs":[[-252,365,366,-364]],"type":"Polygon","properties":{"id":"14000US38089963700"}},{"arcs":[[367,368,369,370,371,372]],"type":"Polygon","properties":{"id":"14000US38041964800"}},{"arcs":[[-371,373,-129,374]],"type":"Polygon","properties":{"id":"14000US38041964700"}},{"arcs":[[-254,-365,-367,375,376]],"type":"Polygon","properties":{"id":"14000US38089963800"}},{"arcs":[[-194,-34,-227,-125,377,378,379,-36]],"type":"Polygon","properties":{"id":"14000US38065961200"}},{"arcs":[[380,381,382,383,384,385]],"type":"Polygon","properties":{"id":"14000US38059020200"}},{"arcs":[[-37,-380,386,-126,387]],"type":"Polygon","properties":{"id":"14000US38059020500"}},{"arcs":[[388,389,-384]],"type":"Polygon","properties":{"id":"14000US38059020100"}},{"arcs":[[-379,390,-386,391,392,393,-85,-90,-243,-42,-127,-387]],"type":"Polygon","properties":{"id":"14000US38059020400"}},{"arcs":[[394,395,396,397,398,399]],"type":"Polygon","properties":{"id":"14000US38101010500"}},{"arcs":[[400,401,402,403,-397]],"type":"Polygon","properties":{"id":"14000US38101010100"}},{"arcs":[[404,405,406,-261,407]],"type":"Polygon","properties":{"id":"14000US38101011000"}},{"arcs":[[408,409,410,-79,-50,411]],"type":"Polygon","properties":{"id":"14000US38101011200"}},{"arcs":[[412,413,414]],"type":"Polygon","properties":{"id":"14000US38101010302"}},{"arcs":[[415,416,-410,417,418,-415,419,-395,420,-406],[421,422]],"type":"Polygon","properties":{"id":"14000US38101010800"}},{"arcs":[[423,-418,424,425,-402,426]],"type":"Polygon","properties":{"id":"14000US38101010200"}},{"arcs":[[-424,427,-413,-419]],"type":"Polygon","properties":{"id":"14000US38101010301"}},{"arcs":[[-186,428,429,430]],"type":"Polygon","properties":{"id":"14000US38093967800"}},{"arcs":[[-414,-428,-427,-401,-396,-420]],"type":"Polygon","properties":{"id":"14000US38101010400"}},{"arcs":[[431,-350,432,-323,433,434,435]],"type":"Polygon","properties":{"id":"14000US38095951500"}},{"arcs":[[-318,436,-295,437,438,-310,439,440,-275,-284]],"type":"Polygon","properties":{"id":"14000US38017040800"}},{"arcs":[[441,442,-311,443]],"type":"Polygon","properties":{"id":"14000US38017010308"}},{"arcs":[[444,445,446,447,448]],"type":"Polygon","properties":{"id":"14000US38017010109"}},{"arcs":[[449,450,451,-444,452,453,454]],"type":"Polygon","properties":{"id":"14000US38017040700"}},{"arcs":[[-72,455,-334,456,-240]],"type":"Polygon","properties":{"id":"14000US38047972500"}},{"arcs":[[-358,-363,-298,457,-246,458,-336],[459]],"type":"Polygon","properties":{"id":"14000US38073969000"}},{"arcs":[[460,-319,-303,461]],"type":"Polygon","properties":{"id":"14000US38017000203"}},{"arcs":[[462,-462,-290]],"type":"Polygon","properties":{"id":"14000US38017000204"}},{"arcs":[[463,-302,-264,-286,464]],"type":"Polygon","properties":{"id":"14000US38017000602"}},{"arcs":[[-454,465,466,467,468]],"type":"Polygon","properties":{"id":"14000US38017040501"}},{"arcs":[[469,-272,470,471,-443]],"type":"Polygon","properties":{"id":"14000US38017001003"}},{"arcs":[[472,473,474,475,476,477],[478]],"type":"Polygon","properties":{"id":"14000US38009952400"}},{"arcs":[[479,-478,480,481]],"type":"Polygon","properties":{"id":"14000US38009952500"}},{"arcs":[[-479]],"type":"Polygon","properties":{"id":"14000US38009952300"}},{"arcs":[[-447,482,-451,483]],"type":"Polygon","properties":{"id":"14000US38017010111"}},{"arcs":[[-389,-383,484,-114,-104,-86,-394,485,486]],"type":"Polygon","properties":{"id":"14000US38059020301"}},{"arcs":[[-385,-390,-487,487,-392]],"type":"Polygon","properties":{"id":"14000US38059020303"}},{"arcs":[[-486,-393,-488]],"type":"Polygon","properties":{"id":"14000US38059020302"}},{"arcs":[[488,-326,489,-327,-77,490]],"type":"Polygon","properties":{"id":"14000US38069956200"}},{"arcs":[[-476,491,-434,-322,-489,492]],"type":"Polygon","properties":{"id":"14000US38069956100"}},{"arcs":[[-441,493,494,495,496,-276]],"type":"Polygon","properties":{"id":"14000US38017040507"}},{"arcs":[[497,-62,498,-373,499,-340,500]],"type":"Polygon","properties":{"id":"14000US38087965000"}},{"arcs":[[-460]],"type":"Polygon","properties":{"id":"14000US38073969100"}},{"arcs":[[-500,-372,-375,-128,-46,501,-341]],"type":"Polygon","properties":{"id":"14000US38001965600"}},{"arcs":[[-215,-38,-388,-130,-374,-370,502]],"type":"Polygon","properties":{"id":"14000US38089963300"}},{"arcs":[[-217,503,-368,-499,-61]],"type":"Polygon","properties":{"id":"14000US38089964000"}},{"arcs":[[-216,-503,-369,-504],[504,-257,-255,-377]],"type":"Polygon","properties":{"id":"14000US38089963900"}},{"arcs":[[505,506,-27,507,-24]],"type":"Polygon","properties":{"id":"14000US38105953701"}},{"arcs":[[-508,-30,508,-5,-25]],"type":"Polygon","properties":{"id":"14000US38105953702"}},{"arcs":[[-248,509,510,-16,511,512]],"type":"Polygon","properties":{"id":"14000US38081974200"}},{"arcs":[[-507,513,514,-28]],"type":"Polygon","properties":{"id":"14000US38105953900"}},{"arcs":[[-20,-263,-210,-7,515,-514,-506,-23]],"type":"Polygon","properties":{"id":"14000US38105953600"}},{"arcs":[[-204,516,517,-160,-149,-145,-235,518,519]],"type":"Polygon","properties":{"id":"14000US38063959000"}},{"arcs":[[-343]],"type":"Polygon","properties":{"id":"14000US38011965200"}},{"arcs":[[-457,-333,520,521,-241]],"type":"Polygon","properties":{"id":"14000US38051972900"}},{"arcs":[[522,523,-482,524,-416,-405]],"type":"Polygon","properties":{"id":"14000US38075952900"}},{"arcs":[[525,526,527]],"type":"Polygon","properties":{"id":"14000US38077970900"}},{"arcs":[[-527,528,529,530]],"type":"Polygon","properties":{"id":"14000US38077971000"}},{"arcs":[[531,532,-528,-531,533,-13,-511,534]],"type":"Polygon","properties":{"id":"14000US38077970800"}},{"arcs":[[-534,-530,535,-14]],"type":"Polygon","properties":{"id":"14000US38077971100"}},{"arcs":[[-280,536,-532,537]],"type":"Polygon","properties":{"id":"14000US38077970700"}},{"arcs":[[-256,-505,-376,-366,-251]],"type":"Polygon","properties":{"id":"14000US38089963400"}},{"arcs":[[-187,-431,538,539]],"type":"Polygon","properties":{"id":"14000US38093967500"}},{"arcs":[[-181,-184,540,541,-429,-185]],"type":"Polygon","properties":{"id":"14000US38093967300"}},{"arcs":[[542,-66,543,-360,544,-541,-183,-540,545,-70]],"type":"Polygon","properties":{"id":"14000US38093967000"}},{"arcs":[[546,547,548,-425,-409,549]],"type":"Polygon","properties":{"id":"14000US38101010602"}},{"arcs":[[-426,-549,550,-403]],"type":"Polygon","properties":{"id":"14000US38101010702"}},{"arcs":[[-399,-547,551]],"type":"Polygon","properties":{"id":"14000US38101010601"}},{"arcs":[[-404,-551,-548,-398]],"type":"Polygon","properties":{"id":"14000US38101010701"}},{"arcs":[[552,-423]],"type":"Polygon","properties":{"id":"14000US38101010902"}},{"arcs":[[-422,-553]],"type":"Polygon","properties":{"id":"14000US38101010901"}},{"arcs":[[-143,553,554,-231,555,-229,-236]],"type":"Polygon","properties":{"id":"14000US38097970100"}},{"arcs":[[556,-345,557,-134,558,-554,-142]],"type":"Polygon","properties":{"id":"14000US38035011702"}},{"arcs":[[-180,-158,559,-163,-136,560,-167,-175,-346,-557,-148]],"type":"Polygon","properties":{"id":"14000US38035011701"}},{"arcs":[[-561,-140,-172,561,-164]],"type":"Polygon","properties":{"id":"14000US38035010301"}},{"arcs":[[-562,-171,-165]],"type":"Polygon","properties":{"id":"14000US38035010302"}},{"arcs":[[562,-179,-178,-131,563]],"type":"Polygon","properties":{"id":"14000US38035011201"}},{"arcs":[[-173,564,565,-344]],"type":"Polygon","properties":{"id":"14000US38035010805"}},{"arcs":[[-566,566,-564,-135,-558]],"type":"Polygon","properties":{"id":"14000US38035011202"}},{"arcs":[[-169,-563,-567,-565]],"type":"Polygon","properties":{"id":"14000US38035010806"}},{"arcs":[[567,568,569]],"type":"Polygon","properties":{"id":"14000US38079941800"}},{"arcs":[[570,571,-570,572,-474]],"type":"Polygon","properties":{"id":"14000US38079951700"}},{"arcs":[[-573,-569,573,-435,-492,-475]],"type":"Polygon","properties":{"id":"14000US38079951900"}},{"arcs":[[574,-436,-574,-568,-572]],"type":"Polygon","properties":{"id":"14000US38079951600"}},{"arcs":[[-314,575,576,577]],"type":"Polygon","properties":{"id":"14000US38017040505"}},{"arcs":[[-496,578,-467,579,-315,-578,580,-278,581]],"type":"Polygon","properties":{"id":"14000US38017040509"}},{"arcs":[[-439,582,-449,583,-307]],"type":"Polygon","properties":{"id":"14000US38017010206"}},{"arcs":[[584,-468,-579,-495]],"type":"Polygon","properties":{"id":"14000US38017040506"}},{"arcs":[[-293,585,-465,-288,586,587,588]],"type":"Polygon","properties":{"id":"14000US38017000601"}},{"arcs":[[-497,-582,-277]],"type":"Polygon","properties":{"id":"14000US38017040503"}},{"arcs":[[-309,589,590,-494,-440]],"type":"Polygon","properties":{"id":"14000US38017040502"}},{"arcs":[[-453,-316,-580,-466]],"type":"Polygon","properties":{"id":"14000US38017040504"}},{"arcs":[[-271,591,592,-471]],"type":"Polygon","properties":{"id":"14000US38017001004"}},{"arcs":[[-448,-484,-450,593]],"type":"Polygon","properties":{"id":"14000US38017010110"}},{"arcs":[[594,-455,-469,-585,-591]],"type":"Polygon","properties":{"id":"14000US38017040508"}},{"arcs":[[-584,-594,-595,-590,-308]],"type":"Polygon","properties":{"id":"14000US38017010205"}},{"arcs":[[-305,-321,595,-300,596]],"type":"Polygon","properties":{"id":"14000US38017000501"}},{"arcs":[[-292,-306,-597,-464,-586]],"type":"Polygon","properties":{"id":"14000US38017000502"}},{"arcs":[[-294,-589,597,-445,-583,-438]],"type":"Polygon","properties":{"id":"14000US38017010107"}},{"arcs":[[-525,-481,-477,-493,-491,-76,-411,-417]],"type":"Polygon","properties":{"id":"14000US38049955600"}},{"arcs":[[598,-287,-273,-470,-442,599]],"type":"Polygon","properties":{"id":"14000US38017000904"}},{"arcs":[[600,601,-576,-313]],"type":"Polygon","properties":{"id":"14000US38017010307"}},{"arcs":[[-587,-599,602]],"type":"Polygon","properties":{"id":"14000US38017000903"}},{"arcs":[[-598,-588,-603,-600,-452,-483,-446]],"type":"Polygon","properties":{"id":"14000US38017010106"}},{"arcs":[[-472,-593,603,-601,-312]],"type":"Polygon","properties":{"id":"14000US38017010306"}},{"arcs":[[604,-120,-112,-485,-382,605]],"type":"Polygon","properties":{"id":"14000US38015011103"}},{"arcs":[[-509,-29,-515,-516,-6]],"type":"Polygon","properties":{"id":"14000US38105954100"}},{"arcs":[[-378,-124,606,607,-117,608,-606,-381,-391]],"type":"Polygon","properties":{"id":"14000US38015011105"}},{"arcs":[[-123,-87,-97,609,-607]],"type":"Polygon","properties":{"id":"14000US38015011002"}},{"arcs":[[-116,-605,-609]],"type":"Polygon","properties":{"id":"14000US38015011104"}},{"arcs":[[-297,-281,-538,-535,-510,-247,-458]],"type":"Polygon","properties":{"id":"14000US38073968900"}},{"arcs":[[-608,-610,-115,-92,-118]],"type":"Polygon","properties":{"id":"14000US38015011001"}},{"arcs":[[-337,-459,-249,-513,610,611]],"type":"Polygon","properties":{"id":"14000US38021973200"}},{"arcs":[[612]],"type":"Polygon","properties":{"id":"14000US38021973400"}},{"arcs":[[-332,-338,-612,613,-521],[-613]],"type":"Polygon","properties":{"id":"14000US38021973300"}},{"arcs":[[-198,-205,-520,614,-64,615]],"type":"Polygon","properties":{"id":"14000US38027959200"}},{"arcs":[[616,-523,-408,-260,-18,617]],"type":"Polygon","properties":{"id":"14000US38013953300"}},{"arcs":[[-407,-421,-400,-552,-550,-412,-49,-56,-259,-262]],"type":"Polygon","properties":{"id":"14000US38101011300"}},{"arcs":[[-615,-519,-239,-362,-354,-544,-65]],"type":"Polygon","properties":{"id":"14000US38039968600"}},{"arcs":[[-546,-539,-430,-542,-545,-359,-329,-456,-71]],"type":"Polygon","properties":{"id":"14000US38093967200"}},{"arcs":[[-618,-17,-22,618]],"type":"Polygon","properties":{"id":"14000US38023954500"}},{"arcs":[[619,620,-202,621]],"type":"Polygon","properties":{"id":"14000US38071957800"}},{"arcs":[[-433,-349,622,-517,-203,-621,623,-622,-201,-196,-324]],"type":"Polygon","properties":{"id":"14000US38071957700"}},{"arcs":[[-624,-620]],"type":"Polygon","properties":{"id":"14000US38071957600"}},{"arcs":[[-191,-221,624,625,626,-155,627],[628]],"type":"Polygon","properties":{"id":"14000US38099958100"}},{"arcs":[[-348,-192,-628,-154,-518,-623]],"type":"Polygon","properties":{"id":"14000US38099958300"}},{"arcs":[[-629]],"type":"Polygon","properties":{"id":"14000US38099958200"}},{"arcs":[[629,630,-626]],"type":"Polygon","properties":{"id":"14000US38099958000"}},{"arcs":[[-630,631]],"type":"Polygon","properties":{"id":"14000US38099957900"}},{"arcs":[[-631,-632,-625,-220,632,-156,-627]],"type":"Polygon","properties":{"id":"14000US38099957800"}},{"arcs":[[-490,-325,-199,-616,-67,-543,-69,-328],[-339]],"type":"Polygon","properties":{"id":"14000US38103960000"}},{"arcs":[[-11,-63,-498,633]],"type":"Polygon","properties":{"id":"14000US38033962900"}},{"arcs":[[-230,-556]],"type":"Polygon","properties":{"id":"14000US38097970200"}}]}}}