{"type":"Topology","arcs":[[[4205,6016],[47,28],[27,32],[32,19],[88,27]],[[4399,6122],[61,17],[83,34]],[[4543,6173],[129,66],[56,44],[26,34]],[[4754,6317],[68,-55],[60,-6]],[[4882,6256],[3,-18],[-132,-33],[-32,-23],[-108,-61],[-45,-15],[-97,-48],[-16,-3]],[[4455,6055],[-130,7],[-59,-20],[-38,-32]],[[4228,6010],[-23,-2]],[[4205,6008],[0,8]],[[5190,6852],[139,48],[27,3]],[[5356,6903],[27,-8],[61,-46]],[[5444,6849],[122,-97],[23,-14]],[[5589,6738],[-22,-28],[-287,-98]],[[5280,6612],[-1,2]],[[5279,6614],[-89,238]],[[2290,2893],[199,-200],[132,67],[202,224],[-2,48],[41,23],[29,45],[34,-3],[74,96],[-5,35],[-47,31],[-28,31]],[[2919,3290],[-47,32],[31,40],[1,36],[-17,30]],[[2887,3428],[60,34],[2,91],[34,9],[58,3],[20,-15],[38,12],[30,-7],[25,14],[26,-18],[60,17],[28,-23],[1,212]],[[3269,3757],[207,40],[419,-34],[24,5],[16,50],[17,18],[59,3],[20,-27],[42,-20],[79,10],[1,-35],[33,-36],[76,-23]],[[4262,3708],[11,-37],[20,-30],[-5,-67],[5,-43],[-4,-52],[17,-41],[-13,-28],[6,-84],[-15,-34],[21,-33],[-20,-23],[25,-28],[-18,-39],[-30,-20],[-3,-33]],[[4259,3116],[-174,30],[-10,30],[-30,-21],[-8,-49],[-22,-11],[-34,28],[-47,20],[-24,-30],[-45,-15],[-41,-48],[-19,-43],[50,-40],[-23,-29],[-72,20],[-8,-22],[-57,-20],[-39,29],[-26,-1],[-37,-20],[15,-31],[-28,-20],[-9,-29],[-73,-11],[18,-29],[-43,-9],[-11,-48],[-21,-41],[-32,-16],[-1,-51],[-21,-46],[-42,2],[-86,-46],[-34,-8],[-15,-31],[-66,51],[-32,7],[-48,-18],[-33,-46],[1,-14],[-52,-16],[6,-16],[-29,-40],[-211,54],[-191,-102]],[[2555,2370],[-200,387],[-65,136]],[[4205,6021],[0,-5]],[[4205,6008],[-11,-14],[-49,-6],[-38,-27],[-53,3],[-27,-7],[-12,-50],[19,-23],[13,-50],[-7,-29],[37,-56]],[[4077,5749],[-10,-19],[-57,-41],[-15,4],[-60,50],[-9,25],[-38,-5]],[[3888,5763],[-14,58],[-22,16],[-64,21]],[[3788,5858],[-6,27],[-29,29],[-37,14],[-91,-4],[-24,19],[-54,-7],[-53,1],[-6,-20]],[[3488,5917],[-11,11]],[[3477,5928],[-19,12],[9,41],[-56,1],[-8,17]],[[3403,5999],[3,44],[27,-11],[24,-39],[33,7],[120,3],[106,-31],[92,1],[6,67],[52,0],[7,26],[49,-17],[22,-71],[14,-4],[114,9],[55,11],[78,27]],[[3145,1306],[19,39],[18,-17],[-10,-23],[-27,1]],[[2039,2075],[24,13],[64,7],[38,11],[10,-18],[54,-10],[32,-31],[50,20],[67,47],[-1,-60],[287,-102]],[[2664,1952],[67,-29],[19,-19],[45,-8],[18,-31],[27,-3],[14,-38],[33,-33],[75,-27],[12,14],[36,-16],[23,-34],[-6,-42],[20,-24],[18,-52],[17,5],[15,-35],[36,-16],[4,-24],[29,-11],[29,-64],[-15,-58],[26,-16]],[[3206,1391],[-29,-9],[-54,-52],[-48,-17],[-55,2],[-79,-22],[-40,12],[-64,3],[-48,16],[-57,38],[-66,25],[-30,-6],[-48,8],[-34,35],[1,24],[-20,41],[-46,-12],[-26,-30],[-51,11],[-57,-1],[-50,43],[-21,29],[-28,97],[-25,0],[-18,23],[-71,46],[-58,31],[-22,42],[-34,34],[12,41],[25,32],[-1,62],[-33,49],[-2,39],[10,50]],[[1645,1048],[28,40],[105,42],[127,71],[40,17],[23,-39],[-59,-26],[-100,-62],[-116,-44],[-48,1]],[[3884,5557],[1,198],[3,8]],[[4077,5749],[42,16],[16,-10],[147,-116],[26,-16]],[[4308,5623],[-41,-58],[-46,-10],[-8,-43],[-34,-39],[-36,-20],[-49,25],[-7,20],[-42,4]],[[4045,5502],[-3,17],[-34,20],[-63,12],[-34,-10],[-27,16]],[[4228,6010],[-2,-74],[142,-2],[-1,-41],[24,-41],[-17,-26],[-3,-35],[20,-22],[-52,-73],[-19,-60],[-12,-13]],[[1863,4031],[38,90],[49,40],[16,1],[40,60],[-3,49],[16,23],[34,88],[0,42]],[[2053,4424],[23,-5]],[[2076,4419],[27,-19],[11,-35],[38,-20],[1,-102],[-39,-19],[20,-28],[1,-35],[21,-76]],[[2156,4085],[-74,3],[-34,-35],[11,-19],[-49,-27],[-63,22],[-14,26],[-42,-25],[-28,1]],[[1490,3546],[41,26],[13,-16],[-32,-32],[-22,22]],[[2156,4085],[30,-63]],[[2186,4022],[-12,-56],[13,-58],[-3,-40],[-15,-11],[-5,-475],[73,-88],[-55,-121],[-68,45],[-43,-34],[143,-199]],[[2214,2985],[-642,202],[-89,30]],[[1483,3217],[81,37],[77,110],[20,74],[50,104],[46,86],[14,16],[-8,58],[31,22],[4,65],[17,17],[17,46],[-3,64],[-16,23],[50,92]],[[3788,5858],[-187,-1],[-20,5],[-47,35],[-17,1],[-29,19]],[[2186,4022],[80,-67],[179,-157],[63,-61],[158,-119],[140,-122],[53,-56],[28,-12]],[[2919,3290],[-60,-23],[-296,-149],[-140,-67],[-196,-83]],[[2227,2968],[-13,17]],[[7092,8556],[102,-27],[39,-22],[232,-48],[26,-11],[47,6],[39,24],[66,-10],[22,-15],[68,-2],[24,10],[109,-12],[82,5],[27,13],[66,-9],[40,-17],[23,-44],[-27,-76],[-62,-87],[-39,-119],[-5,-93],[-18,-47],[-28,-32],[-13,-33],[-82,-79],[-23,-3],[-44,-29],[-4,-37],[-36,-106],[9,-31],[-12,-40],[30,-37],[-6,-78],[-34,-74]],[[7710,7396],[-321,134],[-117,44]],[[7272,7574],[25,66],[130,71],[-84,46],[-53,81],[-84,26],[-20,1],[-72,204],[2,29],[42,40],[-37,39],[-16,36],[-51,50],[-141,73],[-13,76],[-2,71],[-27,19],[-12,28],[18,23],[37,17],[36,35],[59,-67],[83,18]],[[5444,6849],[40,22],[130,34],[46,-1],[147,-31]],[[5807,6873],[-35,-158]],[[5772,6715],[-79,-1],[-104,24]],[[4998,5881],[61,66],[78,122],[20,20]],[[5157,6089],[91,18],[36,-7],[265,1]],[[5549,6101],[4,-216],[-3,-113],[2,-135],[-33,-24],[-39,-60]],[[5480,5553],[-451,4]],[[5029,5557],[1,137],[-5,109],[38,9],[-3,40],[-35,0],[-27,29]],[[5289,6394],[54,46],[34,11],[12,-42],[197,11],[0,-37]],[[5586,6383],[-37,-282]],[[5157,6089],[55,48],[2,47],[-35,64],[123,47],[26,20],[-2,23],[-37,56]],[[4488,5641],[63,9]],[[4551,5650],[64,-61],[64,-32],[-2,-19],[51,-16],[23,45],[51,-4],[4,15],[49,-1],[9,-22],[42,6],[66,-4]],[[4972,5557],[57,0]],[[5029,5557],[-4,-148],[50,-7],[180,0],[64,14]],[[5319,5416],[66,-119],[22,-30]],[[5407,5267],[-44,-10],[-79,2],[-34,-11],[-35,-37]],[[5215,5211],[-139,34],[-197,-3],[-14,-20],[-47,-33],[-99,-20]],[[4719,5169],[-7,17],[-52,39],[-81,4],[-9,72],[-21,205],[-2,84],[-37,20],[-22,31]],[[4882,6256],[165,87],[51,11],[89,43],[100,2]],[[5287,6399],[2,-5]],[[4998,5881],[-46,-49],[-29,-18],[-21,4]],[[4902,5818],[-36,7],[-121,46],[-83,13],[-32,20],[-164,23]],[[4466,5927],[-12,81],[1,47]],[[6104,9547],[109,-618],[55,-215],[25,-226],[59,-327]],[[6352,8161],[-90,57],[-33,8],[-45,-7],[-69,-35],[-33,-26],[-183,-220],[-26,-46]],[[5873,7892],[-161,-303]],[[5712,7589],[-77,-130],[-48,-92],[-30,-96]],[[5557,7271],[-17,-37],[-78,-87],[-55,-117],[-20,-78],[-31,-49]],[[5190,6852],[-31,124],[-63,274],[1,12],[-50,55]],[[5047,7317],[40,63],[16,76],[15,33],[-15,47],[50,15],[29,36],[53,35],[16,55],[67,99],[-10,22],[12,33],[28,27],[46,64],[48,31],[14,22],[44,-3],[16,25],[-13,39],[8,50],[23,48],[36,38],[22,38],[21,60],[12,8],[10,63],[15,38],[-19,23],[-10,65],[6,74],[-15,29],[-1,79],[-11,26],[13,73],[0,52],[12,63],[4,73],[23,43],[26,24],[78,95],[35,36],[41,58],[30,55],[75,177],[76,67],[65,48],[26,8]],[[4902,5818],[-14,-65],[9,-55],[63,-99],[12,-42]],[[4551,5650],[26,46],[-1,53],[-98,152],[-12,26]],[[4287,4267],[46,-31],[17,-38],[27,-18],[15,-31],[-25,-18],[-17,-107],[-41,-90],[-6,-116],[-39,-42],[-18,-41],[16,-27]],[[3269,3757],[1,401]],[[3270,4158],[-30,30],[-11,33],[-51,72]],[[3178,4293],[18,30],[23,-2],[7,37],[59,-7],[87,32],[44,-21],[27,12],[92,8],[-7,-15],[25,-25],[-9,-33],[20,-10],[8,-30],[46,-45],[19,-70],[51,-11],[46,20],[45,-3],[-3,-26],[32,1],[11,19],[45,29],[7,34],[27,1],[5,26],[-12,73],[-21,31],[4,20],[35,43],[32,-4],[9,-22],[56,-55],[6,-22],[27,-10],[20,-45],[58,-25],[14,8],[12,52],[56,-6],[22,-15],[26,12],[40,-12]],[[3037,5147],[5,-34],[24,4],[32,43],[66,54],[95,16],[47,32],[14,19],[35,-9],[37,8],[56,-17],[46,-47],[37,-6],[60,4],[-18,-38],[29,-29],[25,3],[29,-38],[98,18],[36,-8]],[[3790,5122],[29,-22],[45,23],[12,-18],[36,13],[15,34],[54,7],[8,-29],[41,-10],[21,-22],[7,-35],[28,-24],[23,11],[41,-42],[-5,-43],[27,-20],[64,-6],[4,-43],[47,0],[30,-24],[39,14],[7,-22],[29,-23],[35,-6],[8,-27],[39,18],[16,38],[30,-2],[22,-22]],[[4542,4840],[6,-68],[20,-35],[62,-22],[5,-40],[-25,-34],[-67,-28],[-12,-54],[-42,-58],[15,-52],[-27,-60],[-31,-16],[-58,-72],[-24,8],[-47,-2],[-30,-40]],[[3178,4293],[-340,479]],[[2838,4772],[-33,79],[31,32],[-9,40],[106,90],[19,74],[37,54],[48,6]],[[5772,6715],[45,2]],[[5817,6717],[-1,-211],[100,-3],[2,-37],[58,1],[1,37],[71,0],[-3,-88]],[[6045,6416],[-37,-16],[-40,7],[-94,-30],[-101,23],[-187,-17]],[[5287,6399],[-9,63],[33,67],[-31,83]],[[2637,5701],[10,-52],[-29,-13],[-23,-49],[66,-16],[106,10],[-46,-87],[66,-73],[86,39],[89,-27],[1,-43],[42,-43]],[[3005,5347],[32,-200]],[[2838,4772],[-28,-58],[-90,-64],[-44,-13],[-22,-22],[-81,27],[-20,29],[-36,2],[-31,23],[-25,-6],[-42,83],[-1,33],[-56,58],[-7,29]],[[2355,4893],[-21,36],[-8,43],[-17,10],[-176,157],[-4,189],[-811,158],[-71,22]],[[1247,5508],[54,62],[76,35],[116,90],[50,18],[32,-1],[448,0],[17,24],[166,-45],[100,-12],[43,12],[53,28],[38,29],[59,24],[36,4],[-2,-30],[35,-42],[36,-15],[33,12]],[[4259,3116],[3,-27],[20,-19],[-2,-68],[34,-51],[-10,-67],[11,-99],[-23,-52],[-10,-48],[12,-92],[-7,-20],[17,-63],[0,-56],[-49,-111],[-5,-42],[-46,-52],[-84,-58],[-4,-34],[6,-66],[-7,-26],[-46,-44],[-41,21],[-19,-8],[36,-57],[-56,-56],[-35,-16],[-32,-30],[-36,23],[-20,26],[-41,32],[-23,-10],[-8,-38],[69,-60],[-32,-42],[-24,10],[-71,-34],[-38,-36],[-76,-15],[-24,-20],[69,-8],[23,7],[22,-33],[-26,-19],[-9,-25],[-74,1],[-24,-57],[-40,-52],[-45,-84],[-32,-18],[-35,-38],[-61,-35],[10,-52],[-21,1],[-13,32],[-39,-41],[-55,28],[-1,36],[-41,37]],[[2664,1952],[-109,418]],[[4568,6473],[83,-24],[53,10],[88,33],[30,-26],[36,-11],[-81,-102],[-23,-36]],[[4543,6173],[-47,203]],[[4496,6376],[-16,121],[36,-1],[52,-23]],[[7272,7574],[-354,134],[-1,-1]],[[6917,7707],[-2,48],[-49,133],[-17,32],[-85,113]],[[6764,8033],[-54,60],[-24,12],[-198,48],[-81,-10],[-55,18]],[[6104,9547],[84,-7],[91,-29],[92,-59],[59,-47],[42,-17],[36,-27],[45,-47],[173,-234],[38,-39],[31,-16],[66,-78],[59,-55],[13,-37],[22,-20],[46,-86],[33,-89],[0,-39],[13,-33],[45,-32]],[[2637,5701],[21,21],[107,33],[26,22],[55,5],[28,11],[76,60]],[[2950,5853],[15,-26],[-15,-35],[2,-37],[21,-58],[32,-38],[-19,-36],[-22,-13],[41,-263]],[[0,5375],[3,59],[39,190],[18,67],[26,62],[32,61],[58,95],[97,133],[88,86],[90,104],[72,67],[83,61],[127,65],[113,105],[72,50],[65,52],[112,57],[173,57],[256,34],[132,4],[285,-23],[112,-28],[74,50],[206,103],[129,58],[207,68],[113,13],[105,3],[71,-4],[46,-12],[144,37],[120,16],[70,2],[144,162],[103,92],[104,74],[86,50],[68,29],[46,79],[32,81],[65,100],[62,188],[59,99],[39,75],[99,123],[89,83],[38,78],[36,40],[16,158],[16,88],[43,108],[-6,93],[7,86],[76,312],[23,65],[29,103],[47,93],[69,101],[146,159],[35,36],[90,172],[57,81],[62,80],[92,88],[136,104],[86,61],[123,66],[110,51],[141,48],[170,22],[142,-6],[300,-52],[95,-27],[101,-35],[95,-41],[126,-67],[126,-84],[116,-69],[114,-87],[94,-90],[65,-90],[74,-120],[144,-125],[125,-120],[74,-112],[144,-8],[142,-2],[152,-26],[129,-32],[156,-59],[123,-62],[120,-100],[168,-179],[28,-49],[40,-15],[87,-124],[39,-109],[30,-107],[48,-234],[8,-96],[-20,-99],[-31,-108],[-74,-147],[-64,-77],[-28,-125],[-57,-140],[-48,-92],[-42,-56],[-42,-45],[-13,-66],[-36,-149],[-48,-143],[-22,-53],[-91,-146],[-71,-259],[-78,-138],[-91,-128],[-29,-27],[-52,-68],[-29,-28],[-87,-103],[-82,-73],[-93,-54],[-111,-71],[-168,-61],[-77,-7],[-25,-40],[-40,-44],[-29,-43],[-216,-216],[-101,-73],[-145,-82],[-132,-42],[-60,-88],[-114,-112],[-45,-55],[-171,-143],[-101,-69],[-98,-28],[-79,-115],[-94,-90],[-98,-85],[-158,-100],[-101,-40],[-28,-60],[-80,-92],[-116,-89],[-46,-26],[-99,-46],[5,-84],[-14,-84],[-31,-116],[-11,-135],[-14,-82],[-19,-42],[9,-29],[1,-98],[-6,-84],[1,-77],[-10,-50],[-30,-86],[8,-49],[10,-219],[-5,-101],[-13,-44],[14,-46],[11,-102],[-8,-143],[-30,-212],[-26,-112],[-20,-48],[-32,-53],[-60,-131],[-39,-72],[-46,-64],[-39,-45],[-58,-45],[-12,-100],[-28,-82],[-20,7],[-22,-24],[-31,-6],[-12,-27],[-72,-87],[-69,-70],[-104,-71],[-25,-26],[-48,-21],[-22,-80],[-21,-39],[-92,-133],[-121,-140],[-51,-42],[-66,-70],[-111,-93],[-65,-47],[-77,-47],[-57,-29],[-195,-87],[-74,-21],[-150,-30],[-80,-3],[-74,5],[-51,12],[-149,-35],[-62,-12],[-114,-10],[-93,-4],[-66,6],[-52,-2],[-110,10],[-62,-25],[-98,-24],[-115,-17],[-103,2],[-44,11],[-34,-24],[-78,-36],[-119,-25],[-143,-21],[-168,-15],[-68,-2],[-106,8],[-147,27],[-20,19],[-97,32],[-104,48],[-182,135],[-98,96],[-59,84],[-53,64],[-62,116],[-41,127],[-18,84],[-8,102],[7,114],[12,97],[20,92],[33,124],[25,0],[50,106],[61,115],[172,195],[-48,96],[-43,114],[-22,134],[-7,62],[9,91],[-78,37],[-69,50],[-50,44],[-50,56],[-129,164],[-40,61],[-38,89],[-49,175],[-12,121],[-8,192],[12,106],[24,98],[55,131],[2,69],[18,110],[45,112],[-19,0],[28,77],[117,156],[36,119],[-212,179],[-84,91],[-46,56],[-52,53],[-35,55],[-60,113],[-49,125],[-39,148],[-22,120],[-11,186]],[[1483,3217],[41,-37],[29,-15],[40,-5],[28,-15],[49,-4],[0,-23],[29,-3],[25,-44],[39,-41],[10,-53],[52,-19],[7,-31],[-43,-98],[35,-64],[41,-7],[71,-45],[2,-31],[-38,-20],[-41,7],[-13,-29],[1,-35],[27,-25],[4,-45],[62,-17],[13,-26],[-27,-33],[-2,-45],[17,-3],[16,-59],[24,15],[51,-5],[17,-19],[-42,-44],[-61,-33],[-8,-24],[-1,-56],[36,-73],[25,-22],[41,-16]],[[4542,4840],[40,52],[61,24],[41,4],[40,18]],[[4724,4938],[19,-3],[63,41],[28,-6],[57,-26],[88,-7],[44,16],[40,53],[17,65],[50,64],[85,76]],[[5407,5267],[37,50],[35,31],[44,24],[87,132],[32,22],[36,60],[21,1],[15,37],[60,0],[22,32],[51,21],[65,3],[84,83],[48,67],[43,18],[38,51],[0,15],[76,71],[7,18],[94,79],[31,61]],[[6333,6143],[30,22],[93,51],[49,16],[90,5],[64,34],[23,37],[55,43],[31,39],[-21,58],[3,67],[14,36],[49,19],[37,-4],[12,31],[51,31],[27,31],[56,31],[65,7],[32,27],[71,19],[19,-13],[35,10],[46,30],[31,5],[44,30],[78,14],[65,52],[34,77],[3,37],[20,20],[35,77],[22,29],[-4,47],[9,60],[19,38],[33,37],[16,42],[23,17],[18,44]],[[5047,7317],[-7,-24],[-27,-22],[-12,-30],[-85,-92],[1,-37],[25,-43],[-7,-39],[7,-78],[13,-21],[-16,-56],[8,-21],[47,-6],[10,-26],[-30,-85],[-57,-78],[-21,-39],[-30,-34],[-48,-33],[-151,-43],[-49,12],[-24,31],[-67,40],[-20,-6]],[[4507,6587],[-19,2],[-50,-21],[-94,-14],[-82,-81],[-25,-55],[17,-47],[2,-44],[48,0],[44,-19],[13,-66],[-8,-42],[-24,-43],[-87,-115],[-37,-21]],[[3403,5999],[-85,-18],[-44,-31],[-120,-64],[-127,18],[-35,20],[-3,26],[-37,-12],[-2,-85]],[[1247,5508],[-121,-138],[7,-39],[33,-41],[25,-66],[62,-58],[125,-45],[69,-33],[58,-53],[44,-12],[-2,-28],[39,-126],[-12,-41],[52,-51],[46,-9],[30,11],[24,-11],[18,-36],[0,-36],[45,17],[54,-1],[22,-14],[43,-7],[48,-41],[56,-86],[1,-63],[29,-29],[11,-48]],[[1696,4680],[22,-13],[30,9],[-26,27],[-26,-23]],[[6332,6419],[-2,37],[2,232],[-2,133]],[[6330,6821],[109,34]],[[6439,6855],[66,21],[48,27],[25,23]],[[6578,6926],[1,-352],[262,340],[135,66],[11,12],[50,100],[39,67],[42,45],[10,58],[24,23],[46,23],[74,266]],[[6333,6143],[-18,20],[-21,71],[38,35],[0,150]],[[6352,8161],[34,-177],[51,-31],[0,-165],[-4,-67]],[[6433,7721],[-1,-90]],[[6432,7631],[-13,4],[-127,-2],[-3,-45],[-95,0]],[[6194,7588],[0,120],[4,97],[-104,42],[-117,-26],[-56,22],[-16,29],[-32,20]],[[5557,7271],[21,-3],[388,0],[25,-3]],[[5991,7265],[-104,-226]],[[5887,7039],[-40,-88],[-31,-47],[-9,-31]],[[5190,6852],[-34,-12],[-35,-43],[-55,-237],[-12,-32],[173,58],[52,28]],[[4568,6473],[-1,12],[-56,83],[-4,19]],[[6433,7721],[95,4],[16,58],[-19,37],[-25,1],[27,54],[43,9],[116,94],[25,26],[53,29]],[[6917,7707],[-25,-57],[-151,-380],[-64,-143],[-66,-156],[-33,-45]],[[6439,6855],[-20,52],[2,80],[-6,53],[55,283],[6,57],[-23,94],[-21,137],[0,20]],[[6194,7588],[-189,0]],[[6005,7588],[-293,1]],[[5991,7265],[14,41],[2,203],[-2,79]],[[6330,6821],[-145,-47]],[[6185,6774],[2,50],[25,262],[-106,-20],[-55,-27],[-164,0]],[[4308,5623],[32,-2],[16,18],[29,-18],[57,35],[46,-15]],[[4719,5169],[-5,-1]],[[4714,5168],[-153,-31],[-50,-32],[-51,-12],[-48,40],[-18,80],[-47,44],[-116,17],[-24,11],[-150,99],[-37,49],[-2,37],[27,32]],[[3645,5536],[239,21]],[[4714,5168],[8,-23],[-3,-70],[5,-137]],[[3790,5122],[-2,94],[17,55],[-4,34],[-99,8],[63,38],[-120,185]],[[4496,6376],[-115,1],[-2,-89],[10,-22],[1,-61],[-10,-46],[19,-37]],[[5319,5416],[66,18],[27,20],[68,99]],[[6045,6416],[287,3]],[[3477,5928],[13,-21],[17,-11],[81,-44],[81,-58],[13,-66],[-29,-68],[-32,-4],[-19,-27],[5,-42],[38,-51]],[[3270,4158],[-259,2],[-2,120],[-357,4],[-53,-58],[-25,19],[-31,-76],[-52,7],[-38,-21],[-67,13],[-11,-31],[-37,6],[-7,-53],[-58,-31],[-56,-12],[-31,-25]],[[2076,4419],[37,68],[49,23],[48,35],[42,19],[69,59],[15,64],[32,54],[-20,55],[-35,44],[42,53]],[[2227,2968],[63,-75]],[[6185,6774],[-124,-40],[-54,-8],[-118,-1],[-72,-8]]],"transform":{"scale":[0.000048550375776059054,0.00004944256724870226],"translate":[144.563426,13.182335]},"objects":{"Tract_66_2020":{"type":"GeometryCollection","geometries":[{"arcs":[[0,1,2,3,4,5,6,7]],"type":"Polygon","properties":{"id":"14000US66010952400"}},{"arcs":[[8,9,10,11,12,13]],"type":"Polygon","properties":{"id":"14000US66010950900"}},{"arcs":[[14,15,16,17,18,19,20]],"type":"Polygon","properties":{"id":"14000US66010955100"}},{"arcs":[[21,-8,22,23,24,25,26,27,28]],"type":"Polygon","properties":{"id":"14000US66010953400"}},{"arcs":[[[29]],[[30,31,32]],[[33]]],"type":"MultiPolygon","properties":{"id":"14000US66010955300"}},{"arcs":[[34,-24,35,36,37]],"type":"Polygon","properties":{"id":"14000US66010953200"}},{"arcs":[[-7,38,-36,-23]],"type":"Polygon","properties":{"id":"14000US66010953300"}},{"arcs":[[39,40,41,42]],"type":"Polygon","properties":{"id":"14000US66010954700"}},{"arcs":[[[43]],[[-43,44,45,46,47]]],"type":"MultiPolygon","properties":{"id":"14000US66010954800"}},{"arcs":[[48,-26]],"type":"Polygon","properties":{"id":"14000US66010953500"}},{"arcs":[[49,-16,50,51,-46]],"type":"Polygon","properties":{"id":"14000US66010980200"}},{"arcs":[[52,53,54]],"type":"Polygon","properties":{"id":"14000US66010950100"}},{"arcs":[[55,56,57,-11]],"type":"Polygon","properties":{"id":"14000US66010951000"}},{"arcs":[[58,59,60,61,62]],"type":"Polygon","properties":{"id":"14000US66010951600"}},{"arcs":[[63,64,-60,65]],"type":"Polygon","properties":{"id":"14000US66010951700"}},{"arcs":[[66,67,68,69,70,71,72,73]],"type":"Polygon","properties":{"id":"14000US66010952900"}},{"arcs":[[-5,74,75,-66,-59,76,77,78]],"type":"Polygon","properties":{"id":"14000US66010951800"}},{"arcs":[[79,80,81,82,83,-9,84,85]],"type":"Polygon","properties":{"id":"14000US66010950300"}},{"arcs":[[-78,86,-68,87]],"type":"Polygon","properties":{"id":"14000US66010952700"}},{"arcs":[[88,-18,89,90,91]],"type":"Polygon","properties":{"id":"14000US66010954000"}},{"arcs":[[92,93,94,-92,95,96]],"type":"Polygon","properties":{"id":"14000US66010953900"}},{"arcs":[[-12,-58,97,98,99,-64,-76,100]],"type":"Polygon","properties":{"id":"14000US66010951100"}},{"arcs":[[101,102,-97,103,104,105]],"type":"Polygon","properties":{"id":"14000US66010954400"}},{"arcs":[[106,-32,107,-20]],"type":"Polygon","properties":{"id":"14000US66010955200"}},{"arcs":[[108,-3,109,110]],"type":"Polygon","properties":{"id":"14000US66010952300"}},{"arcs":[[-55,111,112,113,-80,114]],"type":"Polygon","properties":{"id":"14000US66010950200"}},{"arcs":[[115,116,-102]],"type":"Polygon","properties":{"id":"14000US66010954300"}},{"arcs":[[117],[-40,-48,118,-33,-107,-19,-89,-95,119,120,-72,121,122,-53,-115,-86,123,124,-29,125,-116,-106,126],[-44],[-34],[127],[-30]],"type":"Polygon","properties":{"id":"14000US66010990000"}},{"arcs":[[128,129,130,131,-54,-123,132]],"type":"Polygon","properties":{"id":"14000US66010956300"}},{"arcs":[[-81,133,134,135,136]],"type":"Polygon","properties":{"id":"14000US66010950402"}},{"arcs":[[137,138,139,-56,-10,-84]],"type":"Polygon","properties":{"id":"14000US66010950802"}},{"arcs":[[-124,-85,140,-13,-101,-75,-4,-109,141]],"type":"Polygon","properties":{"id":"14000US66010951902"}},{"arcs":[[-135,142,-113,143,-131,144]],"type":"Polygon","properties":{"id":"14000US66010950502"}},{"arcs":[[-137,145,146,-82]],"type":"Polygon","properties":{"id":"14000US66010950401"}},{"arcs":[[-14,-141]],"type":"Polygon","properties":{"id":"14000US66010951901"}},{"arcs":[[147,-146,-136,-145,-130,148,149,-139]],"type":"Polygon","properties":{"id":"14000US66010950702"}},{"arcs":[[-147,-148,-138,-83]],"type":"Polygon","properties":{"id":"14000US66010950801"}},{"arcs":[[-37,150,-74,151,152]],"type":"Polygon","properties":{"id":"14000US66010953102"}},{"arcs":[[153,-38,-153,154,-120,-94,155]],"type":"Polygon","properties":{"id":"14000US66010953101"}},{"arcs":[[-114,-143,-134]],"type":"Polygon","properties":{"id":"14000US66010950501"}},{"arcs":[[-144,-112,-132]],"type":"Polygon","properties":{"id":"14000US66010955800"}},{"arcs":[[-125,-142,-111,156,-1,-22]],"type":"Polygon","properties":{"id":"14000US66010955900"}},{"arcs":[[157,-61,-65,-100,158,-133,-122,-71]],"type":"Polygon","properties":{"id":"14000US66010955700"}},{"arcs":[[-6,-79,-88,-67,-151,-39]],"type":"Polygon","properties":{"id":"14000US66010956000"}},{"arcs":[[-28,159,-156,-93,-103,-117,-126]],"type":"Polygon","properties":{"id":"14000US66010956100"}},{"arcs":[[-104,-96,-91,160,-45,-42,161]],"type":"Polygon","properties":{"id":"14000US66010956200"}},{"arcs":[[[-128]],[[-105,-162,-41,-127]]],"type":"MultiPolygon","properties":{"id":"14000US66010954500"}},{"arcs":[[-47,-52,162,-21,-108,-31,-119]],"type":"Polygon","properties":{"id":"14000US66010955400"}},{"arcs":[[-77,-63,-69,-87]],"type":"Polygon","properties":{"id":"14000US66010955600"}},{"arcs":[[-110,-2,-157]],"type":"Polygon","properties":{"id":"14000US66010952200"}},{"arcs":[[-62,-158,-70]],"type":"Polygon","properties":{"id":"14000US66010952800"}},{"arcs":[[-27,-49,-25,-35,-154,-160]],"type":"Polygon","properties":{"id":"14000US66010953600"}},{"arcs":[[-73,-121,-155,-152]],"type":"Polygon","properties":{"id":"14000US66010953000"}},{"arcs":[[-57,-140,-150,163,-98]],"type":"Polygon","properties":{"id":"14000US66010950701"}},{"arcs":[[-90,-17,-50,-161]],"type":"Polygon","properties":{"id":"14000US66010980100"}},{"arcs":[[-15,-163,-51]],"type":"Polygon","properties":{"id":"14000US66010980300"}},{"arcs":[[-164,-149,-129,-159,-99]],"type":"Polygon","properties":{"id":"14000US66010980400"}}]}}}