{"type":"Topology","arcs":[[[1918,4364],[44,45],[1,26]],[[1963,4435],[35,-4],[108,0]],[[2106,4431],[19,-19]],[[2125,4412],[-18,-22],[-30,-81],[-45,-87],[-6,-35]],[[2026,4187],[-34,78],[-38,23],[-36,76]],[[2125,4412],[27,-101]],[[2152,4311],[1,-97]],[[2153,4214],[-122,-79]],[[2031,4135],[-5,52]],[[2408,4543],[10,6],[138,0]],[[2556,4549],[0,-201]],[[2556,4348],[-48,-4],[-87,-20]],[[2421,4324],[3,24],[-8,96]],[[2416,4444],[-8,99]],[[2153,4214],[21,13],[21,30],[101,36]],[[2296,4293],[-1,-170]],[[2295,4123],[-76,0]],[[2219,4123],[-66,0],[0,91]],[[2219,4123],[-66,-86]],[[2153,4037],[-36,-47]],[[2117,3990],[-22,2],[-47,99],[-17,44]],[[3544,2413],[88,-105]],[[3632,2308],[102,-85],[39,-26],[63,13],[90,1],[18,-6],[35,-27]],[[3979,2178],[-13,-15],[35,-30],[-35,-46]],[[3966,2087],[-52,19],[-57,4],[-37,-7],[-59,-25]],[[3761,2078],[-10,11],[-40,14],[-25,18],[-24,43],[-6,43],[-15,27],[-26,15],[-137,2]],[[3478,2251],[-1,32],[-19,41],[34,55],[52,34]],[[3753,3305],[176,0]],[[3929,3305],[0,-176]],[[3929,3129],[-176,85]],[[3753,3214],[0,91]],[[2042,3892],[49,65],[33,8]],[[2124,3965],[161,-69],[10,-11]],[[2295,3885],[-1,-230]],[[2294,3655],[-39,0],[1,-49],[-42,3]],[[2214,3609],[-243,103],[-36,10]],[[1935,3722],[-4,27],[111,143]],[[4350,3552],[47,-5],[151,-28],[104,-21]],[[4652,3498],[-59,-70],[-98,-122]],[[4495,3306],[-183,1]],[[4312,3307],[23,116],[18,67],[-3,62]],[[1123,4076],[163,-3]],[[1286,4073],[1,-36],[107,2],[3,-97],[-71,-4],[4,-117],[-69,14],[-56,1],[-62,16]],[[1143,3852],[11,23],[0,48],[9,16],[-4,36],[-42,76],[6,25]],[[1025,4372],[49,7],[2,29],[216,0]],[[1292,4408],[39,-80],[58,-82]],[[1389,4246],[-2,-5],[6,-166],[-107,-2]],[[1123,4076],[5,14],[-14,32],[-33,33],[-13,40],[-43,82],[0,21]],[[1025,4298],[0,74]],[[1299,4722],[172,-14]],[[1471,4708],[0,-132],[87,-1],[152,-145]],[[1710,4430],[46,3],[9,-26],[30,-16],[17,-29],[-37,-23],[-41,-15],[9,-18],[-31,-9],[-39,-32]],[[1673,4265],[-124,4],[-103,7],[-3,-34],[-37,-22]],[[1406,4220],[-17,26]],[[1292,4408],[-8,18],[0,104]],[[1284,4530],[1,89],[14,103]],[[1471,4708],[52,-15],[61,-30],[60,6],[43,34],[4,24],[15,23],[31,-5]],[[1737,4745],[29,-61]],[[1766,4684],[83,-176],[-136,22],[-3,-100]],[[2802,4142],[111,-58]],[[2913,4084],[140,-72]],[[3053,4012],[1,-118]],[[3054,3894],[-31,-10],[-130,-53]],[[2893,3831],[-30,106]],[[2863,3937],[-61,205]],[[2698,4123],[0,73]],[[2698,4196],[104,-54]],[[2863,3937],[-165,0]],[[2698,3937],[0,186]],[[2893,3831],[-39,-20],[-157,-63]],[[2697,3748],[1,189]],[[2556,3937],[142,0]],[[2697,3748],[-55,-1]],[[2642,3747],[-86,35]],[[2556,3782],[0,155]],[[3575,2684],[48,-75],[-31,-26]],[[3592,2583],[-18,-17],[-41,-64],[-30,-37],[35,-30],[6,-22]],[[3478,2251],[-1,-87],[15,-42],[31,-31]],[[3523,2091],[-9,-10]],[[3514,2081],[-294,225],[-1,14]],[[3219,2320],[-4,16],[29,58],[9,63],[-2,34],[-15,37],[0,25],[-85,42]],[[3151,2595],[57,73],[218,-27],[84,2],[65,41]],[[4053,2005],[32,-29],[37,-21],[40,-15],[61,-7],[31,3]],[[4254,1936],[-32,-30]],[[4222,1906],[-60,3],[-84,-18],[-53,-27],[-35,-10],[-63,-10],[-92,-34]],[[3835,1810],[-19,40]],[[3816,1850],[38,15],[46,38],[34,52],[43,30],[44,15],[32,5]],[[1759,3802],[14,24]],[[1773,3826],[27,66],[25,41],[17,12],[38,-2],[37,15],[4,15]],[[1921,3973],[35,0]],[[1956,3973],[0,-81]],[[1956,3892],[-72,1],[0,-144]],[[1884,3749],[-125,53]],[[2698,3719],[82,-33]],[[2780,3686],[0,-212],[-27,-14],[0,-55]],[[2753,3405],[-56,18]],[[2697,3423],[1,296]],[[3186,1642],[32,52],[26,21],[50,15],[78,5],[89,17]],[[3461,1752],[17,-115],[3,-94]],[[3481,1543],[-34,0],[-33,-16],[-34,-27],[-16,-25],[-55,-40],[-23,-10]],[[3286,1425],[-5,62],[5,48],[0,157],[-33,-11],[-36,-43],[-31,4]],[[2790,6287],[110,-102],[34,-36],[67,-61],[66,-69]],[[3067,6019],[-15,-18],[0,-146],[4,-26],[-18,-29]],[[3038,5800],[-49,51],[-44,53],[-50,100],[-142,-1]],[[2753,6003],[-152,0]],[[2601,6003],[71,121],[16,21],[63,106],[39,36]],[[2568,6494],[96,-90],[22,-15],[104,-102]],[[2601,6003],[-51,0]],[[2550,6003],[1,79],[-171,0]],[[2380,6082],[-81,0]],[[2299,6082],[0,88],[94,106],[180,-1],[-5,219]],[[2550,6003],[-21,-293]],[[2529,5710],[-14,4]],[[2515,5714],[-135,24]],[[2380,5738],[0,344]],[[2753,6003],[0,-377]],[[2753,5626],[-34,0],[-190,77]],[[2529,5703],[0,7]],[[3038,5800],[-32,-52],[24,-34],[17,-39]],[[3047,5675],[-85,1],[-30,-50],[-179,0]],[[2421,4123],[135,0]],[[2556,4123],[0,-150]],[[2556,3973],[-29,0],[-43,19],[-18,-18]],[[2466,3974],[-45,-1]],[[2421,3973],[0,150]],[[3049,1614],[2,-27],[37,-104]],[[3088,1483],[-18,-69],[1,-27],[19,-48]],[[3090,1339],[0,-139],[11,-45],[35,-62]],[[3136,1093],[-66,-17],[-96,-1],[9,-25],[-14,-32],[-17,39],[-114,27],[-15,-8]],[[2823,1076],[0,127],[4,53],[13,32],[44,52],[31,47],[121,199],[13,28]],[[3286,1324],[4,11],[36,23],[156,0],[22,3],[36,22],[12,-12]],[[3552,1371],[-109,-106]],[[3443,1265],[-157,0],[0,59]],[[3088,1483],[98,159]],[[3286,1425],[-19,-1],[-28,-20],[-44,-79]],[[3195,1325],[-105,14]],[[2298,5418],[172,247],[18,13],[27,36]],[[2529,5703],[-5,-119],[22,-189]],[[2546,5395],[22,-193]],[[2568,5202],[-84,0],[-56,71],[-131,1]],[[2297,5274],[1,144]],[[2753,5626],[-2,-18],[8,-206]],[[2759,5402],[-213,-7]],[[2399,4897],[83,-27]],[[2482,4870],[124,-39]],[[2606,4831],[-61,-99],[-22,-12]],[[2523,4720],[-122,-50]],[[2401,4670],[-2,52]],[[2399,4722],[0,175]],[[2606,4831],[26,40]],[[2632,4871],[37,-306]],[[2669,4565],[-16,-5],[-97,-11]],[[2556,4549],[-33,171]],[[2632,4871],[78,24],[67,13]],[[2777,4908],[-6,-22],[2,-86],[34,-172],[4,-39]],[[2811,4589],[-62,-1],[-11,-12],[-69,-11]],[[2811,4589],[29,-13],[44,-31],[36,-12],[47,1]],[[2967,4534],[0,-168],[-77,-21],[18,-189]],[[2908,4156],[5,-72]],[[2698,4196],[0,123],[-29,246]],[[2698,4196],[-57,25]],[[2641,4221],[1,26],[-29,55],[-24,35],[-33,11]],[[2295,4123],[0,-100]],[[2295,4023],[-142,0],[0,14]],[[2421,4221],[220,0]],[[2698,4123],[-142,0]],[[2421,4123],[0,98]],[[3209,3839],[24,79]],[[3233,3918],[258,-135]],[[3491,3783],[-50,-40],[0,-88]],[[3441,3655],[-96,0]],[[3345,3655],[-142,1]],[[3203,3656],[0,77],[-23,0],[29,106]],[[402,4231],[53,37],[22,47],[32,12],[15,-11],[27,8],[33,37],[-24,31],[19,9],[41,70],[21,47],[28,40],[-6,70],[-20,30],[9,22],[29,36],[50,30]],[[731,4746],[69,26],[70,64],[13,17]],[[883,4853],[31,-31],[72,-154],[94,-1]],[[1080,4667],[-30,-134]],[[1050,4533],[-25,-161]],[[1025,4298],[-94,-4],[-76,0],[1,-92],[-76,0],[-47,-10],[-42,-17],[-45,-37],[-1,-14],[-38,-24],[-51,-48],[-35,-26]],[[521,4026],[-19,12],[-42,40],[-11,24],[-1,29],[-21,61],[-25,39]],[[2074,4596],[32,-6],[42,-25],[17,-1]],[[2165,4564],[-10,-58],[15,-9],[-72,-60],[8,-6]],[[1963,4435],[-5,38],[-19,36],[-12,72],[25,10],[52,-43],[25,-25],[35,21],[10,52]],[[634,5192],[101,-90]],[[735,5102],[189,-168],[17,2]],[[941,4936],[1,-19]],[[942,4917],[-16,-2],[-43,-62]],[[731,4746],[-47,-7],[-59,6]],[[625,4745],[-61,30],[-27,39],[-21,19],[18,17],[42,10],[79,0],[-21,85],[0,247]],[[786,5550],[152,145]],[[938,5695],[136,-325],[16,-75],[37,-80]],[[1127,5215],[10,-24]],[[1137,5191],[-17,1],[-179,-256]],[[735,5102],[123,0],[0,383],[-6,9],[-66,56]],[[1392,3668],[15,15],[77,4],[86,-3],[2,42],[-3,137],[-2,8],[-105,243],[-33,70],[-23,36]],[[1673,4265],[22,-20]],[[1695,4245],[-9,-22],[-6,-44],[41,-40],[51,-40],[8,-13],[74,-34],[36,-40]],[[1890,4012],[-23,-6],[-141,-2],[4,-179],[43,1]],[[1759,3802],[-47,-68]],[[1712,3734],[-25,-35],[1,-15],[31,-32],[0,-25],[20,-28],[1,-29]],[[1740,3570],[-2,-78],[5,-32],[16,-44],[-8,-5],[-193,-39],[-40,2]],[[1518,3374],[-13,59],[-56,120],[-15,80],[-42,35]],[[2296,4414],[0,18]],[[2296,4432],[32,6],[88,6]],[[2421,4324],[-54,-14],[-14,-15],[-57,-2]],[[2296,4293],[0,121]],[[2297,4936],[0,123]],[[2297,5059],[186,-1]],[[2483,5058],[-1,-188]],[[2399,4897],[-45,12],[-57,0]],[[2297,4909],[0,27]],[[1890,4012],[31,-39]],[[1080,4667],[19,61],[-6,55]],[[1093,4783],[9,-9]],[[1102,4774],[76,-68],[-1,-176]],[[1177,4530],[-58,1],[-23,-8],[-46,10]],[[2165,4564],[69,0],[32,-8],[24,6]],[[2290,4562],[6,-20]],[[2296,4542],[-88,-63],[-83,-67]],[[2421,4221],[0,103]],[[527,5304],[259,246]],[[634,5192],[-106,95],[-1,17]],[[2296,4542],[0,-9]],[[2296,4533],[0,-101]],[[2296,4414],[-117,-83],[-1,-14],[-26,-6]],[[2297,4826],[0,-56]],[[2297,4770],[0,-56]],[[2297,4714],[-62,29],[-56,-6],[-66,1],[-30,13]],[[2083,4751],[0,48],[148,1],[28,56],[25,-12],[13,-18]],[[2296,4533],[112,10]],[[942,4917],[151,-134]],[[198,5003],[178,166],[35,30],[64,63],[52,42]],[[625,4745],[-132,-142],[-60,-33],[-73,81],[-18,45],[-71,77],[-55,93],[-5,25],[3,38],[-3,40],[-13,34]],[[1305,4776],[-6,-54]],[[1284,4530],[-19,0],[-21,-15],[-67,0],[0,15]],[[1102,4774],[9,2],[194,0]],[[1881,4984],[-16,-51],[4,-14],[46,-18],[39,4],[22,-4],[8,-50],[-14,-30]],[[1970,4821],[-28,-33],[-33,-21]],[[1909,4767],[-35,22],[-32,-11],[-45,-28],[-11,-38],[11,-23],[-31,-5]],[[1737,4745],[-135,283]],[[1602,5028],[150,-1],[33,-9],[60,5],[36,-39]],[[1491,5261],[249,0],[35,4],[71,27],[31,2],[6,-25],[-6,-43],[9,-34],[41,-54],[6,-15]],[[1933,5123],[-35,-54],[-12,-32],[4,-30],[-9,-23]],[[1602,5028],[-111,233]],[[1970,4821],[80,36],[113,10],[74,35],[60,34]],[[2297,4909],[0,-83]],[[2083,4751],[-33,16],[-39,-21],[-57,0],[-45,21]],[[2483,5058],[115,1]],[[2598,5059],[24,-112],[10,-76]],[[1884,3749],[36,-33]],[[1920,3716],[0,-82]],[[1920,3634],[-84,0],[-4,38],[-40,5],[0,55],[-80,2]],[[1956,3892],[86,0]],[[1935,3722],[-15,-6]],[[1920,3634],[0,-119]],[[1920,3515],[-35,-4],[-32,6],[-12,14],[4,55],[-22,-26],[-49,0],[-34,10]],[[1956,3973],[2,60],[35,43],[17,36],[21,23]],[[2117,3990],[7,-25]],[[2295,4023],[0,-123],[9,-11]],[[2304,3889],[-9,-4]],[[2818,3230],[0,-279]],[[2818,2951],[-121,0],[-22,-22],[44,-45]],[[2719,2884],[-20,-27],[-53,-3]],[[2646,2854],[-170,148],[-76,61],[14,28],[6,31],[1,99],[8,9],[389,0]],[[1920,3515],[58,0],[69,-44],[56,-41],[77,-47],[33,0],[1,226]],[[2294,3655],[39,0],[1,-48],[40,1]],[[2374,3608],[0,-80],[47,-11],[0,-20],[57,0],[219,-74]],[[2753,3405],[97,-33],[32,10],[56,0],[70,63],[-8,28],[40,0],[12,11],[0,79]],[[3052,3563],[0,3]],[[3052,3566],[39,-24],[9,-20],[22,-9],[36,11],[12,35],[35,0]],[[3205,3559],[0,-72]],[[3205,3487],[0,-54],[-66,1],[-1,-89],[29,14],[14,18],[24,-1],[0,-71]],[[3205,3305],[0,-22],[41,1],[0,-53]],[[3246,3231],[-41,1],[0,-53],[-66,0],[0,-33],[-87,0],[0,-41]],[[3052,3105],[-77,66],[-47,46],[-7,13],[-103,0]],[[2646,2854],[69,-142],[27,-73],[4,-36],[0,-391]],[[2746,2212],[-70,-48],[-262,-176]],[[2414,1988],[-2,55],[-16,91],[-71,160],[-57,47],[-19,74],[-44,-5],[-16,-28],[-37,28],[-12,18],[47,-2],[59,11],[15,26],[-4,49],[-11,40],[-35,83],[-18,34],[-43,57],[-41,49],[-17,7],[-56,46],[-25,-10],[-6,-27],[18,-19],[-5,-27],[9,-24],[-21,-22],[-69,-15],[-29,21],[-28,54],[-4,36],[8,47],[-3,18],[-46,62],[-28,45],[-17,14],[-41,8],[-44,-5],[-22,8],[-13,16],[-70,138],[-68,127],[-6,23],[17,22],[-6,27],[-19,29]],[[3051,3027],[62,-20],[31,-3]],[[3144,3004],[42,-147]],[[3186,2857],[-135,-1]],[[3051,2856],[0,171]],[[2295,4123],[126,0]],[[2421,3973],[-72,1],[0,-105]],[[2349,3869],[-45,20]],[[2421,3973],[0,-123],[11,-16]],[[2432,3834],[-83,35]],[[2466,3974],[19,-19],[0,-144]],[[2485,3811],[-53,23]],[[2556,3973],[0,-36]],[[2556,3782],[-71,29]],[[3186,2857],[318,-1],[31,1]],[[3535,2857],[1,-63],[6,-45],[33,-65]],[[3151,2595],[-75,41],[-15,18],[-9,30],[-1,172]],[[2374,3608],[3,2],[258,109],[7,28]],[[2697,3748],[0,-14]],[[2697,3734],[1,-15]],[[2893,3831],[30,-98]],[[2923,3733],[-226,1]],[[3054,3894],[-2,-55]],[[3052,3839],[0,-106]],[[3052,3733],[-129,0]],[[3052,3839],[157,0]],[[3203,3656],[2,-97]],[[3052,3566],[0,167]],[[3053,4012],[102,-53]],[[3155,3959],[78,-41]],[[2719,2884],[35,-28],[63,0]],[[2817,2856],[1,-147],[88,-2]],[[2906,2707],[-27,-86],[1,-141],[-2,-177]],[[2878,2303],[-132,-91]],[[2818,2951],[65,0],[-1,-95]],[[2882,2856],[-65,0]],[[2882,2856],[37,0]],[[2919,2856],[-15,-55],[0,-28],[34,-20],[-13,-46],[-19,0]],[[3144,3004],[64,-3],[37,-10]],[[3245,2991],[128,-43],[123,-34],[39,-14]],[[3535,2900],[0,-43]],[[3053,5413],[33,-1],[0,-19],[51,8],[31,-10],[27,-26],[11,-44],[14,-23],[8,-36],[-16,-54],[76,36]],[[3288,5244],[13,-37]],[[3301,5207],[66,-187]],[[3367,5020],[-191,0],[-25,9],[-42,34],[-29,13]],[[3080,5076],[-48,35],[-31,40]],[[3001,5151],[47,36],[15,34],[-1,50],[-9,142]],[[3367,5020],[42,-119],[35,-116]],[[3444,4785],[-169,-85]],[[3275,4700],[-9,20],[-23,146],[-62,23],[-55,-8],[-14,43],[-39,93],[-1,33],[8,26]],[[1192,5070],[211,0],[30,-49],[38,-7],[57,0],[74,14]],[[1305,4776],[-3,42],[-26,66],[-84,186]],[[3523,2091],[75,-26],[79,-6],[42,4],[42,15]],[[3966,2087],[27,-19],[60,-63]],[[3816,1850],[-103,-35],[-110,-32]],[[3603,1783],[19,65],[30,5],[62,77],[-200,151]],[[2878,2303],[172,120],[26,30],[75,142]],[[3219,2320],[-26,-99],[-42,-115],[-71,-145],[-9,-163],[-18,-169],[-4,-15]],[[2823,1076],[-1,-49],[-19,-45],[-54,-3],[-157,-21],[-48,-4],[-321,-12]],[[2223,942],[-17,9],[-8,26],[16,27],[-7,12],[-32,14],[-6,34],[39,19],[24,22],[4,41],[25,119],[-3,45],[-38,55],[-68,49],[-24,-10],[17,-59],[-12,-12],[-24,9],[-16,57],[-17,21],[-15,50],[-12,95],[-30,60],[15,14],[-42,11],[-14,21],[33,1],[27,-8],[29,-28],[24,-1],[23,-14],[36,-9],[20,3],[30,-11],[87,4],[60,22],[12,30],[7,57],[24,63],[15,79],[6,55],[3,74]],[[2297,4714],[-1,-151],[-6,-1]],[[2074,4596],[-4,22],[-30,34],[-44,61],[-59,19],[-19,2],[-18,20],[9,13]],[[3345,3655],[0,-239]],[[3345,3416],[-59,0],[0,33],[-81,38]],[[1874,6586],[37,32],[108,106],[109,100],[47,52],[111,-106],[51,-54],[107,-101],[124,-121]],[[2299,6082],[-30,-9],[-14,9],[9,32],[-62,-13]],[[2202,6101],[13,38],[-15,30],[9,27],[-6,24],[-35,21],[-46,34],[-27,9],[-10,42],[-13,16],[29,23],[33,-23],[14,2],[40,33],[15,38],[-13,22],[-35,14],[-22,25],[-54,-3],[-39,9],[-50,41],[-39,9],[-77,44],[0,10]],[[3052,3105],[-1,-78]],[[3051,2856],[-132,0]],[[3234,4510],[220,0]],[[3454,4510],[-17,-67],[-26,-74]],[[3411,4369],[-125,-55]],[[3286,4314],[0,124],[-82,0],[15,61],[15,11]],[[3461,1752],[142,31]],[[3835,1810],[51,-112],[25,-10],[42,24],[38,-2],[14,14],[39,13]],[[4044,1737],[-329,-314]],[[3715,1423],[-76,105],[-27,53],[-77,-17],[-54,-21]],[[2408,4543],[-7,127]],[[4037,2412],[94,-52],[32,-36]],[[4163,2324],[17,-15],[-1,-44]],[[4179,2265],[13,-44],[30,-53],[39,-60],[60,-69],[29,-9]],[[4350,2030],[-42,-41]],[[4308,1989],[-60,57],[0,-34],[10,-23],[-25,-9],[-19,29],[-42,1],[-20,11],[-24,36],[2,104],[-49,37],[-46,-53],[-50,40]],[[3985,2185],[26,29],[-26,17],[44,52],[-58,46],[66,83]],[[3592,2583],[23,-32],[118,-26]],[[3733,2525],[32,-7]],[[3765,2518],[-7,-29],[35,-8],[-14,-61],[-4,-72],[-23,-28],[-108,-1],[-12,-11]],[[402,4231],[-16,34],[-37,63],[-53,57],[-43,39],[-23,27],[-34,28],[-21,26],[-41,65],[-29,27],[-14,49],[-91,159],[25,34],[53,48],[120,116]],[[1326,6066],[136,129],[341,326],[71,65]],[[2202,6101],[-9,-31],[-24,-23],[-24,-7],[-42,9],[-32,-17],[-16,-59],[-41,-43],[-6,-42],[-19,-49],[9,-26],[28,-40],[47,-30],[29,-28]],[[2102,5715],[-57,-30],[-40,-3],[-39,8],[-64,43],[-30,1],[-38,-17],[-47,-12],[-35,-2]],[[1752,5703],[1,87],[-6,11],[-68,60],[-10,4],[-78,0]],[[1591,5865],[-175,0],[-48,131],[-42,70]],[[4652,3498],[46,-10],[83,-45],[108,-35],[80,-40],[24,-16],[29,-44]],[[5022,3308],[-7,0]],[[5015,3308],[-83,-2],[-334,0]],[[4598,3306],[-103,0]],[[1918,4364],[-23,-44],[-23,-12],[-41,17],[-34,-5],[-16,-25],[-32,-20],[-26,-7],[-28,-23]],[[2908,4156],[146,61]],[[3054,4217],[-1,-205]],[[3441,3655],[300,1]],[[3741,3656],[18,-1]],[[3759,3655],[4,0]],[[3763,3655],[-9,-6]],[[3754,3649],[-183,-91]],[[3571,3558],[-130,-65]],[[3441,3493],[0,162]],[[4461,3856],[28,-19],[19,-1],[69,37],[10,20],[28,25],[38,6],[21,-13],[31,-42],[25,-43],[77,-86],[10,-29],[38,-16]],[[4855,3695],[-203,-197]],[[4350,3552],[-6,80],[6,23],[38,52],[34,56],[39,93]],[[1143,3852],[0,-9],[-43,-12],[-2,-18],[20,-82]],[[1118,3731],[-27,-5],[-66,0],[-64,17],[-46,7],[-55,24],[-66,33],[-25,21],[-46,20],[-202,178]],[[1388,5478],[15,47],[23,45],[55,52],[78,-20],[84,-9],[34,-10],[24,-25],[19,3],[15,38],[23,34],[-6,70]],[[2102,5715],[1,1]],[[2103,5716],[35,-34]],[[2138,5682],[39,-16],[7,-16],[-26,-39],[-18,-14],[-5,-58],[4,-52],[-54,-57],[-20,-31],[-4,-25],[-20,-25],[-37,-29],[6,-48],[28,-14],[21,8],[9,19],[18,-6],[-2,-21],[-16,-17],[-26,-53],[-15,-9],[-23,8],[-25,-4],[-12,-25],[-34,-35]],[[1491,5261],[-103,217]],[[2298,5418],[0,123],[-59,-5],[-28,19],[-7,26],[8,54],[24,22],[-46,29],[-38,8],[-14,-12]],[[2103,5716],[68,46],[27,11],[39,0],[105,-29],[38,-6]],[[4598,3306],[-25,-39],[-99,-170]],[[4474,3097],[-38,-64]],[[4436,3033],[-42,-8],[-75,18],[-33,-28],[-32,6],[-48,-4],[-14,8],[-112,-43]],[[4080,2982],[60,83],[77,86],[95,156]],[[1281,5703],[193,0],[8,6],[109,156]],[[1388,5478],[-107,225]],[[3052,3563],[-91,46],[-79,32],[-102,45]],[[3908,2870],[83,-49],[101,-51]],[[4092,2770],[11,-25],[0,-148],[7,-18]],[[4110,2579],[-291,0],[-86,-54]],[[3575,2684],[23,20],[146,100],[164,66]],[[3765,2518],[118,-26],[31,-11],[88,-51],[35,-18]],[[3985,2185],[-6,-7]],[[4797,3004],[25,-59]],[[4822,2945],[22,-35],[30,-34],[45,-23],[40,-30],[135,-87]],[[5094,2736],[-326,-310]],[[4768,2426],[-124,64]],[[4644,2490],[-46,23]],[[4598,2513],[11,16],[53,20],[31,31],[6,45],[22,58],[-3,60],[15,46],[-24,70],[-6,45],[12,35],[15,20],[40,31],[27,14]],[[2297,5274],[0,-215]],[[4856,4221],[19,14],[28,39]],[[4903,4274],[134,-126],[76,-83],[70,-66]],[[5183,3999],[-36,-25],[-87,-81],[-183,-176]],[[4877,3717],[-22,-22]],[[4461,3856],[32,57],[64,105],[18,44],[7,71],[19,14],[24,3],[131,3],[36,9],[64,59]],[[1392,3668],[-36,20],[-78,-1],[-99,32],[-61,12]],[[3929,3305],[28,11],[51,0],[15,15],[-5,48],[-7,20],[-24,24]],[[3987,3423],[6,29],[37,32],[54,18],[18,12],[42,59]],[[4144,3573],[206,-21]],[[4080,2982],[-24,-42],[-18,-19],[-63,-27],[-67,-24]],[[3908,2870],[-56,34],[-17,21],[-25,11]],[[3810,2936],[22,14],[0,101],[97,48],[0,30]],[[4474,3097],[121,0],[139,-25],[38,-2],[25,-66]],[[4598,2513],[-325,162]],[[4273,2675],[0,172],[-4,6],[82,50],[19,18],[66,112]],[[3763,3655],[194,-42]],[[3957,3613],[-7,-4],[-21,-90],[0,-96]],[[3929,3423],[-161,1],[-15,6]],[[3753,3430],[0,180],[1,39]],[[2967,4534],[88,13]],[[3055,4547],[-1,-330]],[[4092,2770],[42,-26],[139,-69]],[[4644,2490],[-101,-44],[-21,-13],[-24,-36],[-22,-19],[-44,-12],[-90,-10],[-122,-54],[-41,-37]],[[4163,2324],[-14,37],[-40,79],[-3,21],[18,63],[-14,55]],[[4768,2426],[-246,-234],[-172,-162]],[[3441,3370],[0,123]],[[3571,3558],[0,-126]],[[3571,3432],[0,-107],[-36,-1],[0,-19]],[[3535,3305],[-94,0]],[[3441,3305],[0,65]],[[3345,3416],[96,-46]],[[3441,3305],[-236,0]],[[3491,3783],[206,-107],[44,-20]],[[3054,4217],[51,20],[100,42]],[[3205,4279],[0,-206],[-24,0],[-26,-114]],[[3571,3432],[166,0],[16,-2]],[[3929,3423],[58,0]],[[3753,3305],[-129,0],[0,-19],[-89,0],[0,19]],[[3205,4279],[81,35]],[[3411,4369],[-157,-384]],[[3254,3985],[-21,-67]],[[5015,3308],[-43,-41],[-22,-33],[-9,-38]],[[4941,3196],[-3,-37],[-14,-46],[-30,-46],[-35,-33],[-62,-30]],[[4822,2945],[24,13],[34,31],[26,4],[49,-11],[107,1],[86,42]],[[5148,3025],[30,-2],[15,-19],[27,-10],[31,4]],[[5251,2998],[134,19],[11,6]],[[5396,3023],[-302,-287]],[[4877,3717],[7,-3]],[[4884,3714],[94,-47]],[[4978,3667],[0,-73],[72,-2],[0,-28],[38,-23],[10,-29],[-1,-206]],[[5097,3306],[-75,2]],[[4978,3667],[56,-28],[44,-14],[50,-11],[0,25],[50,0],[38,9],[45,0],[31,-8],[74,0]],[[5366,3640],[-32,-106]],[[5334,3534],[-44,-150],[-2,-78]],[[5288,3306],[-58,0]],[[5230,3306],[-55,-1]],[[5175,3305],[-78,1]],[[3254,3985],[46,16],[257,109],[7,6],[267,111],[73,4]],[[3904,4231],[-7,-10],[-287,-311]],[[3610,3910],[-119,-127]],[[3904,4231],[9,-24],[70,-82],[-29,-51],[-28,-103],[-41,-78]],[[3885,3893],[-57,-109]],[[3828,3784],[-44,21],[6,11],[-180,94]],[[3885,3893],[101,-43],[1,-12],[136,0],[-62,-35]],[[4061,3803],[-265,-132],[-26,2]],[[3770,3673],[58,111]],[[4061,3803],[25,-38],[37,0],[0,-160],[-5,-26]],[[4118,3579],[-161,34]],[[3759,3655],[11,18]],[[3195,1325],[51,-1]],[[3246,1324],[-1,-76],[-9,-37],[2,-25],[24,-60],[-1,-26],[-13,-27],[-7,-52]],[[3241,1021],[-71,42],[-34,30]],[[3877,4582],[367,215],[66,37]],[[4310,4834],[157,-150]],[[4467,4684],[-103,-84],[-102,-101],[236,-195],[45,-38],[-41,-24],[354,-21]],[[4144,3573],[-26,6]],[[3904,4231],[-8,58],[-15,34],[0,250],[-4,9]],[[4467,4684],[380,-356],[56,-54]],[[3411,4369],[161,58],[126,51]],[[3698,4478],[66,36],[113,68]],[[3246,1324],[40,0]],[[3443,1265],[104,-2]],[[3547,1263],[-279,-265]],[[3268,998],[-27,23]],[[1137,5191],[55,-121]],[[5366,3640],[42,143]],[[5408,3783],[281,-269]],[[5689,3514],[-7,-6],[-291,0],[-25,2],[-32,24]],[[5183,3999],[225,-216]],[[5408,3783],[-97,-17],[-69,1],[-74,-18],[-115,-7],[-59,-1],[-68,6],[-42,-33]],[[5689,3514],[111,-106],[-108,-103]],[[5692,3305],[-404,1]],[[3444,4785],[19,-118],[-1,-94]],[[3462,4573],[-8,-63]],[[3234,4510],[-37,3],[-46,18],[-23,27]],[[3128,4558],[15,10],[47,68],[19,20],[66,44]],[[3055,4547],[73,11]],[[3444,4785],[51,23],[114,7]],[[3609,4815],[251,15]],[[3860,4830],[15,-233],[2,-15]],[[3698,4478],[-9,108],[-227,-13]],[[938,5695],[229,220]],[[1167,5915],[22,-20],[92,-192]],[[1388,5478],[-12,-36],[0,-39],[-107,2],[-126,-180],[-16,-10]],[[1167,5915],[159,151]],[[3268,998],[-149,-146],[-893,-852],[1,68],[-6,230],[16,101],[15,83],[22,154],[-2,133],[-2,15],[-27,39],[-19,92],[-1,27]],[[5692,3305],[-145,-138]],[[5547,3167],[-52,16],[-71,9],[-35,11],[-67,50],[-24,14]],[[5298,3267],[-61,24],[-7,15]],[[5298,3267],[-47,-269]],[[5148,3025],[-52,80],[-27,72]],[[5069,3177],[82,-10],[24,138]],[[5547,3167],[-151,-144]],[[5069,3177],[-7,19],[-121,0]],[[3047,5675],[5,-19],[0,-162]],[[3052,5494],[1,-81]],[[3053,5413],[-294,-11]],[[2759,5402],[8,-193]],[[2767,5209],[-199,-7]],[[3001,5151],[-17,-10]],[[2984,5141],[-30,2],[-25,17],[-59,28],[-11,24],[-92,-3]],[[2984,5141],[-17,-17],[-20,-44],[-36,-41],[-30,-52],[-53,-57],[-51,-22]],[[2777,4908],[1,9],[-6,165],[-20,15],[18,22],[-3,90]],[[3246,3231],[-1,-14],[162,-80]],[[3407,3137],[0,-35],[-62,-17],[0,-18],[-57,0],[-42,-14],[-1,-62]],[[3441,3305],[0,-175]],[[3441,3130],[-34,7]],[[3753,3214],[-31,-7],[-243,-79],[-5,2]],[[3474,3130],[-33,0]],[[3810,2936],[-58,28]],[[3752,2964],[1,250]],[[4308,1989],[-54,-53]],[[4222,1906],[-178,-169]],[[3914,5210],[107,-101],[289,-275]],[[3860,4830],[-17,274],[53,86],[18,20]],[[3598,5413],[24,28],[62,-21],[11,1]],[[3695,5421],[219,-211]],[[3609,4815],[1,21],[14,100],[0,197],[-16,74]],[[3608,5207],[-18,82],[1,109],[7,15]],[[3301,5207],[307,0]],[[3067,6019],[55,-52],[256,-244]],[[3378,5723],[-62,-32],[-24,-29],[-24,-40],[-29,-62]],[[3239,5560],[-23,-24],[-164,-42]],[[2568,5202],[30,-143]],[[3474,3130],[0,-27],[61,-30]],[[3535,3073],[0,-173]],[[3535,3073],[217,-109]],[[3378,5723],[154,-147]],[[3532,5576],[-149,1],[-30,-7],[-19,-15],[-40,-44],[-55,49]],[[3532,5576],[163,-155]],[[3598,5413],[-134,-2],[-52,-12],[-70,-3],[-36,-9],[-22,-18],[-38,-1],[42,-124]],[[3552,1371],[40,37],[-66,53],[-38,59],[-7,23]],[[3715,1423],[-168,-160]],[[2399,4722],[-102,48]]],"transform":{"scale":[0.00003626862068965507,0.00002969749854566611],"translate":[-77.11975100000001,38.791645]},"objects":{"Tract_11_2020":{"type":"GeometryCollection","geometries":[{"arcs":[[0,1,2,3,4]],"type":"Polygon","properties":{"id":"14000US11001004001"}},{"arcs":[[5,6,7,8,-4]],"type":"Polygon","properties":{"id":"14000US11001004002"}},{"arcs":[[9,10,11,12,13]],"type":"Polygon","properties":{"id":"14000US11001003600"}},{"arcs":[[14,15,16,17]],"type":"Polygon","properties":{"id":"14000US11001004201"}},{"arcs":[[-18,18,19,20,-8]],"type":"Polygon","properties":{"id":"14000US11001004202"}},{"arcs":[[21,22,23,24,25,26]],"type":"Polygon","properties":{"id":"14000US11001007407"}},{"arcs":[[27,28,29,30]],"type":"Polygon","properties":{"id":"14000US11001006801"}},{"arcs":[[31,32,33,34,35,36]],"type":"Polygon","properties":{"id":"14000US11001010700"}},{"arcs":[[37,38,39,40]],"type":"Polygon","properties":{"id":"14000US11001009604"}},{"arcs":[[41,42,43]],"type":"Polygon","properties":{"id":"14000US11001000201"}},{"arcs":[[44,45,46,-42,47,48]],"type":"Polygon","properties":{"id":"14000US11001000300"}},{"arcs":[[49,50,51,52,53,-46,54,55]],"type":"Polygon","properties":{"id":"14000US11001000400"}},{"arcs":[[56,57,58,-51]],"type":"Polygon","properties":{"id":"14000US11001000502"}},{"arcs":[[59,60,61,62,63,64]],"type":"Polygon","properties":{"id":"14000US11001004600"}},{"arcs":[[65,66,-65,67,68]],"type":"Polygon","properties":{"id":"14000US11001004801"}},{"arcs":[[-68,-64,69,70]],"type":"Polygon","properties":{"id":"14000US11001004802"}},{"arcs":[[71,-71,72,73,74]],"type":"Polygon","properties":{"id":"14000US11001004902"}},{"arcs":[[75,76,-27,77,78,79,80,81]],"type":"Polygon","properties":{"id":"14000US11001007401"}},{"arcs":[[82,83,84,85,86]],"type":"Polygon","properties":{"id":"14000US11001007403"}},{"arcs":[[87,88,89,90,91,92]],"type":"Polygon","properties":{"id":"14000US11001005503"}},{"arcs":[[93,94,95,96]],"type":"Polygon","properties":{"id":"14000US11001005801"}},{"arcs":[[97,98,99,100]],"type":"Polygon","properties":{"id":"14000US11001009804"}},{"arcs":[[101,102,103,104,105]],"type":"Polygon","properties":{"id":"14000US11001001702"}},{"arcs":[[106,-106,107,108,109,110]],"type":"Polygon","properties":{"id":"14000US11001010300"}},{"arcs":[[-109,111,112,113,114]],"type":"Polygon","properties":{"id":"14000US11001001804"}},{"arcs":[[-112,-108,-105,115,116,117]],"type":"Polygon","properties":{"id":"14000US11001001901"}},{"arcs":[[-104,118,119,-116]],"type":"Polygon","properties":{"id":"14000US11001001902"}},{"arcs":[[120,121,122,123,124]],"type":"Polygon","properties":{"id":"14000US11001005001"}},{"arcs":[[125,126,127,128,129]],"type":"Polygon","properties":{"id":"14000US11001009807"}},{"arcs":[[130,131,132]],"type":"Polygon","properties":{"id":"14000US11001009802"}},{"arcs":[[133,-101,134,135,-127]],"type":"Polygon","properties":{"id":"14000US11001009803"}},{"arcs":[[136,-113,-118,137,138,139,140]],"type":"Polygon","properties":{"id":"14000US11001002002"}},{"arcs":[[-117,141,142,-138]],"type":"Polygon","properties":{"id":"14000US11001002101"}},{"arcs":[[143,144,145,146,147,148]],"type":"Polygon","properties":{"id":"14000US11001002900"}},{"arcs":[[-146,149,150,151,152]],"type":"Polygon","properties":{"id":"14000US11001003100"}},{"arcs":[[153,154,155,-151]],"type":"Polygon","properties":{"id":"14000US11001003200"}},{"arcs":[[-156,156,157,158,-60,-67,159]],"type":"Polygon","properties":{"id":"14000US11001003400"}},{"arcs":[[-152,-160,160,161,-11]],"type":"Polygon","properties":{"id":"14000US11001003500"}},{"arcs":[[-19,-17,162,163]],"type":"Polygon","properties":{"id":"14000US11001005302"}},{"arcs":[[164,-161,-66,165,-121,166]],"type":"Polygon","properties":{"id":"14000US11001004402"}},{"arcs":[[167,168,169,170,171,172]],"type":"Polygon","properties":{"id":"14000US11001010602"}},{"arcs":[[173,174,175,176,177,-49,178,179]],"type":"Polygon","properties":{"id":"14000US11001000804"}},{"arcs":[[180,181,-2,182]],"type":"Polygon","properties":{"id":"14000US11001003902"}},{"arcs":[[183,184,185,186,-175,187,188]],"type":"Polygon","properties":{"id":"14000US11001000903"}},{"arcs":[[189,190,191,192,-185,193]],"type":"Polygon","properties":{"id":"14000US11001001004"}},{"arcs":[[194,-53,195,196,197,-88,198,199,200,201]],"type":"Polygon","properties":{"id":"14000US11001000102"}},{"arcs":[[202,203,-13,204,205]],"type":"Polygon","properties":{"id":"14000US11001003701"}},{"arcs":[[206,207,208,-144,209,210]],"type":"Polygon","properties":{"id":"14000US11001002504"}},{"arcs":[[211,-89,-198]],"type":"Polygon","properties":{"id":"14000US11001000101"}},{"arcs":[[-177,212,213,214,215]],"type":"Polygon","properties":{"id":"14000US11001000703"}},{"arcs":[[216,217,218,-3,-182]],"type":"Polygon","properties":{"id":"14000US11001003901"}},{"arcs":[[-12,-162,-165,219]],"type":"Polygon","properties":{"id":"14000US11001004401"}},{"arcs":[[220,-194,-184,221]],"type":"Polygon","properties":{"id":"14000US11001001003"}},{"arcs":[[-219,222,223,-203,224,-6]],"type":"Polygon","properties":{"id":"14000US11001003802"}},{"arcs":[[225,226,227,228]],"type":"Polygon","properties":{"id":"14000US11001002703"}},{"arcs":[[229,-14,-204,-224]],"type":"Polygon","properties":{"id":"14000US11001003702"}},{"arcs":[[-187,230,-213,-176]],"type":"Polygon","properties":{"id":"14000US11001000803"}},{"arcs":[[-225,-206,-15,-7]],"type":"Polygon","properties":{"id":"14000US11001003801"}},{"arcs":[[231,-222,-189,232]],"type":"Polygon","properties":{"id":"14000US11001000904"}},{"arcs":[[233,-56,234,-215,235]],"type":"Polygon","properties":{"id":"14000US11001000704"}},{"arcs":[[236,237,238,-58,239,240]],"type":"Polygon","properties":{"id":"14000US11001001304"}},{"arcs":[[241,242,-241,243]],"type":"Polygon","properties":{"id":"14000US11001001303"}},{"arcs":[[244,-211,245,-229,246,-238]],"type":"Polygon","properties":{"id":"14000US11001002704"}},{"arcs":[[247,248,-150,-145,-209]],"type":"Polygon","properties":{"id":"14000US11001002503"}},{"arcs":[[-93,249,250,251,-199]],"type":"Polygon","properties":{"id":"14000US11001005601"}},{"arcs":[[252,-37,253,-250,-92]],"type":"Polygon","properties":{"id":"14000US11001005501"}},{"arcs":[[-252,254,255,-200]],"type":"Polygon","properties":{"id":"14000US11001005602"}},{"arcs":[[256,-21,257,-32,-253,-91]],"type":"Polygon","properties":{"id":"14000US11001005502"}},{"arcs":[[-20,-164,258,259,-33,-258]],"type":"Polygon","properties":{"id":"14000US11001005303"}},{"arcs":[[260,261,262,263]],"type":"Polygon","properties":{"id":"14000US11001010202"}},{"arcs":[[-201,-256,264,-35,265,266,-96,267,268,269,270,271,272,273,274,-264,275,276,277]],"type":"Polygon","properties":{"id":"14000US11001980000"}},{"arcs":[[278,279,280,281]],"type":"Polygon","properties":{"id":"14000US11001007202"}},{"arcs":[[-163,282,-125,283,284,-259]],"type":"Polygon","properties":{"id":"14000US11001005202"}},{"arcs":[[285,286,-284]],"type":"Polygon","properties":{"id":"14000US11001005203"}},{"arcs":[[-124,287,288,-286]],"type":"Polygon","properties":{"id":"14000US11001005003"}},{"arcs":[[-123,289,-75,290,-288]],"type":"Polygon","properties":{"id":"14000US11001005004"}},{"arcs":[[-281,291,292,-82,293]],"type":"Polygon","properties":{"id":"14000US11001007201"}},{"arcs":[[294,-73,295,296,-97,-267]],"type":"Polygon","properties":{"id":"14000US11001005802"}},{"arcs":[[-70,297,298,-296]],"type":"Polygon","properties":{"id":"14000US11001004703"}},{"arcs":[[-63,299,300,301,-298]],"type":"Polygon","properties":{"id":"14000US11001004704"}},{"arcs":[[-301,302,-173,303,-270,304]],"type":"Polygon","properties":{"id":"14000US11001010603"}},{"arcs":[[-62,305,306,-168,-303,-300]],"type":"Polygon","properties":{"id":"14000US11001010601"}},{"arcs":[[307,308,309,310,-276,-263]],"type":"Polygon","properties":{"id":"14000US11001011002"}},{"arcs":[[311,312,-308,-262]],"type":"Polygon","properties":{"id":"14000US11001010201"}},{"arcs":[[-313,313,314,-309]],"type":"Polygon","properties":{"id":"14000US11001011001"}},{"arcs":[[315,316,317,-292,-280]],"type":"Polygon","properties":{"id":"14000US11001007203"}},{"arcs":[[318,319,320,321,322,323]],"type":"Polygon","properties":{"id":"14000US11001009510"}},{"arcs":[[-322,324,325,326]],"type":"Polygon","properties":{"id":"14000US11001009511"}},{"arcs":[[327,-240,-57,-50,-234,328]],"type":"Polygon","properties":{"id":"14000US11001000600"}},{"arcs":[[-216,-235,-55,-45,-178]],"type":"Polygon","properties":{"id":"14000US11001000702"}},{"arcs":[[329,-25,330,-87,331,332,-79]],"type":"Polygon","properties":{"id":"14000US11001007404"}},{"arcs":[[-277,-311,333,-81,334,-130,335,336]],"type":"Polygon","properties":{"id":"14000US11001007301"}},{"arcs":[[-247,-228,337,-217,-181,338]],"type":"Polygon","properties":{"id":"14000US11001002702"}},{"arcs":[[-172,339,340,-271,-304]],"type":"Polygon","properties":{"id":"14000US11001008301"}},{"arcs":[[341,-111,342,343]],"type":"Polygon","properties":{"id":"14000US11001001600"}},{"arcs":[[-275,344,-282,345,-314,-312,-261]],"type":"Polygon","properties":{"id":"14000US11001010500"}},{"arcs":[[346,347,348,349]],"type":"Polygon","properties":{"id":"14000US11001009204"}},{"arcs":[[350,-332,-86,351,352,353,-99]],"type":"Polygon","properties":{"id":"14000US11001007304"}},{"arcs":[[-147,-153,-10,354]],"type":"Polygon","properties":{"id":"14000US11001003000"}},{"arcs":[[355,356,357,358,359,360]],"type":"Polygon","properties":{"id":"14000US11001007502"}},{"arcs":[[361,362,363,-22,-77]],"type":"Polygon","properties":{"id":"14000US11001007503"}},{"arcs":[[-233,-188,-174,364]],"type":"Polygon","properties":{"id":"14000US11001000902"}},{"arcs":[[365,-344,366,367,368,369]],"type":"Polygon","properties":{"id":"14000US11001001500"}},{"arcs":[[370,371,372,373,-39]],"type":"Polygon","properties":{"id":"14000US11001009603"}},{"arcs":[[-59,-239,-339,-183,-1,374,-196,-52]],"type":"Polygon","properties":{"id":"14000US11001000501"}},{"arcs":[[375,376,-61,-159]],"type":"Polygon","properties":{"id":"14000US11001003302"}},{"arcs":[[377,378,379,380,381,382,383]],"type":"Polygon","properties":{"id":"14000US11001008402"}},{"arcs":[[384,385,-38,386]],"type":"Polygon","properties":{"id":"14000US11001009602"}},{"arcs":[[-179,-48,-44,387,388]],"type":"Polygon","properties":{"id":"14000US11001000802"}},{"arcs":[[389,-368,390,391,392,-242,393]],"type":"Polygon","properties":{"id":"14000US11001001301"}},{"arcs":[[-114,-137,394,-392,395]],"type":"Polygon","properties":{"id":"14000US11001002001"}},{"arcs":[[-40,-374,396,397,398,399]],"type":"Polygon","properties":{"id":"14000US11001007708"}},{"arcs":[[400,-369,-390,401]],"type":"Polygon","properties":{"id":"14000US11001001402"}},{"arcs":[[-299,-302,-305,-269,402,-94,-297]],"type":"Polygon","properties":{"id":"14000US11001004702"}},{"arcs":[[403,404,405,-362,-76,406]],"type":"Polygon","properties":{"id":"14000US11001007601"}},{"arcs":[[407,-361,408,-23,-364]],"type":"Polygon","properties":{"id":"14000US11001007504"}},{"arcs":[[409,410,411,412,413,414]],"type":"Polygon","properties":{"id":"14000US11001009902"}},{"arcs":[[-243,-393,-395,-141,415,-207,-245,-237]],"type":"Polygon","properties":{"id":"14000US11001002600"}},{"arcs":[[416,417,418,419,-385,420]],"type":"Polygon","properties":{"id":"14000US11001009601"}},{"arcs":[[-43,-47,-54,-195,421,-388]],"type":"Polygon","properties":{"id":"14000US11001000202"}},{"arcs":[[-205,-220,-167,-283,-16]],"type":"Polygon","properties":{"id":"14000US11001004300"}},{"arcs":[[-29,422,423,424,-41,-400,425,426,427]],"type":"Polygon","properties":{"id":"14000US11001006804"}},{"arcs":[[-375,-5,-9,-257,-90,-212,-197]],"type":"Polygon","properties":{"id":"14000US11001004100"}},{"arcs":[[-260,-285,-287,-289,-291,-74,-295,-266,-34]],"type":"Polygon","properties":{"id":"14000US11001010100"}},{"arcs":[[-166,-69,-72,-290,-122]],"type":"Polygon","properties":{"id":"14000US11001004901"}},{"arcs":[[-403,-268,-95]],"type":"Polygon","properties":{"id":"14000US11001005900"}},{"arcs":[[-398,428,-415,429,430]],"type":"Polygon","properties":{"id":"14000US11001009901"}},{"arcs":[[-381,431,432,433,434]],"type":"Polygon","properties":{"id":"14000US11001007901"}},{"arcs":[[-343,-110,-115,-396,-391,-367]],"type":"Polygon","properties":{"id":"14000US11001001803"}},{"arcs":[[-26,-330,-78]],"type":"Polygon","properties":{"id":"14000US11001007406"}},{"arcs":[[435,436,-376,-158]],"type":"Polygon","properties":{"id":"14000US11001003301"}},{"arcs":[[437,-430,-414,438,-357,439,-405]],"type":"Polygon","properties":{"id":"14000US11001007604"}},{"arcs":[[-440,-356,-408,-363,-406]],"type":"Polygon","properties":{"id":"14000US11001007605"}},{"arcs":[[-439,-413,440,-358]],"type":"Polygon","properties":{"id":"14000US11001007603"}},{"arcs":[[441,-383,442,443,444,445]],"type":"Polygon","properties":{"id":"14000US11001008100"}},{"arcs":[[-341,446,-446,447,-272]],"type":"Polygon","properties":{"id":"14000US11001008200"}},{"arcs":[[-171,-384,-442,-447,-340]],"type":"Polygon","properties":{"id":"14000US11001008302"}},{"arcs":[[448,-378,-170]],"type":"Polygon","properties":{"id":"14000US11001008410"}},{"arcs":[[449,450,-306,-377]],"type":"Polygon","properties":{"id":"14000US11001008701"}},{"arcs":[[-444,451,-434,452,-423,-28,453]],"type":"Polygon","properties":{"id":"14000US11001008002"}},{"arcs":[[454,-349,455,456,-307,-451]],"type":"Polygon","properties":{"id":"14000US11001008702"}},{"arcs":[[-373,457,458,-429,-397]],"type":"Polygon","properties":{"id":"14000US11001007703"}},{"arcs":[[459,460,461,462,-411]],"type":"Polygon","properties":{"id":"14000US11001007707"}},{"arcs":[[-426,-399,-431,-438,-404]],"type":"Polygon","properties":{"id":"14000US11001007709"}},{"arcs":[[-420,463,464,465,466,-371,-386]],"type":"Polygon","properties":{"id":"14000US11001007803"}},{"arcs":[[467,468,469,470,471,472,-466]],"type":"Polygon","properties":{"id":"14000US11001007804"}},{"arcs":[[473,474,475,-169,-457]],"type":"Polygon","properties":{"id":"14000US11001008803"}},{"arcs":[[-475,476,477,478]],"type":"Polygon","properties":{"id":"14000US11001008804"}},{"arcs":[[-478,479,480,481]],"type":"Polygon","properties":{"id":"14000US11001008903"}},{"arcs":[[-481,482,483,-432,-380,484]],"type":"Polygon","properties":{"id":"14000US11001008904"}},{"arcs":[[-476,-479,-482,-485,-379,-449]],"type":"Polygon","properties":{"id":"14000US11001008802"}},{"arcs":[[-136,485,486,487,-128]],"type":"Polygon","properties":{"id":"14000US11001009810"}},{"arcs":[[-251,-254,-36,-265,-255]],"type":"Polygon","properties":{"id":"14000US11001010800"}},{"arcs":[[488,489,490,-421,-387,-425,491,-483,-480,-477,492]],"type":"Polygon","properties":{"id":"14000US11001011100"}},{"arcs":[[493,-417,-491]],"type":"Polygon","properties":{"id":"14000US11001009000"}},{"arcs":[[494,495,-493,-474,-456]],"type":"Polygon","properties":{"id":"14000US11001009102"}},{"arcs":[[496,-133,497,498,499,-487]],"type":"Polygon","properties":{"id":"14000US11001009811"}},{"arcs":[[-193,500,-329,-236,-214,-231,-186]],"type":"Polygon","properties":{"id":"14000US11001001002"}},{"arcs":[[501,502,503,-469]],"type":"Polygon","properties":{"id":"14000US11001007807"}},{"arcs":[[-419,504,505,-464]],"type":"Polygon","properties":{"id":"14000US11001007806"}},{"arcs":[[-504,506,507,-470]],"type":"Polygon","properties":{"id":"14000US11001007808"}},{"arcs":[[-326,508,509,-347,510,511]],"type":"Polygon","properties":{"id":"14000US11001009201"}},{"arcs":[[512,-511,-350,-455,-450,-437]],"type":"Polygon","properties":{"id":"14000US11001009203"}},{"arcs":[[513,514,515,-496,516,-509]],"type":"Polygon","properties":{"id":"14000US11001009301"}},{"arcs":[[-348,-510,-517,-495]],"type":"Polygon","properties":{"id":"14000US11001009302"}},{"arcs":[[517,518,-402,519,-191]],"type":"Polygon","properties":{"id":"14000US11001001100"}},{"arcs":[[-394,-244,-328,-501,-192,-520]],"type":"Polygon","properties":{"id":"14000US11001001200"}},{"arcs":[[520,-370,-401,-519]],"type":"Polygon","properties":{"id":"14000US11001001401"}},{"arcs":[[-336,-129,-488,-500,521]],"type":"Polygon","properties":{"id":"14000US11001010900"}},{"arcs":[[-335,-80,-333,-351,-98,-134,-126]],"type":"Polygon","properties":{"id":"14000US11001010400"}},{"arcs":[[-471,-508,522,523,524]],"type":"Polygon","properties":{"id":"14000US11001009903"}},{"arcs":[[-472,-525,525,-461,526,527]],"type":"Polygon","properties":{"id":"14000US11001009904"}},{"arcs":[[-524,528,-462,-526]],"type":"Polygon","properties":{"id":"14000US11001009905"}},{"arcs":[[-372,-467,-473,-528,529,-458]],"type":"Polygon","properties":{"id":"14000US11001009906"}},{"arcs":[[-120,530,531,532,-142]],"type":"Polygon","properties":{"id":"14000US11001002102"}},{"arcs":[[-143,533,534,-139]],"type":"Polygon","properties":{"id":"14000US11001002201"}},{"arcs":[[-533,-324,535,536,-534]],"type":"Polygon","properties":{"id":"14000US11001002202"}},{"arcs":[[-537,537,538]],"type":"Polygon","properties":{"id":"14000US11001002301"}},{"arcs":[[-315,-346,-294,-334,-310]],"type":"Polygon","properties":{"id":"14000US11001006400"}},{"arcs":[[-274,539,540,-316,-279,-345]],"type":"Polygon","properties":{"id":"14000US11001006500"}},{"arcs":[[-448,541,542,-540,-273]],"type":"Polygon","properties":{"id":"14000US11001006600"}},{"arcs":[[-445,-454,-31,543,544,-542]],"type":"Polygon","properties":{"id":"14000US11001006700"}},{"arcs":[[-30,-428,545,546]],"type":"Polygon","properties":{"id":"14000US11001006802"}},{"arcs":[[-24,-409,-360,547,-83,-331]],"type":"Polygon","properties":{"id":"14000US11001007408"}},{"arcs":[[548,-352,-85]],"type":"Polygon","properties":{"id":"14000US11001007409"}},{"arcs":[[-502,-468,-465,-506]],"type":"Polygon","properties":{"id":"14000US11001007809"}},{"arcs":[[549,-489,-516,550]],"type":"Polygon","properties":{"id":"14000US11001009400"}},{"arcs":[[551,552,-551,-515,553,554]],"type":"Polygon","properties":{"id":"14000US11001009503"}},{"arcs":[[-554,-514,-325,-321,555]],"type":"Polygon","properties":{"id":"14000US11001009504"}},{"arcs":[[-103,556,557,558,-531,-119]],"type":"Polygon","properties":{"id":"14000US11001009505"}},{"arcs":[[-459,-530,-527,-460,-410]],"type":"Polygon","properties":{"id":"14000US11001009907"}},{"arcs":[[-140,559,-248,-208,-416]],"type":"Polygon","properties":{"id":"14000US11001002501"}},{"arcs":[[-538,-536,-323,-327,-512,-513,-436,-157,-155]],"type":"Polygon","properties":{"id":"14000US11001002302"}},{"arcs":[[-535,-539,-154,-249,-560]],"type":"Polygon","properties":{"id":"14000US11001002400"}},{"arcs":[[-543,-545,560,561,-317,-541]],"type":"Polygon","properties":{"id":"14000US11001007000"}},{"arcs":[[-562,562,-546,-427,-407,-293,-318]],"type":"Polygon","properties":{"id":"14000US11001007100"}},{"arcs":[[-544,-547,-563,-561]],"type":"Polygon","properties":{"id":"14000US11001006900"}},{"arcs":[[563,564,-558]],"type":"Polygon","properties":{"id":"14000US11001009507"}},{"arcs":[[-559,-565,565,-552,566,-319,-532]],"type":"Polygon","properties":{"id":"14000US11001009508"}},{"arcs":[[-555,-556,-320,-567]],"type":"Polygon","properties":{"id":"14000US11001009509"}},{"arcs":[[567,-354,568,-498,-132]],"type":"Polygon","properties":{"id":"14000US11001009700"}},{"arcs":[[-135,-100,-568,-131,-497,-486]],"type":"Polygon","properties":{"id":"14000US11001009801"}},{"arcs":[[-246,-210,-149,569,-226]],"type":"Polygon","properties":{"id":"14000US11001002801"}},{"arcs":[[-338,-227,-570,-148,-355,-230,-223,-218]],"type":"Polygon","properties":{"id":"14000US11001002802"}},{"arcs":[[-382,-435,-452,-443]],"type":"Polygon","properties":{"id":"14000US11001008001"}},{"arcs":[[-484,-492,-424,-453,-433]],"type":"Polygon","properties":{"id":"14000US11001007903"}}]}}}