{"type":"Topology","arcs":[[[2234,11959],[27,-8],[46,-33],[35,2],[-1,82],[8,53],[12,-6],[28,22],[0,-77],[58,-32],[16,7],[31,-14],[5,-23]],[[2499,11932],[5,-39],[26,-84]],[[2530,11809],[3,-22],[-49,5],[-39,13],[-23,-1],[8,-121]],[[2430,11683],[-36,-9],[-29,7],[-21,54],[3,24],[-17,33],[-15,51],[-16,4],[-28,51],[-35,12],[-2,49]],[[3239,11454],[24,-6],[34,16],[81,18],[-1,137]],[[3377,11619],[65,12],[-4,-81],[106,-13],[-4,-70],[44,27],[13,28],[23,7],[15,35]],[[3635,11564],[136,-64],[85,-158],[37,-56],[23,-118],[75,-164],[31,-27],[-49,-15],[-18,23],[-52,32],[-74,8],[-94,83],[-112,147],[-193,-76]],[[3430,11179],[-1,172],[-19,0],[-24,-23],[-38,42],[-29,5],[-24,-31],[-56,-9],[-23,12],[4,77],[19,30]],[[2736,11889],[37,-17],[37,-36],[59,-10],[4,-30],[58,-11]],[[2931,11785],[-6,-37],[1,-84],[-14,-102],[3,-47]],[[2915,11515],[-28,-1],[-42,25],[-12,18],[-63,-17],[-30,36],[-18,-17],[-26,16],[-20,-15]],[[2676,11560],[83,71],[-21,35],[-18,12],[16,40],[1,26],[-20,31],[19,114]],[[2931,11785],[45,-8],[3,11]],[[2979,11788],[19,6],[51,-41],[65,-6],[29,-25],[63,44]],[[3206,11766],[10,20],[24,-1],[12,-69],[36,-14],[31,-25],[3,-38],[26,-19],[29,-1]],[[3239,11454],[-34,31],[-17,46],[-51,-41],[-25,-13],[-20,11],[-45,-4],[-4,-47],[-59,19],[9,27],[-35,30],[-43,2]],[[3000,10692],[62,43],[93,-53],[-12,-43],[-114,4],[-29,49]],[[2648,11537],[28,23]],[[3430,11179],[-25,-3],[-64,-40],[-73,-4],[-32,-21],[2,36],[-17,21],[-51,40],[-24,6],[-23,26],[-73,14],[-43,-30],[-92,19],[-65,87],[-18,5],[-39,36],[-72,15],[-54,21]],[[2667,11407],[-19,130]],[[2619,11815],[24,-17],[8,110],[45,-16],[40,-3]],[[2648,11537],[-19,176],[-8,15],[-2,87]],[[4803,1561],[166,74],[-33,133],[-32,-13],[-33,134],[64,29],[0,10],[51,20],[7,18],[28,7]],[[5021,1973],[17,-12],[32,16],[17,-69],[13,-8],[43,13],[29,-14]],[[5172,1899],[9,-50],[43,-26],[89,38],[17,-66],[55,4],[12,-54],[31,15],[12,-52],[132,61],[-13,57],[-24,77]],[[5535,1903],[137,58],[18,-60],[7,-47],[21,-93],[69,30],[34,7],[29,21],[-45,200],[98,42],[32,-135],[30,13],[89,-331]],[[6054,1608],[-299,-130],[-50,-15],[-47,9],[-72,-31],[-87,-77],[-85,-26],[-89,-31],[-129,-27],[-53,-26],[-12,-29]],[[5131,1225],[-46,40],[-17,4],[-52,41],[-58,15],[-33,-6],[-53,-51],[-69,293]],[[3649,12598],[27,0],[127,25],[164,126],[192,76],[180,-62],[82,-287],[248,-156],[58,12],[34,-6],[62,17],[72,-31],[92,28],[33,-52],[83,-6],[14,-8],[125,-2],[74,-43],[3,-8],[124,20],[42,15],[49,-4],[25,-9],[70,-74],[80,-31],[48,2],[67,-16],[158,-4],[56,-8],[15,-144],[-53,-181],[55,-368],[15,-30],[-159,-309],[-148,-254],[30,-294],[-35,-100],[-82,-84],[-82,-62],[-115,-40],[-76,-19],[-158,0],[-81,14],[-63,18],[-47,21],[-62,35],[-84,73],[-49,15],[-94,58],[-106,-36],[-124,-8]],[[4535,10417],[-371,923],[-515,535],[0,723]],[[3694,11996],[11,-6],[37,20],[24,-10],[29,26],[-17,21],[-37,-12],[-47,-39]],[[3864,12051],[31,-22],[26,4],[48,-17],[17,18],[-6,21],[-63,-1],[-25,11],[-28,-14]],[[4005,12073],[48,-50],[19,31],[23,11],[46,-14],[46,57],[-11,17],[-34,11],[-16,-26],[-30,-5],[-24,-18],[-57,-1],[-10,-13]],[[4066,12161],[49,-3],[10,28],[-59,-25]],[[4676,11336],[220,-2],[35,-7],[28,-33],[119,-97],[22,-9],[87,-18],[115,-51],[-7,-76],[26,10],[461,561],[20,101],[-10,32],[8,32],[-20,23],[-33,10],[-45,49],[-23,-3],[-12,23],[-25,7],[-155,138],[-43,41],[-33,14],[-68,-5],[-25,-8],[-74,64],[-25,10],[-32,26],[-89,7],[-181,54],[-34,12],[-68,15],[-50,3],[-30,-9],[-15,-29],[-160,-236],[-50,-76],[-37,30],[-131,8],[-22,-16],[-21,-32],[18,-50],[-25,-33],[-15,-70],[-48,-49],[-39,-24],[-13,-64]],[[4177,11609],[-11,-112],[44,-29],[16,-74],[32,-57],[8,-34],[21,1],[55,-19],[20,-37],[35,-4],[164,-6],[10,13],[105,85]],[[4228,11933],[24,-18],[3,33],[-27,-15]],[[4628,12203],[55,-5],[8,24],[-30,7],[-33,-26]],[[5904,11492],[20,-30],[18,64],[-30,-3],[-8,-31]],[[4177,11609],[48,1],[20,-7],[56,9],[13,53],[38,-13],[91,11],[33,11],[0,-40],[35,-17],[13,-49],[17,5],[93,-77],[42,-2],[0,-158]],[[3123,11880],[37,3],[36,-26],[27,-61],[-14,-8],[-3,-22]],[[2979,11788],[-12,32],[43,22],[-1,37],[46,15],[68,-14]],[[4807,2158],[66,28],[-32,138],[71,32]],[[4912,2356],[3,-15],[43,-49],[29,-19],[66,-54],[8,-26],[43,-57],[34,-14],[27,-20],[39,-52]],[[5204,2050],[-49,-55],[23,-23],[12,-36],[-18,-37]],[[5021,1973],[-43,38],[-6,71],[-133,-57],[-32,133]],[[4485,2021],[-47,-169]],[[4438,1852],[65,-266]],[[4503,1586],[-67,-30],[12,-49],[-47,-20],[-25,-21],[-19,-40],[-20,84],[-102,-40],[-32,134],[-66,-29]],[[4137,1575],[-33,135]],[[4104,1710],[-97,399]],[[4007,2109],[0,2],[258,110],[29,-136],[-55,-24],[32,-133],[214,93]],[[3500,1449],[34,-131],[31,-134],[67,29],[42,-182],[21,-28],[11,-35],[-4,-47]],[[3702,921],[-174,114],[-31,-16],[-75,-6],[-19,15],[-54,-2],[-23,-15],[-22,9],[-26,-19],[-36,-9]],[[3242,992],[-43,180],[267,117],[-31,132],[65,28]],[[2320,908],[4,76],[23,134],[31,122],[46,116],[52,103],[53,80],[-56,190],[-20,125],[-16,183],[16,141],[22,98],[27,102],[83,259],[31,70],[56,98],[123,157],[68,73],[55,52],[77,53],[104,47],[91,33],[71,15],[88,6],[90,-10],[63,-26],[52,-28],[57,-22],[41,-26],[26,5],[74,85],[55,45],[127,83],[81,25],[36,-3],[67,37],[67,22],[99,18],[78,6],[96,-8],[85,-23],[59,7],[49,14],[104,21],[75,-7],[114,-31],[107,-61],[69,-53],[55,-54],[59,-72],[54,-75],[44,-72],[35,-7],[89,73],[45,30],[8,43],[40,82],[36,58],[67,86],[61,61],[55,38],[130,79],[62,22],[96,18],[78,2],[201,-16],[37,-8],[116,-43],[116,-58],[103,-70],[193,-168],[40,-52],[58,-85],[30,-63],[36,-34],[75,-59],[93,-84],[106,-110],[35,-49],[45,-82],[35,-89],[48,-133],[33,-180],[6,-54],[-1,-78],[-16,-86],[-32,-138],[-41,-144],[-52,-117],[-74,-111],[-103,-118],[-105,-93],[-144,-82],[-121,-45],[-67,-12],[-26,-29],[-68,-54],[-101,-67],[-34,-32],[-52,-37],[-70,-66],[-109,-53],[-26,-15],[-47,-45],[-67,-38],[-66,-53],[-155,-72],[-93,-12],[-76,-3],[-105,-37],[-127,-66],[-81,-36],[-97,-20],[-33,-11],[-109,-22],[-34,-14],[-65,-52],[-98,-46],[-109,-38],[-38,-4],[-34,-29],[-109,-44],[-80,-50],[-54,-7],[-77,-4],[-61,1],[-41,-11],[-59,-25],[-90,-32],[-67,-13],[-83,-6],[-116,16],[-71,35],[-51,29],[-45,32],[-51,-14],[-67,-9],[-95,0],[-88,17],[-101,42],[-31,23],[-35,3],[-45,-19],[-87,-78],[-101,-56],[-84,-29],[-92,-12],[-90,8],[-93,21],[-117,62],[-109,101],[-99,145],[-72,151],[-41,126],[-22,92],[-17,93],[-3,109]],[[3702,921],[21,9],[31,35],[17,-6],[37,24],[95,43],[-1,10]],[[3902,1036],[23,24],[36,12],[39,3],[59,44],[56,15],[125,14],[41,35],[107,-39],[107,-29],[63,-30],[27,-63],[5,-43],[27,-16],[23,20],[225,69],[266,173]],[[6054,1608],[57,37],[121,110],[165,34],[138,202],[144,-6],[89,9],[31,17],[91,82],[33,61],[-16,30],[-39,2],[-24,14],[-29,37],[-102,27],[-66,-66],[-100,-22],[-33,11],[-140,63],[-55,5],[-94,-27],[-70,25],[-10,-32],[-15,-8],[-38,9],[-16,16],[-43,-14],[-74,40],[-91,64],[-40,-60],[-133,-23],[-34,22],[-113,-30],[-145,-80],[9,-26],[-26,-65]],[[5386,2066],[-18,-6],[-6,-26],[-130,-15],[-28,31]],[[4912,2356],[-14,47],[-25,45],[-39,48],[-43,74],[-23,50],[-154,-41],[-48,-3],[-21,-12],[-52,15],[-39,21]],[[4454,2600],[-43,23],[-43,-2],[-94,-39],[-12,-23],[-75,-24],[-32,-1],[-46,13],[-44,-28],[-100,-133]],[[3965,2386],[-31,-32],[-136,-62],[-34,-28],[-70,-4],[-41,27],[-21,-6],[-37,33],[-47,-15],[-40,8],[-68,37],[-39,6],[-27,21],[-2,17],[-57,29],[-33,-32],[-21,14],[-58,-42],[-8,-58],[-14,1],[-32,-22],[-27,-30],[-9,-24],[-21,-95],[-35,-103],[-3,-27],[20,-91],[25,-56],[14,-67],[16,-49],[5,-38],[27,-97]],[[3161,1601],[-164,-509],[-52,-157],[-2,-26],[11,-35],[23,-47],[48,57],[45,33],[52,59],[42,39],[20,5],[58,-28]],[[6180,2704],[23,-46],[26,-10],[32,-27],[15,17],[34,5],[46,19],[23,21],[-31,16],[-35,0],[-47,18],[-44,8],[-42,-21]],[[3735,1405],[402,170]],[[4503,1586],[65,28],[21,-68],[63,24],[17,-66],[67,28]],[[4736,1532],[67,29]],[[3902,1036],[-35,129],[-32,135],[-68,-29],[-32,134]],[[3467,1584],[136,62],[2,-9],[58,28]],[[3663,1665],[7,3],[65,-263]],[[3500,1449],[-33,135]],[[5386,2066],[19,4],[15,22],[8,39],[35,-29],[28,3],[42,21],[15,-29],[30,5],[-3,-59],[-28,-6],[-54,36],[42,-170]],[[3161,1601],[206,91],[34,-138],[66,30]],[[3965,2386],[10,-47],[-10,-8],[30,-79],[-75,-32],[33,-133],[54,22]],[[4104,1710],[-129,-54],[-137,-61],[-27,140],[-33,136],[-76,-31],[9,-36],[-75,-30],[27,-109]],[[4736,1532],[-98,405]],[[4638,1937],[68,30],[-40,170],[65,28],[14,-32],[62,25]],[[4454,2600],[65,-271],[33,-131],[-45,-19],[32,-135],[-54,-23]],[[4638,1937],[-200,-85]],[[2430,11683],[27,4],[9,-134],[30,-45],[-3,-27],[8,-67],[15,-62]],[[2516,11352],[-131,-6],[-23,-142],[-29,-36],[-22,0]],[[2311,11168],[-32,24],[-12,97],[29,80],[-59,101],[-11,1],[-88,72],[-28,97],[-5,6],[-92,-4],[-15,38],[-22,125]],[[1976,11805],[33,15],[36,-14],[36,68],[15,-27],[34,-19],[22,3],[-1,110],[4,57],[35,-28],[44,-11]],[[3146,12017],[31,-38],[49,-21],[43,98]],[[3269,12056],[47,1],[33,21],[17,-11],[94,-22],[36,1],[63,19],[22,-9],[14,-21],[6,-37],[-175,-124],[13,-77],[16,-43],[32,-36],[47,-6],[23,13],[17,-16],[23,-62],[7,-38],[31,-45]],[[3123,11880],[-2,80],[25,57]],[[4535,10417],[-60,3],[-63,-83],[-48,-45],[-113,-77],[-104,-47],[21,-141],[3,-118],[-8,-110],[-33,-150],[-48,-135],[-58,-105],[-79,-109],[-75,-67],[-99,-74],[-98,-41],[-93,-20],[-100,-2],[-81,22],[-89,42],[-24,17],[-139,112],[-39,47],[-68,102],[-50,99],[-38,105],[-27,91],[-10,93],[-83,27],[-92,49],[-69,61],[-80,88],[-69,108],[-29,56],[-40,107],[-12,44],[-92,-18],[-79,-1],[-75,11],[-77,-10],[-48,4],[-28,9],[-104,-29],[-101,-44],[-21,4],[-105,-19],[-132,13],[-138,64],[-112,101],[-88,71],[-19,39],[-9,-46],[-22,-65],[-58,-134],[-66,-100],[-52,-68],[-50,-49],[-56,-44],[-89,-47],[-106,-28],[-88,-16],[-193,35],[-164,114],[-134,148],[-60,135],[-49,161],[-26,139],[3,61],[3,196],[34,159],[69,164],[84,126],[-20,128],[-6,129],[56,238],[56,175],[68,127],[20,61],[64,118],[14,104],[16,79],[22,71],[-9,182],[19,195],[57,160],[81,179],[102,124],[132,93],[234,113],[225,-10],[130,-61],[154,-99],[112,-141],[63,57],[33,22],[142,68],[61,16],[87,10],[68,-6],[113,-30],[107,-46],[51,82],[40,47],[50,44],[64,45],[63,38],[78,31],[158,19],[91,-8],[103,-38],[194,-842],[8,-73],[105,-169],[59,-27],[191,-9]],[[807,11646],[68,24],[25,-8],[11,45],[19,-8],[16,50],[-21,36],[5,45],[-26,-21],[-55,-58],[-3,-48],[-29,-16],[-10,-41]],[[1055,12373],[13,-26],[31,3],[10,54],[-17,-2],[-37,-29]],[[1077,12771],[20,-20],[22,9],[8,22],[-30,5],[-20,-16]],[[2516,11352],[84,81],[67,-26]],[[3146,12017],[-49,63],[-24,16],[-80,1],[-51,37],[-19,-2],[-56,13],[-13,-4],[-52,44],[-24,7],[-12,18],[-30,5],[-21,42],[-29,35],[-21,2],[-8,21],[-31,20],[-40,14],[-48,58],[-32,20]],[[2506,12427],[-141,-102],[-84,-92],[-65,88],[-10,52],[-19,19],[9,26],[-1,179],[-46,59],[-15,49],[-29,17],[-1,-103],[-11,-152],[-73,-214],[-100,-10],[-179,-62],[-12,-6],[-46,-82],[-46,-21],[-36,-7],[-82,5],[-29,9],[-10,-32],[-26,8],[-26,-8],[-160,19],[-62,47],[-24,-20],[-8,19],[-31,-15],[39,-35],[17,-31],[87,-55],[32,-52],[67,-66],[29,-35],[82,-84],[181,17],[19,29],[56,16],[26,20],[198,-16]],[[1778,11138],[32,-8],[26,19],[-20,55],[-19,7],[-19,-73]],[[2781,12771],[16,-13],[5,-30],[19,-3],[21,-26],[-13,-48],[8,-41],[19,-22],[9,-37],[21,-9],[11,-47],[29,8],[68,74],[-21,77],[-36,63],[-12,29],[-29,22],[-58,25],[-33,5],[-24,-27]],[[2865,12883],[17,-54],[45,-31],[27,33],[1,26],[-20,16],[-3,23],[-51,12],[-16,-25]],[[2619,11815],[-36,5],[-29,-16],[-24,5]],[[2499,11932],[32,-2],[-1,21],[37,-13],[13,8],[38,-9],[16,29],[2,29],[-39,9],[15,47],[24,1],[30,-24],[25,25],[37,82],[-2,18],[-33,50],[-42,46],[-33,22],[-60,70],[-15,39],[-37,47]]],"transform":{"scale":[0.0000850721485411131,0.0000611389131066552],"translate":[-65.154118,17.623468]},"objects":{"Tract_78_2020":{"type":"GeometryCollection","geometries":[{"arcs":[[0,1,2,3]],"type":"Polygon","properties":{"id":"14000US78030960600"}},{"arcs":[[4,5,6,7]],"type":"Polygon","properties":{"id":"14000US78030960700"}},{"arcs":[[8,9,10,11]],"type":"Polygon","properties":{"id":"14000US78030961100"}},{"arcs":[[12,13,14,-5,15,-10]],"type":"Polygon","properties":{"id":"14000US78030960200"}},{"arcs":[[[16]],[[17,-11,-16,-8,18,19]]],"type":"MultiPolygon","properties":{"id":"14000US78030960900"}},{"arcs":[[20,-12,-18,21]],"type":"Polygon","properties":{"id":"14000US78030961200"}},{"arcs":[[22,23,24,25,26,27]],"type":"Polygon","properties":{"id":"14000US78010970400"}},{"arcs":[[28,29],[30],[31],[32],[33],[34,35],[36],[37],[38]],"type":"Polygon","properties":{"id":"14000US78020990000"}},{"arcs":[[39,-36]],"type":"Polygon","properties":{"id":"14000US78020950200"}},{"arcs":[[[-39]],[[-38]],[[-37]],[[-40,-35]],[[-34]],[[-33]],[[-32]],[[-31]]],"type":"MultiPolygon","properties":{"id":"14000US78020950100"}},{"arcs":[[40,-14,41]],"type":"Polygon","properties":{"id":"14000US78030960300"}},{"arcs":[[42,43,44,-24,45]],"type":"Polygon","properties":{"id":"14000US78010970300"}},{"arcs":[[46,47,48,49,50,51]],"type":"Polygon","properties":{"id":"14000US78010970800"}},{"arcs":[[52,53,54]],"type":"Polygon","properties":{"id":"14000US78010971200"}},{"arcs":[[55],[-54,56,57,-27,58,59,-44,60,61,62,63],[64]],"type":"Polygon","properties":{"id":"14000US78010990000"}},{"arcs":[[65,-49,66,67,-28,-58,68]],"type":"Polygon","properties":{"id":"14000US78010971400"}},{"arcs":[[69,70,-69,-57,-53,71]],"type":"Polygon","properties":{"id":"14000US78010971300"}},{"arcs":[[-60,72,-25,-45]],"type":"Polygon","properties":{"id":"14000US78010970200"}},{"arcs":[[73,-72,-55,-64]],"type":"Polygon","properties":{"id":"14000US78010971100"}},{"arcs":[[74,-51,75,-70,-74,-63]],"type":"Polygon","properties":{"id":"14000US78010971000"}},{"arcs":[[-50,-66,-71,-76]],"type":"Polygon","properties":{"id":"14000US78010970900"}},{"arcs":[[-46,-23,-68,76,77]],"type":"Polygon","properties":{"id":"14000US78010970500"}},{"arcs":[[-62,78,-52,-75]],"type":"Polygon","properties":{"id":"14000US78010970700"}},{"arcs":[[[-65]],[[-26,-73,-59]]],"type":"MultiPolygon","properties":{"id":"14000US78010970100"}},{"arcs":[[-79,-61,-43,-78,79,-47]],"type":"Polygon","properties":{"id":"14000US78010970600"}},{"arcs":[[-80,-77,-67,-48]],"type":"Polygon","properties":{"id":"14000US78010971500"}},{"arcs":[[-4,80,81,82,83]],"type":"Polygon","properties":{"id":"14000US78030960800"}},{"arcs":[[84,85,-6,-15,-41,86]],"type":"Polygon","properties":{"id":"14000US78030960100"}},{"arcs":[[-30,87],[88],[89],[90],[-83,-82,91,-19,-7,-86,-85,92,93],[94],[95],[96],[-17]],"type":"Polygon","properties":{"id":"14000US78030990000"}},{"arcs":[[[-97]],[[-96]],[[-93,-87,-42,-13,-9,-21,97,-2,98]]],"type":"MultiPolygon","properties":{"id":"14000US78030960400"}},{"arcs":[[-98,-22,-20,-92,-81,-3]],"type":"Polygon","properties":{"id":"14000US78030961000"}},{"arcs":[[[-95]],[[-99,-1,-84,-94]],[[-91]],[[-90]],[[-89]]],"type":"MultiPolygon","properties":{"id":"14000US78030960500"}}]}}}