{"type":"Topology","arcs":[[[5772,6715],[35,158]],[[5807,6873],[9,31],[31,47],[40,88]],[[5887,7039],[164,0],[55,27],[106,20],[-25,-262],[-2,-50]],[[6185,6774],[-124,-40],[-54,-8],[-118,-1],[-72,-8]],[[5817,6717],[-45,-2]],[[3270,4158],[-1,-401]],[[3269,3757],[-1,-212],[-28,23],[-60,-17],[-26,18],[-25,-14],[-30,7],[-38,-12],[-20,15],[-58,-3],[-34,-9],[-2,-91],[-60,-34]],[[2887,3428],[-28,12],[-53,56],[-140,122],[-158,119],[-63,61],[-179,157],[-80,67]],[[2186,4022],[31,25],[56,12],[58,31],[7,53],[37,-6],[11,31],[67,-13],[38,21],[52,-7],[31,76],[25,-19],[53,58],[357,-4],[2,-120],[259,-2]],[[2919,3290],[28,-31],[47,-31],[5,-35],[-74,-96],[-34,3],[-29,-45],[-41,-23],[2,-48],[-202,-224],[-132,-67],[-199,200]],[[2290,2893],[-63,75]],[[2227,2968],[196,83],[140,67],[296,149],[60,23]],[[6185,6774],[145,47]],[[6330,6821],[2,-133],[-2,-232],[2,-37]],[[6332,6419],[-287,-3]],[[6045,6416],[3,88],[-71,0],[-1,-37],[-58,-1],[-2,37],[-100,3],[1,211]],[[4287,4267],[46,-31],[17,-38],[27,-18],[15,-31],[-25,-18],[-17,-107],[-41,-90],[-6,-116],[-39,-42],[-18,-41],[16,-27]],[[4262,3708],[-76,23],[-33,36],[-1,35],[-79,-10],[-42,20],[-20,27],[-59,-3],[-17,-18],[-16,-50],[-24,-5],[-419,34],[-207,-40]],[[3270,4158],[-30,30],[-11,33],[-51,72]],[[3178,4293],[18,30],[23,-2],[7,37],[59,-7],[87,32],[44,-21],[27,12],[92,8],[-7,-15],[25,-25],[-9,-33],[20,-10],[8,-30],[46,-45],[19,-70],[51,-11],[46,20],[45,-3],[-3,-26],[32,1],[11,19],[45,29],[7,34],[27,1],[5,26],[-12,73],[-21,31],[4,20],[35,43],[32,-4],[9,-22],[56,-55],[6,-22],[27,-10],[20,-45],[58,-25],[14,8],[12,52],[56,-6],[22,-15],[26,12],[40,-12]],[[4259,3116],[3,-27],[20,-19],[-2,-68],[34,-51],[-10,-67],[11,-99],[-23,-52],[-10,-48],[12,-92],[-7,-20],[17,-63],[0,-56],[-49,-111],[-5,-42],[-46,-52],[-84,-58],[-4,-34],[6,-66],[-7,-26],[-46,-44],[-41,21],[-19,-8],[36,-57],[-56,-56],[-35,-16],[-32,-30],[-36,23],[-20,26],[-41,32],[-23,-10],[-8,-38],[69,-60],[-32,-42],[-24,10],[-71,-34],[-38,-36],[-76,-15],[-24,-20],[69,-8],[23,7],[22,-33],[-26,-19],[-9,-25],[-74,1],[-24,-57],[-40,-52],[-45,-84],[-32,-18],[-35,-38],[-61,-35],[10,-52],[-21,1],[-13,32],[-39,-41],[-55,28],[-1,36],[-41,37]],[[3206,1391],[-26,16],[15,58],[-29,64],[-29,11],[-4,24],[-36,16],[-15,35],[-17,-5],[-18,52],[-20,24],[6,42],[-23,34],[-36,16],[-12,-14],[-75,27],[-33,33],[-14,38],[-27,3],[-18,31],[-45,8],[-19,19],[-67,29]],[[2664,1952],[-109,418]],[[2555,2370],[191,102],[211,-54],[29,40],[-6,16],[52,16],[-1,14],[33,46],[48,18],[32,-7],[66,-51],[15,31],[34,8],[86,46],[42,-2],[21,46],[1,51],[32,16],[21,41],[11,48],[43,9],[-18,29],[73,11],[9,29],[28,20],[-15,31],[37,20],[26,1],[39,-29],[57,20],[8,22],[72,-20],[23,29],[-50,40],[19,43],[41,48],[45,15],[24,30],[47,-20],[34,-28],[22,11],[8,49],[30,21],[10,-30],[174,-30]],[[3037,5147],[5,-34],[24,4],[32,43],[66,54],[95,16],[47,32],[14,19],[35,-9],[37,8],[56,-17],[46,-47],[37,-6],[60,4],[-18,-38],[29,-29],[25,3],[29,-38],[98,18],[36,-8]],[[3790,5122],[29,-22],[45,23],[12,-18],[36,13],[15,34],[54,7],[8,-29],[41,-10],[21,-22],[7,-35],[28,-24],[23,11],[41,-42],[-5,-43],[27,-20],[64,-6],[4,-43],[47,0],[30,-24],[39,14],[7,-22],[29,-23],[35,-6],[8,-27],[39,18],[16,38],[30,-2],[22,-22]],[[4542,4840],[6,-68],[20,-35],[62,-22],[5,-40],[-25,-34],[-67,-28],[-12,-54],[-42,-58],[15,-52],[-27,-60],[-31,-16],[-58,-72],[-24,8],[-47,-2],[-30,-40]],[[3178,4293],[-340,479]],[[2838,4772],[-33,79],[31,32],[-9,40],[106,90],[19,74],[37,54],[48,6]],[[5280,6612],[287,98],[22,28]],[[5589,6738],[104,-24],[79,1]],[[6045,6416],[-37,-16],[-40,7],[-94,-30],[-99,22],[-189,-16]],[[5586,6383],[0,37],[-197,-11],[-12,42],[-34,-11],[-54,-46]],[[5289,6394],[-2,5]],[[5287,6399],[-9,63],[33,67],[-31,83]],[[2637,5701],[10,-52],[-29,-13],[-23,-49],[66,-16],[106,10],[-46,-87],[66,-73],[86,39],[89,-27],[1,-43],[42,-43]],[[3005,5347],[32,-200]],[[2838,4772],[-28,-58],[-90,-64],[-44,-13],[-22,-22],[-81,27],[-20,29],[-36,2],[-31,23],[-25,-6],[-42,83],[-1,33],[-56,58],[-7,29]],[[2355,4893],[-21,36],[-8,43],[-17,10],[-176,157],[-4,189],[-811,158],[-71,22]],[[1247,5508],[54,62],[76,35],[116,90],[50,18],[32,-1],[448,0],[17,24],[166,-45],[100,-12],[43,12],[53,28],[38,29],[59,24],[36,4],[-2,-30],[35,-42],[36,-15],[33,12]],[[6104,9547],[109,-618],[55,-215],[25,-226],[59,-327]],[[6352,8161],[-90,57],[-33,8],[-45,-7],[-69,-35],[-33,-26],[-183,-220],[-26,-46]],[[5873,7892],[-161,-303]],[[5712,7589],[-77,-130],[-48,-92],[-30,-96]],[[5557,7271],[-17,-37],[-71,-76],[-66,-137],[-16,-69],[-31,-49]],[[5356,6903],[-27,-3],[-139,-48]],[[5190,6852],[-31,124],[-63,274],[1,12],[-50,55]],[[5047,7317],[40,63],[16,76],[15,33],[-15,47],[50,15],[29,36],[53,35],[16,55],[67,99],[-10,22],[12,33],[28,27],[46,64],[48,31],[14,22],[44,-3],[16,25],[-13,39],[8,50],[23,48],[36,38],[22,38],[21,60],[12,8],[10,63],[15,38],[-19,23],[-10,65],[6,74],[-15,29],[-1,79],[-11,26],[13,73],[0,52],[12,63],[4,73],[23,43],[26,24],[78,95],[35,36],[41,58],[30,55],[75,177],[76,67],[65,48],[26,8]],[[4568,6473],[83,-24],[53,10],[88,33],[30,-26],[36,-11],[-81,-102],[-23,-36]],[[4754,6317],[-26,-34],[-56,-44],[-129,-66]],[[4543,6173],[-47,203]],[[4496,6376],[-16,121],[36,-1],[52,-23]],[[7092,8556],[-83,-18],[-59,67],[-36,-35],[-37,-17],[-18,-23],[12,-28],[27,-19],[2,-71],[13,-76],[141,-73],[51,-50],[16,-36],[37,-39],[-42,-40],[-2,-29],[72,-204],[20,-1],[84,-26],[53,-81],[84,-46],[-130,-71],[-25,-66]],[[7272,7574],[-354,134],[-1,-1]],[[6917,7707],[-2,48],[-49,133],[-17,32],[-85,113]],[[6764,8033],[-54,60],[-24,12],[-198,48],[-81,-10],[-55,18]],[[6104,9547],[84,-7],[91,-29],[92,-59],[59,-47],[42,-17],[36,-27],[45,-47],[173,-234],[38,-39],[31,-16],[66,-78],[59,-55],[13,-37],[22,-20],[46,-86],[33,-89],[0,-39],[13,-33],[45,-32]],[[2637,5701],[21,21],[107,33],[26,22],[55,5],[28,11],[76,60]],[[2950,5853],[15,-26],[-15,-35],[2,-37],[21,-58],[32,-38],[-19,-36],[-22,-13],[41,-263]],[[4488,5641],[63,9]],[[4551,5650],[64,-61],[64,-32],[-2,-19],[51,-16],[23,45],[51,-4],[4,15],[49,-1],[9,-22],[42,6],[66,-4]],[[4972,5557],[57,0]],[[5029,5557],[-4,-148],[50,-7],[180,0],[64,14]],[[5319,5416],[66,-119],[22,-30]],[[5407,5267],[-44,-10],[-79,2],[-34,-11],[-35,-37]],[[5215,5211],[-139,34],[-197,-3],[-14,-20],[-47,-33],[-99,-20]],[[4719,5169],[-7,17],[-52,39],[-81,4],[-9,72],[-21,205],[-2,84],[-37,20],[-22,31]],[[4455,6055],[16,3],[97,48],[45,15],[108,61],[32,23],[132,33],[-3,18]],[[4882,6256],[165,87],[51,11],[89,43],[100,2]],[[5289,6394],[37,-56],[2,-23],[-26,-20],[-123,-47],[35,-64],[-2,-47],[-55,-48]],[[5157,6089],[-20,-20],[-78,-122],[-61,-66]],[[4998,5881],[-46,-49],[-29,-18],[-21,4]],[[4902,5818],[-36,7],[-121,46],[-83,13],[-32,20],[-164,23]],[[4466,5927],[-12,81],[1,47]],[[4902,5818],[-14,-65],[9,-55],[63,-99],[12,-42]],[[4551,5650],[26,46],[-1,53],[-98,152],[-12,26]],[[4045,5502],[42,-4],[7,-20],[49,-25],[36,20],[34,39],[8,43],[46,10],[41,58]],[[4308,5623],[32,-2],[16,18],[29,-18],[57,35],[46,-15]],[[4719,5169],[-5,-1]],[[4714,5168],[-153,-31],[-50,-32],[-51,-12],[-48,40],[-18,80],[-47,44],[-116,17],[-24,11],[-150,99],[-37,49],[-2,37],[27,32]],[[1697,4684],[25,19],[26,-27],[-30,-9],[-21,17]],[[2355,4893],[-42,-53],[35,-44],[20,-55],[-32,-54],[-15,-64],[-69,-59],[-42,-19],[-48,-35],[-49,-23],[-37,-68]],[[2076,4419],[-23,5]],[[2053,4424],[-11,48],[-29,29],[-1,63],[-56,86],[-48,41],[-43,7],[-22,14],[-54,1],[-45,-17],[0,36],[-18,36],[-24,11],[-30,-11],[-46,9],[-52,51],[12,41],[-39,126],[2,28],[-44,12],[-58,53],[-69,33],[-125,45],[-62,58],[-25,66],[-33,41],[-7,39],[121,138]],[[1483,3217],[89,-30],[642,-202]],[[2214,2985],[13,-17]],[[2290,2893],[65,-136],[200,-387]],[[2664,1952],[-287,102],[1,60],[-67,-47],[-50,-20],[-32,31],[-54,10],[-10,18],[-38,-11],[-64,-7],[-24,-13]],[[2039,2075],[-41,16],[-25,22],[-36,73],[1,56],[8,24],[61,33],[42,44],[-17,19],[-51,5],[-24,-15],[-16,59],[-17,3],[2,45],[27,33],[-13,26],[-62,17],[-4,45],[-27,25],[-1,35],[13,29],[41,-7],[38,20],[-2,31],[-71,45],[-41,7],[-35,64],[43,98],[-7,31],[-52,19],[-10,53],[-39,41],[-25,44],[-29,3],[0,23],[-49,4],[-28,15],[-40,5],[-29,15],[-41,37]],[[4998,5881],[27,-29],[35,0],[3,-40],[-38,-9],[5,-109],[-1,-137]],[[6352,8161],[34,-177],[51,-31],[0,-165],[-4,-67]],[[6433,7721],[-1,-90]],[[6432,7631],[-13,4],[-127,-2],[-3,-45],[-95,0]],[[6194,7588],[0,120],[4,97],[-104,42],[-117,-26],[-56,22],[-16,29],[-32,20]],[[5557,7271],[21,-3],[388,0],[25,-3]],[[5991,7265],[-104,-226]],[[5807,6873],[-147,31],[-46,1],[-130,-34],[-40,-22]],[[5444,6849],[-61,46],[-27,8]],[[4507,6587],[20,6],[67,-40],[24,-31],[49,-12],[151,43],[48,33],[30,34],[21,39],[57,78],[30,85],[-10,26],[-47,6],[-8,21],[16,56],[-13,21],[-7,78],[7,39],[-25,43],[-1,37],[85,92],[12,30],[27,22],[7,24]],[[5190,6852],[-34,-12],[-35,-43],[-55,-237],[-12,-32],[174,58],[51,28]],[[5279,6614],[1,-2]],[[4882,6256],[-60,6],[-68,55]],[[4568,6473],[-1,12],[-56,83],[-4,19]],[[6433,7721],[95,4],[16,58],[-19,37],[-25,1],[27,54],[43,9],[116,94],[25,26],[53,29]],[[6917,7707],[-25,-57],[-151,-380],[-64,-143],[-66,-156],[-33,-45]],[[6578,6926],[-25,-23],[-48,-27],[-66,-21]],[[6439,6855],[-20,52],[2,80],[-6,53],[55,283],[6,57],[-23,94],[-21,137],[0,20]],[[6194,7588],[-189,0]],[[6005,7588],[-293,1]],[[5190,6852],[89,-238]],[[5991,7265],[14,41],[2,203],[-2,79]],[[6439,6855],[-109,-34]],[[3645,5536],[239,21]],[[3884,5557],[27,-16],[34,10],[63,-12],[34,-20],[3,-17]],[[4714,5168],[8,-23],[-3,-70],[5,-137]],[[4724,4938],[-40,-18],[-41,-4],[-61,-24],[-40,-52]],[[3790,5122],[-2,94],[17,55],[-4,34],[-99,8],[63,38],[-120,185]],[[7272,7574],[-74,-266],[-46,-23],[-24,-23],[-10,-58],[-42,-45],[-39,-67],[-50,-100],[-11,-12],[-135,-66],[-262,-340],[-1,352]],[[4205,6021],[37,21],[87,115],[24,43],[8,42],[-13,66],[-44,19],[-48,0],[-2,44],[-17,47],[25,55],[82,81],[94,14],[50,21],[19,-2]],[[4496,6376],[-115,1],[-2,-89],[10,-22],[1,-61],[-10,-47],[19,-36]],[[4399,6122],[-88,-27],[-32,-19],[-27,-32],[-47,-28]],[[4205,6016],[0,5]],[[5319,5416],[66,18],[27,20],[68,99]],[[5480,5553],[39,60],[33,24],[-2,135],[3,113],[-4,216]],[[5549,6101],[37,282]],[[6332,6419],[0,-150],[-38,-35],[21,-71],[18,-20]],[[6333,6143],[-31,-61],[-94,-79],[-7,-18],[-76,-71],[0,-15],[-38,-51],[-43,-18],[-48,-67],[-84,-83],[-65,-3],[-51,-21],[-22,-32],[-60,0],[-15,-37],[-21,-1],[-36,-60],[-32,-22],[-87,-132],[-44,-24],[-35,-31],[-37,-50]],[[4228,6010],[38,32],[59,20],[130,-7]],[[4308,5623],[12,13],[19,60],[52,73],[-20,22],[3,35],[17,26],[-24,41],[1,41],[-142,2],[2,74]],[[3403,5999],[8,-17],[56,-1],[-9,-41],[19,-12]],[[3477,5928],[13,-21],[17,-11],[81,-44],[81,-58],[13,-66],[-29,-68],[-32,-4],[-19,-27],[5,-42],[38,-51]],[[2950,5853],[2,85],[37,12],[3,-26],[35,-20],[127,-18],[120,64],[44,31],[85,18]],[[2186,4022],[-30,63]],[[2156,4085],[-21,76],[-1,35],[-20,28],[39,19],[-1,102],[-38,20],[-11,35],[-27,19]],[[4399,6122],[61,17],[83,34]],[[4228,6010],[-23,-2]],[[4205,6008],[0,8]],[[5029,5557],[451,-4]],[[3477,5928],[11,-11]],[[3488,5917],[29,-19],[17,-1],[47,-35],[20,-5],[187,1]],[[3788,5858],[64,-21],[22,-16],[14,-58]],[[3888,5763],[-3,-8],[-1,-198]],[[5215,5211],[-85,-76],[-50,-64],[-17,-65],[-40,-53],[-44,-16],[-88,7],[-57,26],[-28,6],[-63,-41],[-19,3]],[[5444,6849],[122,-97],[23,-14]],[[3888,5763],[38,5],[9,-25],[60,-50],[15,-4],[57,41],[10,19]],[[4077,5749],[42,16],[16,-10],[147,-116],[26,-16]],[[4077,5749],[-37,56],[7,29],[-13,50],[-19,23],[12,50],[27,7],[53,-3],[38,27],[49,6],[11,14]],[[2919,3290],[-47,32],[31,40],[1,36],[-17,30]],[[4262,3708],[11,-37],[20,-30],[-5,-67],[5,-43],[-4,-52],[17,-41],[-13,-28],[6,-84],[-15,-34],[21,-33],[-20,-23],[25,-28],[-18,-39],[-30,-20],[-3,-33]],[[3788,5858],[-6,27],[-29,29],[-37,14],[-91,-4],[-24,19],[-54,-7],[-53,1],[-6,-20]],[[3403,5999],[3,44],[27,-11],[24,-39],[33,7],[120,3],[106,-31],[92,1],[6,67],[52,0],[7,26],[49,-17],[22,-71],[14,-4],[114,9],[55,11],[78,27]],[[3145,1306],[19,39],[18,-17],[-10,-23],[-27,1]],[[3206,1391],[-29,-9],[-54,-52],[-48,-17],[-55,2],[-79,-22],[-40,12],[-64,3],[-48,16],[-57,38],[-66,25],[-30,-6],[-48,8],[-34,35],[1,24],[-20,41],[-46,-12],[-26,-30],[-51,11],[-57,-1],[-50,43],[-21,29],[-28,97],[-25,0],[-18,23],[-71,46],[-58,31],[-22,42],[-34,34],[12,41],[25,32],[-1,62],[-33,49],[-2,39],[10,50]],[[1645,1048],[28,40],[105,42],[127,71],[40,17],[23,-39],[-59,-26],[-100,-62],[-116,-44],[-48,1]],[[2214,2985],[-143,199],[43,34],[68,-45],[55,121],[-73,88],[5,475],[15,11],[3,40],[-13,58],[12,56]],[[7092,8556],[102,-27],[39,-22],[232,-48],[26,-11],[47,6],[39,24],[66,-10],[22,-15],[68,-2],[24,10],[109,-12],[82,5],[27,13],[66,-9],[40,-17],[23,-44],[-27,-76],[-62,-87],[-39,-119],[-5,-93],[-18,-47],[-28,-32],[-13,-33],[-82,-79],[-23,-3],[-44,-29],[-4,-37],[-36,-106],[9,-31],[-12,-40],[30,-37],[-6,-78],[-34,-74]],[[7710,7396],[-321,134],[-117,44]],[[1863,4031],[38,90],[49,40],[16,1],[40,60],[-3,49],[16,23],[34,88],[0,42]],[[2156,4085],[-74,3],[-34,-35],[11,-19],[-49,-27],[-63,22],[-14,26],[-42,-25],[-28,1]],[[1490,3546],[41,26],[13,-16],[-32,-32],[-22,22]],[[1483,3217],[81,37],[77,110],[20,74],[50,104],[46,86],[14,16],[-8,58],[31,22],[4,65],[17,17],[17,46],[-3,64],[-16,23],[50,92]],[[5157,6089],[91,18],[36,-7],[265,1]],[[0,5375],[3,59],[39,190],[18,67],[26,62],[32,61],[58,95],[97,133],[88,86],[90,104],[72,67],[83,61],[127,65],[113,105],[72,50],[65,52],[112,57],[173,57],[256,34],[132,4],[285,-23],[112,-28],[74,50],[206,103],[129,58],[207,68],[113,13],[105,3],[71,-4],[46,-12],[144,37],[120,16],[70,2],[144,162],[103,92],[104,74],[86,50],[68,29],[46,79],[32,81],[65,100],[62,188],[59,99],[39,75],[99,123],[89,83],[38,78],[36,40],[16,158],[16,88],[43,108],[-6,93],[7,86],[76,312],[23,65],[29,103],[47,93],[69,101],[146,159],[35,36],[90,172],[57,81],[62,80],[92,88],[136,104],[86,61],[123,66],[110,51],[141,48],[170,22],[142,-6],[300,-52],[95,-27],[101,-35],[95,-41],[126,-67],[126,-84],[116,-69],[114,-87],[94,-90],[65,-90],[74,-120],[144,-125],[125,-120],[74,-112],[144,-8],[142,-2],[152,-26],[129,-32],[156,-59],[123,-62],[120,-100],[168,-179],[28,-49],[40,-15],[87,-124],[39,-109],[30,-107],[48,-234],[8,-96],[-20,-99],[-31,-108],[-74,-147],[-64,-77],[-28,-125],[-57,-140],[-48,-92],[-42,-56],[-42,-45],[-13,-66],[-36,-149],[-48,-143],[-22,-53],[-91,-146],[-71,-259],[-78,-138],[-91,-128],[-29,-27],[-52,-68],[-29,-28],[-87,-103],[-82,-73],[-93,-54],[-111,-71],[-168,-61],[-77,-7],[-25,-40],[-40,-44],[-29,-43],[-216,-216],[-101,-73],[-145,-82],[-132,-42],[-60,-88],[-114,-112],[-45,-55],[-171,-143],[-101,-69],[-98,-28],[-79,-115],[-94,-90],[-98,-85],[-158,-100],[-101,-40],[-28,-60],[-80,-92],[-116,-89],[-46,-26],[-99,-46],[5,-84],[-14,-84],[-31,-116],[-11,-135],[-14,-82],[-19,-42],[9,-29],[1,-98],[-6,-84],[1,-77],[-10,-50],[-30,-86],[8,-49],[10,-219],[-5,-101],[-13,-44],[14,-46],[11,-102],[-8,-143],[-30,-212],[-26,-112],[-20,-48],[-32,-53],[-60,-131],[-39,-72],[-46,-64],[-39,-45],[-58,-45],[-12,-100],[-28,-82],[-20,7],[-22,-24],[-31,-6],[-12,-27],[-72,-87],[-69,-70],[-104,-71],[-25,-26],[-48,-21],[-22,-80],[-21,-39],[-92,-133],[-121,-140],[-51,-42],[-66,-70],[-111,-93],[-65,-47],[-77,-47],[-57,-29],[-195,-87],[-74,-21],[-150,-30],[-80,-3],[-74,5],[-51,12],[-149,-35],[-62,-12],[-114,-10],[-93,-4],[-66,6],[-52,-2],[-110,10],[-62,-25],[-98,-24],[-115,-17],[-103,2],[-44,11],[-34,-24],[-78,-36],[-119,-25],[-143,-21],[-168,-15],[-68,-2],[-106,8],[-147,27],[-20,19],[-97,32],[-104,48],[-182,135],[-98,96],[-59,84],[-53,64],[-62,116],[-41,127],[-18,84],[-8,102],[7,114],[12,97],[20,92],[33,124],[25,0],[50,106],[61,115],[172,195],[-48,96],[-43,114],[-22,134],[-7,62],[9,91],[-78,37],[-69,50],[-50,44],[-50,56],[-129,164],[-40,61],[-38,89],[-49,175],[-12,121],[-8,192],[12,106],[24,98],[55,131],[2,69],[18,110],[45,112],[-19,0],[28,77],[117,156],[36,119],[-212,179],[-84,91],[-46,56],[-52,53],[-35,55],[-60,113],[-49,125],[-39,148],[-22,120],[-11,186]],[[6333,6143],[30,22],[93,51],[49,16],[90,5],[64,34],[23,37],[55,43],[31,39],[-21,58],[3,67],[14,36],[49,19],[37,-4],[12,31],[51,31],[27,31],[56,31],[65,7],[32,27],[71,19],[19,-13],[35,10],[46,30],[31,5],[44,30],[78,14],[65,52],[34,77],[3,37],[20,20],[35,77],[22,29],[-4,47],[9,60],[19,38],[33,37],[16,42],[23,17],[18,44]]],"transform":{"scale":[0.000048550375776059054,0.00004944256724870226],"translate":[144.563426,13.182335]},"objects":{"Tract_66_2025":{"type":"GeometryCollection","geometries":[{"arcs":[[0,1,2,3,4]],"type":"Polygon","properties":{"id":"14000US66010950701"}},{"arcs":[[5,6,7,8]],"type":"Polygon","properties":{"id":"14000US66010980100"}},{"arcs":[[9,10,11]],"type":"Polygon","properties":{"id":"14000US66010980300"}},{"arcs":[[-4,12,13,14,15]],"type":"Polygon","properties":{"id":"14000US66010980400"}},{"arcs":[[16,17,-6,18,19]],"type":"Polygon","properties":{"id":"14000US66010954000"}},{"arcs":[[20,21,22,23]],"type":"Polygon","properties":{"id":"14000US66010955200"}},{"arcs":[[24,25,26,-20,27,28]],"type":"Polygon","properties":{"id":"14000US66010953900"}},{"arcs":[[29,30,-5,-16,31,32,33,34]],"type":"Polygon","properties":{"id":"14000US66010951100"}},{"arcs":[[35,36,-29,37,38,39]],"type":"Polygon","properties":{"id":"14000US66010954400"}},{"arcs":[[40,41,42,43,44,45,46,47]],"type":"Polygon","properties":{"id":"14000US66010950300"}},{"arcs":[[48,49,50,51]],"type":"Polygon","properties":{"id":"14000US66010952300"}},{"arcs":[[52,53,54,55,-41,56]],"type":"Polygon","properties":{"id":"14000US66010950200"}},{"arcs":[[57,58,-36]],"type":"Polygon","properties":{"id":"14000US66010954300"}},{"arcs":[[59,60,61,62,63,64,65,66]],"type":"Polygon","properties":{"id":"14000US66010952900"}},{"arcs":[[67,68,-34,69,70,71,72,73]],"type":"Polygon","properties":{"id":"14000US66010951800"}},{"arcs":[[-73,74,-61,75]],"type":"Polygon","properties":{"id":"14000US66010952700"}},{"arcs":[[76,77,-67,78,79]],"type":"Polygon","properties":{"id":"14000US66010953102"}},{"arcs":[[[80]],[[-39,81,82,83]]],"type":"MultiPolygon","properties":{"id":"14000US66010954500"}},{"arcs":[[84,85,-11,86,-23,87,88]],"type":"Polygon","properties":{"id":"14000US66010955400"}},{"arcs":[[-72,89,-62,-75]],"type":"Polygon","properties":{"id":"14000US66010955600"}},{"arcs":[[-42,90,91,92,93]],"type":"Polygon","properties":{"id":"14000US66010950402"}},{"arcs":[[94,95,-2,96,97,-45]],"type":"Polygon","properties":{"id":"14000US66010950802"}},{"arcs":[[98,-47,99,100,-35,-69,101,-49,102]],"type":"Polygon","properties":{"id":"14000US66010951902"}},{"arcs":[[-92,103,-55,104,105,106]],"type":"Polygon","properties":{"id":"14000US66010950502"}},{"arcs":[[-94,107,108,-43]],"type":"Polygon","properties":{"id":"14000US66010950401"}},{"arcs":[[109,-100]],"type":"Polygon","properties":{"id":"14000US66010951901"}},{"arcs":[[110,-108,-93,-107,111,-13,-3,-96]],"type":"Polygon","properties":{"id":"14000US66010950702"}},{"arcs":[[-109,-111,-95,-44]],"type":"Polygon","properties":{"id":"14000US66010950801"}},{"arcs":[[112,113,-80,114,115,-26,116]],"type":"Polygon","properties":{"id":"14000US66010953101"}},{"arcs":[[-56,-104,-91]],"type":"Polygon","properties":{"id":"14000US66010950501"}},{"arcs":[[-105,-54,117]],"type":"Polygon","properties":{"id":"14000US66010955800"}},{"arcs":[[118,-103,-52,119,120,121]],"type":"Polygon","properties":{"id":"14000US66010955900"}},{"arcs":[[122,123,124,-32,-15,125,126,-64]],"type":"Polygon","properties":{"id":"14000US66010955700"}},{"arcs":[[127,-74,-76,-60,-78,128]],"type":"Polygon","properties":{"id":"14000US66010956000"}},{"arcs":[[129,130,-117,-25,-37,-59,131]],"type":"Polygon","properties":{"id":"14000US66010956100"}},{"arcs":[[-38,-28,-19,-9,132,133,-82]],"type":"Polygon","properties":{"id":"14000US66010956200"}},{"arcs":[[-121,134,-50,-102,-68,-128,135,136]],"type":"Polygon","properties":{"id":"14000US66010952400"}},{"arcs":[[-51,-135,-120]],"type":"Polygon","properties":{"id":"14000US66010952200"}},{"arcs":[[137,-123,-63]],"type":"Polygon","properties":{"id":"14000US66010952800"}},{"arcs":[[138,139,140,141,-113,-131]],"type":"Polygon","properties":{"id":"14000US66010953600"}},{"arcs":[[-66,142,-115,-79]],"type":"Polygon","properties":{"id":"14000US66010953000"}},{"arcs":[[-46,-98,143,-30,-101,-110]],"type":"Polygon","properties":{"id":"14000US66010950900"}},{"arcs":[[-142,144,145,-77,-114]],"type":"Polygon","properties":{"id":"14000US66010953200"}},{"arcs":[[-136,-129,-146,146]],"type":"Polygon","properties":{"id":"14000US66010953300"}},{"arcs":[[-10,147,-7,-18,148,-24,-87]],"type":"Polygon","properties":{"id":"14000US66010955100"}},{"arcs":[[-122,-137,-147,-145,-141,149,-139,-130,150]],"type":"Polygon","properties":{"id":"14000US66010953400"}},{"arcs":[[[151]],[[-88,-22,152]],[[153]]],"type":"MultiPolygon","properties":{"id":"14000US66010955300"}},{"arcs":[[-8,-148,-12,-86,154]],"type":"Polygon","properties":{"id":"14000US66010980200"}},{"arcs":[[155,156,-53]],"type":"Polygon","properties":{"id":"14000US66010950100"}},{"arcs":[[157,-83,-134,158]],"type":"Polygon","properties":{"id":"14000US66010954700"}},{"arcs":[[[159]],[[-159,-133,-155,-85,160]]],"type":"MultiPolygon","properties":{"id":"14000US66010954800"}},{"arcs":[[-140,-150]],"type":"Polygon","properties":{"id":"14000US66010953500"}},{"arcs":[[-97,-1,-31,-144]],"type":"Polygon","properties":{"id":"14000US66010951000"}},{"arcs":[[-71,161,-124,-138,-90]],"type":"Polygon","properties":{"id":"14000US66010951600"}},{"arcs":[[-33,-125,-162,-70]],"type":"Polygon","properties":{"id":"14000US66010951700"}},{"arcs":[[162],[-158,-161,-89,-153,-21,-149,-17,-27,-116,-143,-65,-127,163,-156,-57,-48,-99,-119,-151,-132,-58,-40,-84],[-160],[-154],[-81],[-152]],"type":"Polygon","properties":{"id":"14000US66010990000"}},{"arcs":[[-14,-112,-106,-118,-157,-164,-126]],"type":"Polygon","properties":{"id":"14000US66010956300"}}]}}}