{"type":"Topology","arcs":[[[5744,7832],[20,19]],[[5764,7851],[328,-163]],[[6092,7688],[-22,-227]],[[6070,7461],[-23,-39],[-5,-74]],[[6042,7348],[-45,6],[-17,53]],[[5980,7407],[-35,43],[-77,18],[-97,78],[-19,32],[1,84],[-7,27],[3,129],[-5,14]],[[5301,7383],[81,69],[30,112]],[[5412,7564],[24,15],[184,151]],[[5620,7730],[11,-11],[3,-87],[9,-66],[-10,-114],[9,-29]],[[5642,7423],[-18,-11],[-10,-53],[-33,-22],[-45,-17],[-136,-37]],[[5400,7283],[-92,92]],[[5308,7375],[-7,8]],[[5642,7423],[54,-18],[284,2]],[[6042,7348],[21,-47],[-1,-54]],[[6062,7247],[-18,-90],[-47,-66]],[[5997,7091],[-11,-35],[-201,-197],[-129,-118]],[[5656,6741],[-20,81]],[[5636,6822],[52,72],[-62,82],[7,30],[-110,146]],[[5523,7152],[-123,131]],[[4775,7686],[45,13],[36,41],[54,12]],[[4910,7752],[5,-84]],[[4915,7668],[-138,-111]],[[4777,7557],[-29,3],[0,28],[21,39],[-12,34],[18,25]],[[4799,7355],[18,-48],[-55,-18],[-6,-33],[49,-62],[28,-72]],[[4833,7122],[-41,-18],[-40,56],[15,21],[-61,36],[-37,-61],[-61,-84]],[[4608,7072],[-53,21],[47,68],[-59,39]],[[4543,7200],[33,65],[28,83],[195,7]],[[3650,7228],[71,-33],[7,-30],[24,-11]],[[3752,7154],[35,-22],[1,-30],[-17,-36],[-6,-54],[-11,-18],[-95,-76]],[[3659,6918],[-2,65]],[[3657,6983],[-7,245]],[[3891,2445],[28,56],[240,415],[33,28],[48,63],[134,216],[300,721],[198,353],[13,116],[-6,72],[-19,86],[-26,78],[14,67],[32,48],[57,63],[13,42],[-3,112],[27,339],[12,66],[38,152],[61,204],[-5,93],[15,101],[-1,123],[12,65],[-15,59],[4,26],[43,59],[4,86],[9,45]],[[5151,6399],[8,71],[49,72],[112,60],[29,29],[43,73]],[[5392,6704],[35,24],[209,94]],[[5656,6741],[51,-205],[19,-58],[35,-75],[26,-38],[40,-39],[43,-17],[66,2],[37,19],[47,48],[16,4]],[[6036,6382],[3,-21],[-26,-49],[2,-39],[15,-33],[35,-31],[68,-12],[89,5],[39,32],[12,29]],[[6273,6263],[89,-5],[53,43],[232,245],[63,85],[5,57],[30,43]],[[6745,6731],[70,103]],[[6815,6834],[20,30]],[[6835,6864],[99,-141]],[[6934,6723],[-14,-14],[-35,-111],[-45,-72]],[[6840,6526],[-42,-101],[-10,-92]],[[6788,6333],[-11,33],[-25,27],[11,64],[-10,33],[-38,12],[-38,-26],[-29,-51],[-15,-48],[-43,-17],[-47,-63],[-53,9],[-49,-4],[-32,-16],[-45,-36]],[[6364,6250],[-51,-32],[-25,-45],[-33,-37],[-70,-21],[-22,-24],[-12,-45],[8,-20],[-75,-189],[-25,-50],[-1,-21]],[[6058,5766],[-9,6],[-48,-55],[-75,-52],[-20,-34],[18,-93],[0,-62],[-55,-56]],[[5869,5420],[-63,36],[-94,-380],[-18,-41],[65,-77]],[[5759,4958],[-67,15],[-40,-8],[-13,-33],[-48,-42],[31,-47],[-31,-79],[3,-33],[37,-39],[65,-19],[14,-16]],[[5710,4657],[-8,-66],[-24,19],[-32,-11],[-17,-22],[-7,-66],[5,-43],[39,-32],[44,20],[5,49],[17,-2]],[[5732,4503],[11,-68],[-62,-15]],[[5681,4420],[-27,-12],[-24,11],[-30,63],[-26,3],[-36,-20],[-21,-37],[-68,-70],[-74,-29],[-16,-28],[-59,-18],[-26,-63],[24,-43],[27,-17],[10,-83],[39,-35],[81,22],[50,35],[40,-8],[20,-35],[43,0],[18,24],[64,12],[33,33],[51,-1],[41,-40],[62,6],[33,18],[15,32],[16,76],[-13,18],[18,32],[55,24],[-10,83],[4,13]],[[5995,4386],[-1,92],[19,15]],[[6013,4493],[40,19]],[[6053,4512],[27,5],[30,-31],[31,-63],[22,-22],[31,2],[60,49],[25,69],[94,-28],[53,-33],[18,-24],[-21,-48],[-3,-48],[15,-21],[42,6],[15,29],[33,3],[46,72],[9,71],[-22,27],[-56,-12],[-25,22],[6,39],[54,69],[22,60],[-1,27],[27,29],[19,44],[16,9]],[[6620,4814],[10,50],[20,28],[23,104],[-23,40],[-39,7],[-17,18],[0,57],[10,26],[-12,23],[15,67],[3,48],[-33,26],[-2,63],[21,59],[0,78],[13,36],[-30,23],[-54,107],[8,37],[-11,22],[7,85],[14,76],[0,138],[12,13]],[[6555,6045],[40,13],[118,11],[37,23]],[[6750,6092],[24,-9],[13,-33]],[[6787,6050],[-13,-18],[-33,-1]],[[6741,6031],[-42,-13],[5,-43],[26,-9]],[[6730,5966],[45,15],[2,-73],[46,-89],[29,-47],[-52,-7],[0,-45],[-47,-49],[-4,-31],[54,-37],[-1,-40],[10,-39],[-21,-116],[-25,-13],[-47,16],[-31,-38],[24,-47],[43,0],[10,-14],[-21,-32],[-9,-83],[39,-15]],[[6774,5182],[62,-37],[5,-21],[-31,-98],[-1,-48],[32,-55],[3,-58],[35,-27],[-24,-53],[-25,-102],[11,-49],[50,-17],[2,-61],[74,-82],[2,-55],[-28,-39],[-4,-65],[-28,-29],[-12,-69],[25,-58],[41,-33],[47,13],[65,38],[74,-1],[68,8],[45,28],[-15,86],[50,15],[28,50],[116,-3],[11,17],[37,6],[57,67],[10,29],[-19,68],[56,45],[21,9],[86,6]],[[7700,4607],[-11,-26],[46,-95],[272,-615],[-151,-108],[-150,-99],[-51,-22],[-1226,-389],[-82,-31],[-1136,-416],[-1031,-305],[-31,-18],[-115,-42],[-116,0],[-27,4]],[[4886,4622],[36,-45],[-4,-46],[26,-28],[11,-79],[-3,-80],[20,-46],[-43,-51],[-17,-47],[-3,-95],[-6,-31],[33,-39],[44,-3],[32,42],[70,45],[17,30],[1,75],[61,10],[24,74],[-4,30],[49,0],[58,27],[119,15],[43,64],[-15,28],[-39,7],[-12,43],[-54,85],[4,36],[39,21],[40,41],[6,32],[-17,48],[-33,26],[-42,7],[-4,18],[34,57],[19,68],[-4,35],[-36,129],[49,100],[6,48],[-32,133],[-11,67],[-39,46],[-55,9],[-50,-13],[-22,-18],[-32,-49],[-26,-56],[0,-33],[-30,-12],[-11,-22],[-2,-97],[-11,-14],[-1,-122],[-21,-21],[-41,-131],[7,-101],[16,-24],[104,-91],[-47,-53],[-19,-52],[-47,-17],[-9,24],[-60,-12],[3,29],[66,40],[0,34],[-17,42],[-71,8],[-46,-40],[-1,-105]],[[5211,5790],[36,-21],[94,45],[34,43],[6,50],[-25,29],[-58,-4],[-49,-22],[-23,-35],[-35,-74],[20,-11]],[[5259,6512],[28,-41],[14,-65],[43,-39],[57,31],[24,58],[26,-6],[-16,-30],[-22,-6],[-17,-41],[-2,-66],[20,-101],[30,-38],[33,-6],[32,9],[120,-42],[29,-34],[-3,-50],[-39,-88],[8,-29],[-50,-41],[-22,-122],[-3,-74],[10,-48],[65,-80],[66,-15],[62,24],[62,55],[62,109],[26,95],[45,64],[-6,50],[3,65],[-31,72],[-59,79],[-76,53],[-74,7],[-67,17],[-28,25],[42,10],[3,87],[-45,60],[14,35],[-29,62],[-31,29],[-5,40],[-42,33],[-65,-5],[-34,-33],[20,-30],[-37,-23],[-47,22],[-33,-16],[-29,7],[-32,-29]],[[5441,5085],[7,-81],[17,-20],[73,-10],[25,28],[6,75],[-40,75],[-26,8],[-44,-12],[-18,-63]],[[5494,4604],[45,-29],[33,11],[13,41],[-23,43],[-41,-3],[-24,-36],[-3,-27]],[[4756,8239],[7,10],[72,-7]],[[4835,8242],[-6,-36],[32,-54]],[[4861,8152],[-70,-21]],[[4791,8131],[-11,16],[-24,92]],[[4728,7864],[32,103]],[[4760,7967],[38,46],[71,44]],[[4869,8057],[45,28]],[[4914,8085],[31,-122]],[[4945,7963],[-34,-75],[-36,-14],[-12,-51],[-19,-16]],[[4844,7807],[-31,11],[-42,35],[-43,11]],[[4861,8152],[35,10],[18,-77]],[[4869,8057],[-78,74]],[[4913,8357],[70,-117],[27,10]],[[5010,8250],[15,-42],[33,-22]],[[5058,8186],[-87,-66],[-57,-35]],[[4835,8242],[17,2],[-16,49],[-25,28]],[[4811,8321],[31,26],[71,10]],[[4743,8327],[39,18]],[[4782,8345],[29,-24]],[[4756,8239],[-12,34]],[[4744,8273],[15,29],[-16,25]],[[3737,10410],[24,40],[26,10]],[[3787,10460],[19,-38]],[[3806,10422],[10,-37],[45,1]],[[3861,10386],[-23,-62]],[[3838,10324],[-61,33],[-15,36],[-25,17]],[[3861,10386],[119,-18],[37,19],[-16,25]],[[4001,10412],[-12,22],[12,36]],[[4001,10470],[10,-38],[42,-54],[20,-105],[34,-80]],[[4107,10193],[-62,9],[-214,38]],[[3831,10240],[-2,1]],[[3829,10241],[9,83]],[[3806,10422],[25,-11],[22,25]],[[3853,10436],[55,-20],[93,-4]],[[3950,10512],[51,-42]],[[3853,10436],[30,42],[67,34]],[[3805,10487],[47,71]],[[3852,10558],[91,-2],[33,-12]],[[3976,10544],[-26,-32]],[[3787,10460],[18,27]],[[4665,8521],[-2,23]],[[4663,8544],[25,-1],[102,-48]],[[4790,8495],[-13,-69]],[[4777,8426],[-90,-4],[-55,-16]],[[4632,8406],[-57,4]],[[4575,8410],[14,24],[92,53],[-16,34]],[[4682,8599],[47,-37],[57,33]],[[4786,8595],[24,-51]],[[4810,8544],[-20,-49]],[[4663,8544],[19,55]],[[4642,8666],[18,10]],[[4660,8676],[19,69],[22,-6]],[[4701,8739],[61,-96],[24,-48]],[[4682,8599],[-13,2]],[[4669,8601],[5,35],[-36,3],[4,27]],[[7113,6512],[35,64],[4,29]],[[7152,6605],[425,-90],[-18,-189],[-9,-178]],[[7550,6148],[-75,-12],[-82,-35],[-59,9],[-159,6],[-30,-7],[-77,-41],[-75,-30],[-58,-44],[-66,32]],[[6869,6026],[34,56],[42,2],[50,73],[38,26],[8,124],[32,123],[40,82]],[[4810,8544],[37,33],[5,80]],[[4852,8657],[31,-46]],[[4883,8611],[44,3],[44,-15]],[[4971,8599],[-25,-61]],[[4946,8538],[-38,-1],[-29,-20],[8,-55],[-21,-2]],[[4866,8460],[-9,30],[-67,5]],[[5017,8512],[95,22],[112,14]],[[5224,8548],[-5,-47],[-37,-37],[-53,-76]],[[5129,8388],[-70,6],[-42,-4]],[[5017,8390],[5,39],[32,3],[-5,35],[-32,45]],[[4946,8538],[1,-10]],[[4947,8528],[14,-144]],[[4961,8384],[-31,-3],[-26,13]],[[4904,8394],[-38,66]],[[4961,8384],[56,6]],[[5129,8388],[-27,-43]],[[5102,8345],[-15,-30],[-63,-19],[-14,-46]],[[4913,8357],[-9,37]],[[5205,8789],[111,13]],[[5316,8802],[90,10]],[[5406,8812],[0,-135],[24,-24],[-28,-62],[-50,-78]],[[5352,8513],[-50,59],[-77,-7]],[[5225,8565],[8,61],[-1,83],[-27,80]],[[5224,8548],[1,17]],[[5352,8513],[-61,-111],[33,-13],[-46,-101]],[[5278,8288],[-45,14],[-99,41],[-32,2]],[[5819,4905],[11,-17]],[[5830,4888],[85,-143]],[[5915,4745],[-66,-40],[16,-51],[-79,-61]],[[5786,4593],[-20,11],[-10,139]],[[5756,4743],[-2,78],[18,33],[47,51]],[[4433,8418],[104,-6]],[[4537,8412],[38,-2]],[[4632,8406],[-24,-24],[-34,-72]],[[4574,8310],[-88,14]],[[4486,8324],[-32,39],[-45,17]],[[4409,8380],[24,38]],[[4526,8501],[58,1],[34,14],[47,5]],[[4537,8412],[-11,89]],[[4526,8501],[-4,75]],[[4522,8576],[-2,42],[45,-23],[32,14],[72,-8]],[[5066,7291],[83,6],[159,78]],[[5523,7152],[-199,-44],[-56,24],[-19,-13],[-51,-6],[-38,-45],[-33,6]],[[5127,7074],[19,22],[-55,38],[20,25]],[[5111,7159],[6,64],[21,21],[-72,47]],[[5620,7730],[6,6]],[[5626,7736],[71,58]],[[5697,7794],[47,38]],[[6070,7461],[95,-106],[27,6],[45,-30],[-2,-22]],[[6235,7309],[-3,-44],[-112,0],[-58,-18]],[[6092,7688],[228,-115],[339,-455],[176,-254]],[[6815,6834],[-321,99],[-11,53],[-20,22],[-50,142],[-39,-9]],[[6374,7141],[-42,75],[-35,32],[10,59],[-72,2]],[[6374,7141],[-117,-20]],[[6257,7121],[-234,-39],[-26,9]],[[6246,6717],[18,-62],[-6,-43],[-19,-26],[-33,13],[-37,-18],[-53,-7]],[[6116,6574],[-9,117],[83,21],[56,5]],[[6246,6717],[81,21]],[[6327,6738],[13,-71],[134,18],[24,36],[26,-16],[221,26]],[[6273,6263],[-42,41],[-45,89],[-29,12],[-42,-8]],[[6115,6397],[1,177]],[[6327,6738],[-29,152],[-41,231]],[[6115,6397],[-79,-15]],[[1071,3705],[11,295]],[[1082,4000],[51,42],[94,58],[157,166],[202,164],[24,17],[173,98],[86,64]],[[1869,4609],[8,-40],[-24,-57],[27,-46],[8,-32],[-26,-36],[-8,-65],[-34,-118],[18,-16],[37,13],[24,-14],[7,-36],[-6,-29],[-39,-47],[-3,-28],[15,-44],[-22,-2],[-21,-28],[-10,-55],[5,-54],[16,-38]],[[1841,3837],[-27,4],[-42,-26],[1,-47],[-31,-53],[-9,-37],[29,-55],[37,-25],[-2,-38],[-39,-30],[0,-54],[-37,17]],[[1721,3493],[-138,44],[-28,33],[0,25],[-75,3],[-22,-40],[-50,-33],[-12,-31],[-35,-42],[-23,34],[-46,-44],[-44,-25],[4,-54]],[[1252,3363],[-51,26],[-22,2],[-32,34],[-22,-6],[-49,13],[-8,40],[-24,52],[-29,33],[64,22],[-17,47],[26,52],[-17,27]],[[1133,5196],[91,9],[302,49],[68,0],[286,36]],[[1880,5290],[18,-49],[30,-8],[32,-25],[24,23],[35,-3],[16,-39],[18,-6],[13,-58],[-25,-13],[14,-44],[25,-25],[-19,-32],[10,-16],[72,2],[8,-18],[-20,-39],[-39,-30],[-90,-58],[-50,-59],[-4,-19],[-35,-17],[-5,-37],[-32,-1],[1,-44],[-13,-43],[5,-23]],[[1082,4000],[25,524],[16,368],[10,304]],[[4089,9724],[46,-156]],[[4135,9568],[173,-602]],[[4308,8966],[-86,-14]],[[4222,8952],[-195,-30]],[[4027,8922],[-187,-29]],[[3840,8893],[-4,125],[-13,52],[-54,111],[-8,71],[26,46],[86,75],[21,26],[21,49],[20,126],[18,39],[43,44],[93,67]],[[3657,10358],[16,-44],[65,-34],[91,-39]],[[3831,10240],[7,-6],[69,-146],[-216,58],[-61,25],[-31,22],[-116,105],[-43,61],[-13,37]],[[3427,10396],[10,32],[42,3],[70,-34],[46,-31],[62,-8]],[[1101,8754],[462,9],[129,8],[192,2],[231,5]],[[2115,8778],[56,-379],[41,-266],[73,-496],[7,-65],[44,-283]],[[2336,7289],[-315,-9]],[[2021,7280],[-336,-8],[-535,-9]],[[1150,7263],[-9,287],[-5,232],[-10,291],[-9,223],[-16,458]],[[4922,7817],[35,55],[221,46]],[[5178,7918],[8,-47]],[[5186,7871],[-12,-261]],[[5174,7610],[-46,10],[-27,26],[-28,62],[-54,3],[-15,31],[-37,18],[-57,-8]],[[4910,7752],[1,48],[11,17]],[[3622,9017],[44,-37],[17,-44],[-8,-68]],[[3675,8868],[-422,-64]],[[3253,8804],[-46,266]],[[3207,9070],[30,-26],[77,-35],[141,-47],[36,-17],[53,78],[60,3],[18,-9]],[[2238,10098],[-42,94],[-1,76],[-8,89],[15,26],[0,41],[22,69],[31,34],[-13,41]],[[2242,10568],[697,19]],[[2939,10587],[62,-349]],[[3001,10238],[55,-303],[44,-266]],[[3100,9669],[-382,-15],[-101,0],[-264,-7]],[[2353,9647],[-331,-10]],[[2022,9637],[-18,52],[-20,29],[1,53],[19,51],[-5,52],[15,14],[43,-21],[56,-44],[57,10],[-7,98],[6,19],[50,19],[0,34],[22,12],[90,-18],[30,28],[17,72],[-19,17],[-22,81],[-16,-62],[-23,-7],[5,-41],[-37,-41],[-28,54]],[[5284,9110],[126,31]],[[5410,9141],[-2,-109]],[[5408,9032],[0,-1]],[[5408,9031],[-104,24]],[[5304,9055],[-20,55]],[[4250,10368],[116,-70],[14,-95],[-11,-17],[124,-125]],[[4493,10061],[25,-35],[23,-75],[18,-91],[16,-32],[75,-94]],[[4650,9734],[-21,-13]],[[4629,9721],[-67,74],[-17,32],[-85,34],[-4,24],[-35,37],[-64,21],[-4,36],[-28,63],[6,24],[-95,52],[-44,52],[-85,23]],[[4107,10193],[143,175]],[[4588,9010],[44,7]],[[4632,9017],[115,17]],[[4747,9034],[20,-103]],[[4767,8931],[24,-116]],[[4791,8815],[-122,18]],[[4669,8833],[-50,7]],[[4619,8840],[-52,57]],[[4567,8897],[-10,29],[19,21],[12,63]],[[4225,8758],[42,47],[-7,11]],[[4260,8816],[82,17]],[[4342,8833],[21,5]],[[4363,8838],[10,-43],[18,5],[50,-21],[43,-7],[21,-22]],[[4505,8750],[-175,-138]],[[4330,8612],[-41,-33]],[[4289,8579],[-5,37],[11,62],[-25,31],[-27,-6],[-18,55]],[[4027,3788],[7,37],[47,51]],[[4081,3876],[86,-10],[4,-33],[-4,-89],[29,-75],[0,-74],[-14,-88],[-25,-58],[78,-19],[53,-21]],[[4288,3409],[-38,-48],[-6,-42],[-40,-87],[-34,-51],[-1,-44],[28,-52],[-21,-48],[-41,7],[-71,-27],[-52,-5],[-88,-58],[-58,5],[-46,73],[-31,137],[21,41],[-56,22]],[[3754,3232],[87,104],[95,261],[16,116],[59,-1],[16,76]],[[6730,5966],[11,65]],[[6787,6050],[82,-24]],[[7550,6148],[-48,-54],[-17,-131],[16,-89],[19,-14],[66,-114],[37,-353]],[[7623,5393],[-313,-79],[-144,-34],[-392,-98]],[[3659,6918],[3,-155]],[[3662,6763],[-2,-24]],[[3660,6739],[-36,-6],[-33,10],[-69,53],[-45,1]],[[3477,6797],[-23,28],[39,19],[12,65],[-34,1],[-46,-33],[-7,29]],[[3418,6906],[2,171],[105,1],[-14,-18],[23,-53],[29,-27],[20,26],[60,2],[14,-25]],[[3235,7311],[284,8],[1,13]],[[3520,7332],[14,-13],[114,1]],[[3648,7320],[2,-92]],[[3418,6906],[-73,6],[-14,68],[-61,65],[-6,47]],[[3264,7092],[19,70],[-1,61],[-25,6],[-22,82]],[[1174,6466],[398,12],[349,11],[156,3]],[[2077,6492],[284,3],[267,10],[158,2]],[[2786,6507],[319,9]],[[3105,6516],[178,10],[239,6]],[[3522,6532],[8,-239],[2,-178],[13,-274]],[[3545,5841],[-195,-6],[-306,-4],[-117,-3],[-352,1],[-94,-26],[-122,-1],[-370,3],[-386,-2],[-449,-21]],[[1154,5782],[10,278],[10,406]],[[4463,7006],[-13,-42],[66,-13]],[[4516,6951],[147,-22],[9,-36],[-5,-84],[0,-118]],[[4667,6691],[-45,-14],[-50,-42],[-26,-37],[1,-41]],[[4547,6557],[-76,-1]],[[4471,6556],[18,76],[-3,76],[-16,49],[-50,75],[-10,63],[-29,43],[-14,-5],[-49,30]],[[4318,6963],[47,22],[4,29],[94,-8]],[[3648,7320],[170,5]],[[3818,7325],[4,-67],[-50,-11],[6,-64],[23,-7]],[[3801,7176],[-10,-33],[-39,11]],[[2572,7293],[568,15]],[[3140,7308],[95,3]],[[3264,7092],[-20,-15],[-14,-52],[0,-32],[-49,-22],[-92,18],[-23,-27],[-16,-64],[72,-69],[8,-105],[63,6]],[[3193,6730],[-15,-24],[-6,-76],[7,-27],[-58,-54],[-16,-33]],[[2786,6507],[19,56],[28,20],[24,36],[43,18],[23,-2],[30,74],[5,63],[-21,82],[-3,71],[-99,21],[-66,57],[-30,-3],[-23,35],[-48,40],[-57,14],[-53,47],[5,81],[17,51],[-8,25]],[[3477,6797],[-68,-17],[-97,-31],[-119,-19]],[[3662,6763],[39,22],[35,98],[25,-6],[1,44],[36,4]],[[3798,6925],[169,6],[6,-102]],[[3973,6829],[3,-30]],[[3976,6799],[-218,-7],[-44,-44],[-54,-9]],[[4892,7085],[78,32],[-8,43],[-17,21]],[[4945,7181],[74,15],[48,-5],[44,-32]],[[5127,7074],[-14,-62],[-24,-24]],[[5089,6988],[-27,-9],[-119,9],[-154,49]],[[4789,7037],[103,48]],[[4319,6315],[75,78],[28,-28],[29,13],[17,34],[43,45],[29,56],[7,44]],[[4667,6691],[64,8],[150,-21],[147,-57]],[[5028,6621],[30,-199]],[[5058,6422],[-123,18],[-54,-1]],[[4881,6439],[-92,13],[-61,-12],[-50,-38],[-38,8],[-95,-63],[1,-36],[-69,-87],[10,-21],[-13,-28],[-40,-10],[-16,58],[-35,33],[-33,4],[-9,-20],[-43,-28]],[[4298,6212],[-9,51],[38,4],[-8,48]],[[5049,6880],[18,40],[34,21],[-12,47]],[[5392,6704],[-135,114],[-16,31],[-67,-10],[-9,80],[-41,-9],[-29,-24],[-46,-6]],[[4076,7085],[44,100],[53,66],[64,-93],[31,1],[12,32],[29,38],[81,72]],[[4390,7301],[35,-19],[7,27],[48,0],[26,11],[47,-21],[-28,-90]],[[4525,7209],[-62,-203]],[[4318,6963],[-78,35]],[[4240,6998],[-132,78],[-32,9]],[[3960,7104],[48,18],[45,56],[30,12],[-2,40],[44,47],[15,60]],[[4140,7337],[269,9],[35,22],[-8,36],[19,23],[54,6]],[[4509,7433],[-48,-68],[-71,-64]],[[4076,7085],[-62,-130],[-38,-103],[-3,-23]],[[3798,6925],[59,122],[103,57]],[[2021,7280],[0,-145],[62,-158],[11,-145],[-18,-148],[1,-192]],[[1174,6466],[-6,158],[-18,639]],[[2336,7289],[236,4]],[[5028,6621],[17,172],[-5,46],[9,41]],[[5151,6399],[-93,23]],[[4471,6556],[-80,-3]],[[4391,6553],[-312,-6]],[[4079,6547],[12,36],[74,42],[33,47],[9,44],[0,145],[33,137]],[[3818,7325],[322,12]],[[3960,7104],[-59,26],[-52,70],[-39,-6],[-9,-18]],[[3976,6799],[6,-64],[9,-191]],[[3991,6544],[-334,-9]],[[3657,6535],[3,204]],[[3403,8003],[40,2],[77,30],[128,13]],[[3648,8048],[40,-22],[117,-30],[43,-4],[76,6]],[[3924,7998],[52,-98]],[[3976,7900],[-22,-1],[-84,18],[-129,-53],[-106,-64],[77,-56],[55,-17],[32,-36],[4,-50],[38,-55],[38,14],[86,-13],[35,2],[51,-38],[34,16],[57,-36]],[[4142,7531],[42,-24]],[[4184,7507],[-35,-136]],[[4149,7371],[-9,-34]],[[3520,7332],[-14,63],[-87,495],[-16,113]],[[4799,7355],[38,26],[49,-3]],[[4886,7378],[6,-20]],[[4892,7358],[32,-147],[21,-30]],[[4892,7085],[-59,37]],[[4659,9592],[25,-40],[65,-16],[32,-39],[93,-57],[34,-33],[24,5]],[[4932,9412],[54,-1],[-26,-67],[-3,-49],[38,-18],[22,-24]],[[5017,9253],[-29,-10]],[[4988,9243],[-72,-23]],[[4916,9220],[-1,0]],[[4915,9220],[-33,-9],[-48,51],[-35,14],[-21,35],[-126,46]],[[4652,9357],[-32,64],[17,70],[51,-2],[25,24],[-44,36],[-10,43]],[[3675,8868],[165,25]],[[4027,8922],[31,-42],[37,-30],[14,-76],[10,-21]],[[4119,8753],[48,-36],[4,-60],[31,-52],[1,-38],[41,9],[8,-23]],[[4252,8553],[0,-30],[20,-17]],[[4272,8506],[-48,8],[-61,36],[-76,-18],[-36,-48],[-86,3]],[[3965,8487],[-22,22],[-10,34],[11,93],[18,26],[-51,26],[-87,27],[-52,40],[-44,24],[-49,61],[-4,28]],[[3100,9669],[58,-328],[24,-122],[25,-149]],[[3253,8804],[-376,-11]],[[2877,8793],[-446,-11],[-177,-2]],[[2254,8780],[30,232],[29,57],[-4,104],[21,70],[-10,44],[28,67],[-19,73],[-23,28],[21,137],[26,55]],[[3442,9706],[631,73]],[[4073,9779],[16,-55]],[[3622,9017],[46,29],[-4,28],[-38,72],[-17,72],[-28,38],[-20,7],[-9,70],[-45,79],[-31,25],[-10,24],[1,51],[31,20],[-21,87],[-35,87]],[[3976,7900],[27,-28],[106,-63],[27,-29],[30,-54],[12,-44],[0,-61],[-36,-90]],[[5352,8513],[44,-10],[44,-22],[15,-26],[-6,-31],[39,2]],[[5488,8426],[-14,-32],[80,-170],[-1,-21]],[[5553,8203],[-72,35],[-156,39]],[[5325,8277],[-47,11]],[[4272,8506],[56,-31],[21,-29],[2,-35],[-92,-6],[9,-26]],[[4268,8379],[-68,-15],[-102,-42],[-82,2]],[[4016,8324],[-28,59],[-23,-3],[-52,43],[-7,26],[59,38]],[[4629,9721],[32,-49],[-2,-80]],[[4652,9357],[-37,11],[-26,-8],[-37,-37],[-54,-14],[20,-59],[53,-83],[61,-150]],[[4588,9010],[-228,-33],[-52,-11]],[[4135,9568],[29,127],[23,52],[41,1],[-11,25],[54,-1],[137,-25],[48,-57],[18,-11],[54,4],[66,17],[35,21]],[[4917,7532],[79,15],[24,17],[29,-14],[73,1],[84,-6]],[[5206,7545],[24,-57],[71,-105]],[[5066,7291],[-127,64],[-47,3]],[[4886,7378],[-4,26]],[[4882,7404],[4,61],[31,67]],[[1071,9611],[677,16],[189,8]],[[1937,9635],[85,2]],[[2254,8780],[-139,-2]],[[1101,8754],[-12,269],[-18,588]],[[4945,7963],[120,5],[109,-22]],[[5174,7946],[4,-28]],[[4922,7817],[-59,-14],[-19,4]],[[4707,7797],[21,67]],[[4775,7686],[3,22],[-32,9],[-41,-41],[-36,-3]],[[4669,7673],[38,124]],[[4611,7883],[50,42],[-9,42]],[[4652,7967],[97,0]],[[4749,7967],[11,0]],[[4707,7797],[-28,-2],[-79,11]],[[4600,7806],[-4,27],[15,50]],[[4600,7806],[-106,-11],[-34,23]],[[4460,7818],[20,25],[81,69],[50,-29]],[[4449,8197],[99,12],[9,-28]],[[4557,8181],[14,-16]],[[4571,8165],[5,-71],[19,-52],[6,-46],[27,-28]],[[4628,7968],[-115,23],[-45,64]],[[4468,8055],[-21,16],[7,110],[-5,16]],[[4149,7371],[45,57],[43,25],[71,94],[65,100]],[[4373,7647],[36,-40],[50,-32],[-5,-26],[52,-13]],[[4506,7536],[24,-64],[1,-23],[-22,-16]],[[4506,7536],[18,24],[29,5],[11,75]],[[4564,7640],[23,3],[52,32],[30,-2]],[[4777,7557],[-84,-60],[64,-48],[37,-4],[0,-49],[88,8]],[[4543,7200],[-18,9]],[[4391,6553],[-21,-51],[-40,-59],[-26,-26],[-30,-7],[-38,-42],[83,-53]],[[4298,6212],[-18,5],[-28,-29],[12,-34],[-112,-78],[-33,-29],[-19,-40],[6,-32],[19,-7],[10,-107]],[[4135,5861],[0,-13],[-110,0]],[[4025,5848],[31,73],[7,57],[37,37],[15,41],[-6,233],[-4,49],[-26,209]],[[3522,6532],[135,3]],[[3991,6544],[88,3]],[[4025,5848],[-261,0]],[[3764,5848],[-219,-7]],[[4608,7072],[115,-63]],[[4723,7009],[-212,-39],[5,-19]],[[4789,7037],[-27,-18]],[[4762,7019],[-39,-10]],[[4762,7019],[26,-18],[33,-55],[70,-38],[30,-43],[12,-47],[33,-85],[62,-112]],[[4252,8553],[37,26]],[[4330,8612],[16,-94],[63,-21],[28,42]],[[4437,8539],[8,-39]],[[4445,8500],[-34,-26],[-7,-51],[29,-5]],[[4409,8380],[-78,12],[-63,-13]],[[3100,9669],[342,37]],[[4364,7935],[48,9]],[[4412,7944],[36,-57],[7,-39],[-23,-23],[3,-37]],[[4435,7788],[-74,-88]],[[4361,7700],[-36,5],[-51,-14],[-20,19],[-10,37]],[[4244,7747],[11,35],[35,71],[74,82]],[[5058,8186],[48,-36],[43,-67]],[[5149,8083],[34,-18],[55,-61],[20,-73],[-84,15]],[[5553,8203],[-17,-79],[7,-32],[59,-27],[22,-43],[27,-31]],[[5651,7991],[-31,5],[-36,27],[-58,3],[-40,13],[-41,30],[-126,35],[9,29],[-41,9]],[[5287,8142],[25,83],[-12,21],[25,31]],[[5411,9214],[-1,-73]],[[5284,9110],[-6,12]],[[5278,9122],[133,92]],[[1937,9635],[27,179],[4,86],[-48,9],[-44,26],[-39,37],[-19,33],[-73,18],[16,33],[80,-17],[12,36],[33,-42],[55,29],[-10,88],[51,16],[28,-34],[88,-9],[76,-34],[35,16],[29,-7]],[[4068,10635],[325,4]],[[4393,10639],[-18,-118],[-37,-46]],[[4338,10475],[-59,-20],[-45,5],[-21,27],[-33,-8],[-75,20]],[[4105,10499],[-21,22]],[[4084,10521],[6,12],[-33,32],[-6,48]],[[4051,10613],[17,22]],[[1841,3837],[17,45],[27,17],[74,17],[55,-52],[43,27],[47,-3],[67,26],[-12,23],[51,69],[2,35],[38,28],[6,42],[19,29],[2,39],[30,38],[66,-32],[38,11],[51,-3],[48,-52],[-4,-28],[18,-40],[36,-1],[56,-32],[27,19],[44,14],[7,-19],[45,-1],[58,-12]],[[2797,4041],[-71,-27],[-90,-57],[-20,-27],[-17,-53],[-55,-62],[-15,-67],[8,-66],[21,-38],[7,-34],[44,-82],[19,-86],[-26,-61],[-18,-86],[-20,-10],[-15,-84],[3,-73],[60,-8],[37,-19],[8,-23],[-30,-15],[-5,-39],[8,-46]],[[2630,2978],[-18,7],[-96,-27],[-331,-104],[-90,-33],[-56,-35],[-72,-56],[-58,-26],[-66,-7],[-55,15],[-53,-3]],[[1735,2709],[-5,141],[3,102]],[[1733,2952],[-3,228],[-9,313]],[[6275,5106],[67,113],[78,261],[-14,99],[1,65],[-14,61]],[[6393,5705],[4,33],[31,87],[-60,164]],[[6368,5989],[38,23],[57,-18],[12,61],[80,-10]],[[6620,4814],[-29,12],[-317,279]],[[6274,5105],[1,1]],[[5937,4874],[0,-16],[67,24]],[[6004,4882],[39,-115],[1,-35],[-22,-4],[-33,-42],[6,-42]],[[5995,4644],[-59,74]],[[5936,4718],[-21,27]],[[5830,4888],[107,-14]],[[6004,4882],[97,33],[70,48],[103,142]],[[6053,4512],[35,14],[-93,118]],[[5732,4503],[57,56]],[[5789,4559],[35,11]],[[5824,4570],[-11,-59]],[[5813,4511],[3,-62],[18,-72]],[[5834,4377],[-77,-6],[-4,21],[-58,-15],[-14,43]],[[6840,6526],[64,-9],[91,-21],[17,32],[101,-16]],[[6750,6092],[31,175],[7,66]],[[6368,5989],[-5,83],[30,121],[-29,57]],[[5869,5420],[57,-43]],[[5926,5377],[-24,-35],[-24,-55],[33,-16],[22,-29],[-15,-47],[-51,30],[-19,-27],[19,-34],[-14,-54],[69,-55],[0,-34],[-50,-8],[16,-53],[31,8],[45,-6]],[[5964,4962],[-27,-88]],[[5819,4905],[-60,53]],[[787,2768],[42,71],[-1,15],[60,9],[20,12],[23,39],[15,61],[29,42]],[[975,3017],[46,-22],[147,-48],[114,-6],[76,10],[-10,48],[-28,35],[-9,57],[20,38],[39,24],[26,32],[17,84],[-103,18],[-14,11],[-14,51],[-30,14]],[[1733,2952],[-64,-15],[-131,-67],[-22,-20],[-99,-18],[-87,9],[-54,-11],[-29,3],[-50,-15],[-24,-19],[-96,-22],[-78,-41],[-93,-18],[-64,-48],[-41,-4],[-21,18],[-42,11],[-10,44],[59,29]],[[4081,3876],[56,28],[4,12],[86,43]],[[4227,3959],[105,54],[115,99]],[[4447,4112],[63,-101],[48,-11],[31,-41]],[[4589,3959],[-22,-19],[-29,21],[-28,0],[-84,-60],[9,-31],[-6,-80],[29,-71],[-2,-109],[-31,-22],[3,-22],[-61,-46],[0,-52],[-25,-24],[-33,-3],[-21,-32]],[[2797,4041],[28,8],[23,31],[44,28],[26,5]],[[2918,4113],[60,-34],[25,10],[50,-45],[-49,-159]],[[3004,3885],[-136,-450]],[[2868,3435],[-113,-377],[-7,-16]],[[2748,3042],[-75,-30],[-43,-34]],[[2868,3435],[74,20],[123,-2],[63,6],[143,-8],[281,39],[87,41],[15,19],[32,112],[63,134],[38,27],[135,-2],[73,17]],[[3995,3838],[6,-39],[26,-11]],[[3754,3232],[-69,-1],[-62,-41],[-50,-1],[-66,14],[-31,-2],[-135,-31],[-78,-12],[-120,-30],[-74,-29],[-260,-37],[-61,-20]],[[4881,6439],[30,-22],[2,-59],[-7,-86],[8,-51]],[[4914,6221],[-75,-18],[8,-25],[-86,-117],[-38,-17],[-162,-30],[-30,35],[-119,-23],[-24,62],[-44,70],[-46,54]],[[736,3164],[17,-18],[34,-3],[6,30],[58,2]],[[851,3175],[27,1],[15,-45],[-3,-34],[33,-26],[52,-54]],[[787,2768],[-12,36],[-26,28]],[[749,2832],[13,14],[-19,102],[-47,31],[-17,58],[2,75],[55,52]],[[3799,5411],[9,145],[-2,172],[-3,21]],[[3803,5749],[95,10],[93,-4],[20,-12],[42,13],[60,-24],[131,-42],[12,-10],[63,17],[65,-31],[-2,-37]],[[4382,5629],[-7,-57],[-21,-66],[8,-41],[-24,-37],[-12,-65],[3,-42],[-37,-33],[6,-45],[-1,-72]],[[4297,5171],[-7,-46]],[[4290,5125],[-149,114],[-36,56],[-12,35],[-25,121],[-14,35],[-35,6],[-76,-4],[-14,-19],[-58,-29],[-14,-37],[-48,-16],[-10,24]],[[4290,5125],[5,-56],[21,-58],[1,-56],[31,-46],[30,-168],[1,-40],[14,-48]],[[4393,4653],[-330,-21],[-111,28],[-46,5]],[[3906,4665],[-22,103],[-20,73],[-72,168],[0,168],[7,234]],[[4912,10225],[106,-29],[29,-19],[86,47],[10,11]],[[5143,10235],[0,-405]],[[5143,9830],[-29,22],[-57,-20],[-12,-18],[-56,-13],[-64,15]],[[4925,9816],[27,108],[-9,122],[20,74],[0,37],[-51,68]],[[4119,8753],[46,25],[60,-20]],[[4268,8379],[42,-129],[-5,-72]],[[4305,8178],[-18,-24],[-38,-9],[-25,12],[-9,30],[-63,-3],[-81,9]],[[4071,8193],[-27,28],[-28,103]],[[3685,4707],[152,-27]],[[3837,4680],[-75,-247]],[[3762,4433],[-173,32],[-84,-12],[-9,22],[27,63],[21,24],[6,35],[92,66],[43,44]],[[6393,5705],[-53,25],[-59,16],[-34,-52],[-52,-4],[-21,8],[-22,34],[-34,5],[-60,29]],[[6275,5106],[-144,98],[-101,86]],[[6030,5290],[-104,87]],[[4782,8345],[-18,34]],[[4764,8379],[13,47]],[[4764,8379],[-59,7],[-55,-21]],[[4650,8365],[-18,41]],[[4650,8365],[13,-46]],[[4663,8319],[-8,-1]],[[4655,8318],[-81,-8]],[[4743,8327],[-80,-8]],[[4744,8273],[-24,-46]],[[4720,8227],[-33,4]],[[4687,8231],[-15,41]],[[4672,8272],[-17,46]],[[4672,8272],[-38,-35],[-16,6],[-56,-17]],[[4562,8226],[12,84]],[[4571,8165],[79,-33]],[[4650,8132],[29,-21],[23,-43]],[[4702,8068],[37,-66],[10,-35]],[[4652,7967],[-24,1]],[[4707,8101],[84,30]],[[4702,8068],[5,33]],[[4720,8227],[-18,-88],[5,-38]],[[4650,8132],[37,99]],[[4541,8779],[78,61]],[[4669,8833],[32,-94]],[[4660,8676],[-48,48],[-71,55]],[[4562,8226],[-9,-3]],[[4553,8223],[-16,44],[-59,-18],[-14,35],[-45,-5]],[[4419,8279],[0,-1]],[[4419,8278],[-3,24],[55,7],[15,15]],[[4553,8223],[4,-42]],[[4449,8197],[-30,82]],[[3253,8804],[27,-167],[18,-81],[43,-257],[57,-296],[5,0]],[[3140,7308],[-1,19],[36,70],[58,15],[-22,24],[-50,-4],[-82,-35],[-32,17],[-9,44],[48,46],[24,56],[-7,47],[-43,101],[-77,159],[7,137],[32,121],[28,145],[3,35],[37,119],[-22,57],[-7,40],[-25,22],[-51,11],[-30,15],[-49,10],[-21,48],[7,53],[37,52],[-36,26],[-16,35]],[[4505,8750],[36,29]],[[4642,8666],[-119,56],[-18,28]],[[4493,10061],[32,35],[33,11],[42,-21],[110,31],[70,-18],[33,82],[-9,51],[47,4],[61,-11]],[[4925,9816],[0,-6]],[[4925,9810],[-34,20],[-35,7],[-25,-10],[-58,-43],[-44,-50],[-57,-20],[-22,20]],[[4526,8501],[-81,-1]],[[4437,8539],[19,33],[66,4]],[[4222,8952],[41,-21],[1,-32]],[[4264,8899],[-26,-22],[-64,0],[4,-73],[82,12]],[[4567,8897],[-63,-24],[-141,-35]],[[4342,8833],[-17,29],[-42,17],[-19,20]],[[4435,7788],[25,30]],[[4564,7640],[-29,27],[-2,23],[-57,65],[-41,33]],[[3869,10622],[131,11],[68,2]],[[4051,10613],[-30,-16],[-33,15],[-10,-21],[-2,-47]],[[3852,10558],[17,64]],[[4084,10521],[-24,7],[-65,-10],[-19,26]],[[4105,10499],[-105,-7],[1,-22]],[[5149,8083],[59,50],[7,25],[72,-16]],[[5651,7991],[-9,-34],[19,-54],[103,-52]],[[5697,7794],[-29,50],[-55,50],[-130,6],[-72,-25],[-11,-44]],[[5400,7831],[-37,19],[12,39],[-189,-18]],[[4997,9502],[112,8],[-13,-36],[47,-15]],[[5143,9459],[-1,-253]],[[5142,9206],[-15,40],[-28,29],[-23,3],[-59,-25]],[[4932,9412],[-14,46],[44,-7],[45,30],[-10,21]],[[4338,10475],[-88,-107]],[[1071,9611],[-3,289],[-2,45],[-9,582],[271,16],[914,25]],[[4073,9779],[28,10],[29,-19],[7,39],[-31,15],[-7,89],[15,60],[-10,37],[11,36],[-10,76],[-15,21],[17,50]],[[4305,8178],[21,16]],[[4326,8194],[12,-10]],[[4338,8184],[-23,-15],[-15,-65],[-39,3],[-10,-23],[-70,6]],[[4181,8090],[-44,-19],[-50,-41],[-82,-10],[-81,-22]],[[3648,8048],[42,86],[2,26],[31,12],[39,-5],[60,27],[76,-18],[80,0],[93,17]],[[5406,8812],[128,15]],[[5534,8827],[66,7]],[[5600,8834],[-77,-193],[70,-104],[-96,-92],[-9,-19]],[[4925,9810],[2,-16],[39,-81],[-3,-25],[-26,-46],[25,-43],[15,-58],[20,-39]],[[3693,10548],[36,-23],[11,-39],[65,1]],[[3737,10410],[-47,-41],[-33,-11]],[[3657,10358],[-66,189],[102,1]],[[4393,10639],[617,12],[133,0],[-1,-217],[1,-199]],[[4382,5629],[70,-23],[36,-42],[124,-62]],[[4612,5502],[-17,-42],[-35,-19],[6,-27],[65,-15]],[[4631,5399],[-26,-32],[-82,-10],[36,-58],[-2,-74],[-114,-1],[-63,-33],[-83,-20]],[[4112,4245],[228,29],[-54,-128],[-9,-37],[-92,-112],[-2,-23],[44,-15]],[[3995,3838],[-14,10],[-18,49],[-30,25],[-53,-16]],[[3880,3906],[-14,6],[32,68],[18,91],[43,-11],[21,39],[21,-35],[45,-6],[56,23],[20,20],[-10,144]],[[3891,4229],[173,29],[48,-13]],[[3880,3906],[-52,-17]],[[3828,3889],[-51,90],[-30,69],[-36,65],[-4,21],[97,65],[87,30]],[[4767,8931],[140,41]],[[4907,8972],[26,-28],[25,1],[16,28]],[[4974,8973],[3,-20],[-36,-50]],[[4941,8903],[-21,-42],[-13,-81]],[[4907,8780],[-37,-1],[-15,27],[-64,9]],[[4907,8780],[58,1]],[[4965,8781],[83,2]],[[5048,8783],[22,-48],[-19,-11],[-24,-57]],[[5027,8667],[-73,-5],[-44,4],[-27,-55]],[[4852,8657],[11,68],[44,55]],[[4971,8599],[63,4],[13,60],[-20,4]],[[5048,8783],[72,2]],[[5120,8785],[69,5]],[[5189,8790],[16,-1]],[[5017,8512],[-21,22],[-49,-6]],[[2234,728],[49,230],[33,181],[25,70],[40,69],[90,103],[51,98],[62,85],[10,161],[12,55],[57,157],[102,121],[150,90],[172,85],[205,54],[128,0],[211,-90],[192,-169],[160,-248],[76,-106],[29,-66],[27,-95],[19,-109],[-13,-147],[-39,-116],[70,-98],[40,-120],[17,-88],[-1,-145],[-25,-87],[-85,-202],[-31,-63],[-102,-111],[-61,-45],[-92,-52],[-104,-46],[-75,-17],[-170,-18],[-158,-33],[-236,-16],[-178,18],[-70,20],[-112,50],[-99,57],[-92,66],[-153,135],[-28,28],[-42,70],[-34,83],[-22,85],[-5,116]],[[2863,727],[10,-51],[23,-40],[58,-35],[58,-25],[61,-3],[93,21],[167,6],[67,19],[78,10],[51,23],[30,52],[-4,96],[-23,23],[-45,21],[-21,70],[18,10],[-15,37],[-34,-25],[-35,-8],[-32,42],[-15,63],[7,75],[25,73],[30,41],[39,70],[15,53],[-15,41],[-69,102],[-27,15],[-38,1],[-45,19],[-41,64],[-26,0],[6,-75],[-2,-170],[-21,-81],[-23,-26],[-72,-55],[-38,36],[-1,-52],[-13,-89],[-53,-46],[-50,-19],[-13,-50],[-32,-78],[-33,-155]],[[133,2662],[67,-61],[-16,-148],[-12,-52],[53,0],[139,58],[56,3],[41,-22],[-6,-54],[22,-6],[76,56],[157,74],[125,38],[93,32],[439,93],[81,-9],[73,-29],[38,23],[78,27],[98,24]],[[4589,3959],[14,19],[36,15],[29,54],[5,45],[15,25],[28,4],[8,35],[-9,32],[-28,39],[-11,42],[-1,56],[25,15],[36,-5],[17,-42],[21,1],[20,65],[5,52],[-5,49],[-18,16],[0,79],[8,17],[-19,30],[1,56],[15,54]],[[4781,4712],[29,67],[27,41],[-10,25],[8,40],[-17,102],[6,24],[-24,36],[3,35],[-49,35],[-26,57],[59,85],[31,34],[-31,22],[-114,41],[-42,43]],[[4612,5502],[-2,58],[62,61]],[[4672,5621],[149,21],[82,3],[40,57],[3,107],[6,34],[-13,15],[-105,4],[-21,19],[44,49],[24,-10],[13,28],[36,-18],[31,73],[-28,15],[-24,33],[-2,25],[48,33],[-4,44],[-37,68]],[[3891,2445],[-168,13],[-169,43],[-128,43],[-179,54],[-96,-48],[-128,-49],[-258,-76],[-75,-13],[-38,-19],[-204,-73],[-25,-3],[-128,-87],[-219,-74],[-105,-22],[-58,-2],[-82,7],[-33,-18],[-92,-32],[-66,-16],[-257,-14],[-123,10],[-128,-34],[0,-255],[5,-758],[-1,-1],[-620,759],[-39,42],[-209,260],[-268,326],[55,94],[13,39],[65,121]],[[5756,4743],[-17,-3],[7,-71],[-36,-12]],[[6030,5290],[-13,-67],[5,-111],[-25,-94],[-33,-56]],[[5786,4593],[3,-34]],[[7623,5393],[53,-474],[18,-279],[6,-33]],[[6934,6723],[27,-38],[193,-42],[-2,-38]],[[5936,4718],[-4,-52],[-43,-11],[28,-44],[-45,-42],[-29,20],[-19,-19]],[[6013,4493],[-40,15],[-12,23],[-48,-6],[-60,-25],[-40,11]],[[5995,4386],[-161,-9]],[[5400,7831],[15,-37]],[[5415,7794],[-29,-82],[26,-40],[0,-108]],[[5206,7545],[-32,65]],[[5626,7736],[-84,24],[-87,2],[-8,20],[-32,12]],[[5050,9149],[58,10],[33,37]],[[5141,9196],[-15,-33],[29,-22],[-8,-45]],[[5147,9096],[-111,-17]],[[5036,9079],[-36,36]],[[5000,9115],[50,34]],[[5142,9206],[-1,-10]],[[5050,9149],[-62,94]],[[5000,9115],[-43,29],[8,21],[-49,55]],[[5036,9079],[-111,-18]],[[4925,9061],[-35,123],[25,36]],[[5147,9096],[-8,-74],[-15,-12]],[[5124,9010],[-13,-37]],[[5111,8973],[-26,27],[-20,53]],[[5065,9053],[-29,26]],[[5192,9213],[52,7]],[[5244,9220],[-11,-26]],[[5233,9194],[-40,-92]],[[5193,9102],[-24,8],[-3,56],[26,47]],[[5233,9194],[45,-72]],[[5284,9110],[-44,-12],[-47,4]],[[5244,9220],[162,22]],[[5406,9242],[5,-28]],[[5406,9242],[154,22],[-11,-98]],[[5549,9166],[-41,3],[-98,-28]],[[5549,9166],[-10,-96],[20,-66]],[[5559,9004],[-23,-21],[-27,26],[-101,23]],[[5142,9206],[50,7]],[[5304,9055],[-77,-17],[-2,-15]],[[5225,9023],[-67,-14],[-34,1]],[[4974,8973],[19,30],[72,50]],[[5111,8973],[1,-9]],[[5112,8964],[-36,-34]],[[5076,8930],[-10,6],[-91,-16],[-34,-17]],[[5047,8892],[72,-13],[1,-94]],[[4965,8781],[82,111]],[[4373,7647],[-12,53]],[[4925,9061],[-26,-3]],[[4899,9058],[-152,-24]],[[3001,10238],[25,33],[18,82],[15,24],[82,-4],[22,11],[31,38],[72,-9],[26,15],[57,-40],[78,8]],[[2939,10587],[761,21]],[[3700,10608],[-7,-60]],[[5143,9830],[0,-371]],[[5170,8861],[29,19],[-15,24],[33,20],[-14,30],[34,10],[-12,59]],[[5304,9055],[5,-116]],[[5309,8939],[7,-137]],[[5189,8790],[-19,71]],[[4449,8197],[-111,-13]],[[4326,8194],[33,72],[60,12]],[[4412,7944],[49,-4],[-13,72],[20,43]],[[5076,8930],[-29,-38]],[[5112,8964],[41,-47],[17,-56]],[[5408,9031],[-1,-95]],[[5407,8936],[-98,3]],[[5559,9004],[47,-155],[-6,-15]],[[5534,8827],[22,36],[-17,21],[-132,9],[0,43]],[[3764,5848],[39,-99]],[[3906,4665],[-69,15]],[[3685,4707],[-386,118],[-167,49],[-53,20],[-201,60]],[[2878,4954],[-76,453],[-77,-9],[-248,-34],[-328,-42],[-269,-32]],[[1133,5196],[6,199],[15,387]],[[4672,5621],[-54,30],[7,46],[-85,30],[-45,25],[-10,24],[44,9],[-94,49],[-31,22],[-12,-35],[-29,34],[-50,13],[-8,-52],[-39,4],[-14,28],[-70,-6],[-47,19]],[[851,3175],[-4,35],[40,14],[18,41],[-9,56],[-18,19],[-55,2],[-3,59],[21,59],[-10,55],[-46,-14],[-27,-37],[-31,-15],[-15,-44],[-64,37]],[[648,3442],[-12,32],[11,32],[-4,39],[-20,27],[15,62],[27,19],[50,-9],[61,31],[74,59],[73,0],[59,-32],[31,9],[19,-20],[39,14]],[[2878,4954],[44,-250],[10,-29],[-20,-35],[12,-122],[20,2],[41,-48],[-6,-14],[20,-39],[-52,-36],[9,-30],[57,-73],[23,-57],[-18,-43],[-100,-67]],[[3004,3885],[23,4],[120,-24],[95,-27],[69,9],[164,-23],[50,4],[19,19],[50,24],[39,1],[56,38],[125,-45],[14,24]],[[3762,4433],[28,-32],[69,-99],[32,-73]],[[3700,10608],[169,14]],[[736,3164],[-6,67],[18,29],[-27,45],[9,48],[-30,40],[-30,14],[-22,35]],[[4471,4685],[19,11],[273,7],[18,9]],[[4447,4112],[17,66],[-3,43],[27,82],[-12,43],[22,102],[-4,65],[11,25],[-34,147]],[[4184,7507],[60,240]],[[4254,7906],[110,29]],[[3976,7900],[61,8],[45,-24],[67,-9],[55,10],[50,21]],[[4181,8090],[57,-31],[19,-41],[-9,-72],[6,-40]],[[4899,9058],[8,-86]],[[4915,7668],[7,-115],[-5,-21]],[[4393,4653],[43,8],[35,24]],[[133,2662],[16,41],[97,-51],[74,-44],[78,-31],[89,19],[54,45],[41,57],[31,13],[71,50],[65,71]]],"transform":{"scale":[0.00010224640939178182,0.00008665514975119643],"translate":[-71.907258,41.095834]},"objects":{"Tract_44_2025":{"type":"GeometryCollection","geometries":[{"arcs":[[0,1,2,3,4,5]],"type":"Polygon","properties":{"id":"14000US44001030300"}},{"arcs":[[6,7,8,9,10,11]],"type":"Polygon","properties":{"id":"14000US44001030100"}},{"arcs":[[-10,12,-5,13,14,15,16,17,18]],"type":"Polygon","properties":{"id":"14000US44001030400"}},{"arcs":[[19,20,21,22]],"type":"Polygon","properties":{"id":"14000US44003021001"}},{"arcs":[[23,24,25,26]],"type":"Polygon","properties":{"id":"14000US44003980000"}},{"arcs":[[27,28,29,30]],"type":"Polygon","properties":{"id":"14000US44003020300"}},{"arcs":[[31,32,33,-17,34,35,36,37,38,39,40,41,42,43,44,45,46,47,48,49,50,51,52,53,54,55,56,57,58,59,60],[61],[62],[63],[64],[65]],"type":"Polygon","properties":{"id":"14000US44005990000"}},{"arcs":[[[-65]],[[-62]]],"type":"MultiPolygon","properties":{"id":"14000US44005041300"}},{"arcs":[[66,67,68,69]],"type":"Polygon","properties":{"id":"14000US44007000400"}},{"arcs":[[70,71,72,73,74,75]],"type":"Polygon","properties":{"id":"14000US44007000102"}},{"arcs":[[-69,76,-73,77]],"type":"Polygon","properties":{"id":"14000US44007000500"}},{"arcs":[[78,79,80,-77,-68,81,82]],"type":"Polygon","properties":{"id":"14000US44007000600"}},{"arcs":[[83,84,-82,-67,85,86]],"type":"Polygon","properties":{"id":"14000US44007000700"}},{"arcs":[[87,88,89,90,91]],"type":"Polygon","properties":{"id":"14000US44007017600"}},{"arcs":[[-91,92,93,94,95,96,97]],"type":"Polygon","properties":{"id":"14000US44007017700"}},{"arcs":[[98,99,-93,-90]],"type":"Polygon","properties":{"id":"14000US44007017800"}},{"arcs":[[100,-94,-100,101]],"type":"Polygon","properties":{"id":"14000US44007017900"}},{"arcs":[[102,103,104,-102,-99,-89,105]],"type":"Polygon","properties":{"id":"14000US44007018000"}},{"arcs":[[106,107,108,109,110,111]],"type":"Polygon","properties":{"id":"14000US44007002500"}},{"arcs":[[112,113,114,-108,115]],"type":"Polygon","properties":{"id":"14000US44007002600"}},{"arcs":[[116,117,118,-113,119,120]],"type":"Polygon","properties":{"id":"14000US44007002700"}},{"arcs":[[121,122,123,124]],"type":"Polygon","properties":{"id":"14000US44005041701"}},{"arcs":[[-115,125,126,127,128,129,130]],"type":"Polygon","properties":{"id":"14000US44007003100"}},{"arcs":[[131,132,133,134]],"type":"Polygon","properties":{"id":"14000US44007003500"}},{"arcs":[[-130,135,136,137,138]],"type":"Polygon","properties":{"id":"14000US44007003602"}},{"arcs":[[-138,139,-134,140,141,-79,142]],"type":"Polygon","properties":{"id":"14000US44007003700"}},{"arcs":[[143,144,145,146,147]],"type":"Polygon","properties":{"id":"14000US44007010101"}},{"arcs":[[-133,148,-147,149,150,-141]],"type":"Polygon","properties":{"id":"14000US44007010200"}},{"arcs":[[151,152,153,154,155]],"type":"Polygon","properties":{"id":"14000US44005040500"}},{"arcs":[[156,157,-111,158,159,160,161]],"type":"Polygon","properties":{"id":"14000US44007001900"}},{"arcs":[[162,-112,-158,163]],"type":"Polygon","properties":{"id":"14000US44007002200"}},{"arcs":[[-120,-116,-107,-163,164,165]],"type":"Polygon","properties":{"id":"14000US44007002300"}},{"arcs":[[166,-11,-19,167,168,169]],"type":"Polygon","properties":{"id":"14000US44003021501"}},{"arcs":[[170,171,172,-6,-13,-9]],"type":"Polygon","properties":{"id":"14000US44001030200"}},{"arcs":[[173,174,-14,-4]],"type":"Polygon","properties":{"id":"14000US44001030500"}},{"arcs":[[175,-39,176,177,-174,-3]],"type":"Polygon","properties":{"id":"14000US44001030601"}},{"arcs":[[-175,-178,178,179,-15]],"type":"Polygon","properties":{"id":"14000US44001030602"}},{"arcs":[[180,181]],"type":"Polygon","properties":{"id":"14000US44001030700"}},{"arcs":[[-181,182,183,-37,184,185]],"type":"Polygon","properties":{"id":"14000US44001030800"}},{"arcs":[[-179,-177,-38,-184,186]],"type":"Polygon","properties":{"id":"14000US44001030901"}},{"arcs":[[-16,-180,-187,-183,-182,-186,187,-35]],"type":"Polygon","properties":{"id":"14000US44001030902"}},{"arcs":[[188,189,190,191,192,193]],"type":"Polygon","properties":{"id":"14000US44009050702"}},{"arcs":[[194,195,-190,196]],"type":"Polygon","properties":{"id":"14000US44009050701"}},{"arcs":[[197,198,199,200,201,202]],"type":"Polygon","properties":{"id":"14000US44007012602"}},{"arcs":[[203,-97,204,205]],"type":"Polygon","properties":{"id":"14000US44007012802"}},{"arcs":[[206,207,208,209,210]],"type":"Polygon","properties":{"id":"14000US44007013300"}},{"arcs":[[211,212,213,214,215]],"type":"Polygon","properties":{"id":"14000US44007013400"}},{"arcs":[[216,217,218,219]],"type":"Polygon","properties":{"id":"14000US44007012702"}},{"arcs":[[220,221,222,223,224,225,226]],"type":"Polygon","properties":{"id":"14000US44007013002"}},{"arcs":[[227,228,229,230,231]],"type":"Polygon","properties":{"id":"14000US44007015900"}},{"arcs":[[232,233,234,235,236]],"type":"Polygon","properties":{"id":"14000US44007011403"}},{"arcs":[[237,238,239,240,241,242,243,244]],"type":"Polygon","properties":{"id":"14000US44007011800"}},{"arcs":[[245,246,247,248,249,250,251]],"type":"Polygon","properties":{"id":"14000US44007012000"}},{"arcs":[[252,253,254,255]],"type":"Polygon","properties":{"id":"14000US44009051504"}},{"arcs":[[256,-57,257,-124,258,259,-59]],"type":"Polygon","properties":{"id":"14000US44005041702"}},{"arcs":[[-30,260,261,262,263,264]],"type":"Polygon","properties":{"id":"14000US44003020604"}},{"arcs":[[265,266,267,-31,-265,268,269]],"type":"Polygon","properties":{"id":"14000US44003020601"}},{"arcs":[[270,271,272,273,274,275,276]],"type":"Polygon","properties":{"id":"14000US44003020800"}},{"arcs":[[277,278,279,280,281,282]],"type":"Polygon","properties":{"id":"14000US44003022000"}},{"arcs":[[283,284,285,-28,-268]],"type":"Polygon","properties":{"id":"14000US44003020400"}},{"arcs":[[286,287,-270,288,289,-273,290]],"type":"Polygon","properties":{"id":"14000US44003020703"}},{"arcs":[[-269,-264,291,-289]],"type":"Polygon","properties":{"id":"14000US44003020602"}},{"arcs":[[292,293,294,295,-262]],"type":"Polygon","properties":{"id":"14000US44003020102"}},{"arcs":[[296,297,-169,298,299,300]],"type":"Polygon","properties":{"id":"14000US44003021800"}},{"arcs":[[301,-280,302,303,304,305,306]],"type":"Polygon","properties":{"id":"14000US44003022400"}},{"arcs":[[307,-299,-168,-18,-34,308]],"type":"Polygon","properties":{"id":"14000US44003021502"}},{"arcs":[[309,310,311,-283,312,313]],"type":"Polygon","properties":{"id":"14000US44003022100"}},{"arcs":[[314,315,316,-310,317,-294,318]],"type":"Polygon","properties":{"id":"14000US44003022300"}},{"arcs":[[-210,319,-271,320]],"type":"Polygon","properties":{"id":"14000US44003020701"}},{"arcs":[[-209,321,-291,-272,-320]],"type":"Polygon","properties":{"id":"14000US44003020702"}},{"arcs":[[322,-309,-33,323,-304]],"type":"Polygon","properties":{"id":"14000US44003021600"}},{"arcs":[[-313,-282,324,325,326]],"type":"Polygon","properties":{"id":"14000US44003022201"}},{"arcs":[[327,-315,328,-285]],"type":"Polygon","properties":{"id":"14000US44003020500"}},{"arcs":[[-296,329,330,331]],"type":"Polygon","properties":{"id":"14000US44003020101"}},{"arcs":[[332,333,334,335,336,337,338,-328,-284,-267,339]],"type":"Polygon","properties":{"id":"14000US44007014600"}},{"arcs":[[340,341,342,-297,343,-24]],"type":"Polygon","properties":{"id":"14000US44003021401"}},{"arcs":[[344,345,346,347,348,349,350]],"type":"Polygon","properties":{"id":"14000US44007011701"}},{"arcs":[[351,-202,352,353,354,355,356]],"type":"Polygon","properties":{"id":"14000US44007012300"}},{"arcs":[[-225,357,-219,358,359,360]],"type":"Polygon","properties":{"id":"14000US44007013102"}},{"arcs":[[361,362,-203,-352,-217,363]],"type":"Polygon","properties":{"id":"14000US44007012601"}},{"arcs":[[364,-336]],"type":"Polygon","properties":{"id":"14000US44007014501"}},{"arcs":[[-150,365,366,367,368]],"type":"Polygon","properties":{"id":"14000US44007010300"}},{"arcs":[[-356,369,370,371]],"type":"Polygon","properties":{"id":"14000US44007012401"}},{"arcs":[[372,-351,373,-238,374,-199,375]],"type":"Polygon","properties":{"id":"14000US44007011600"}},{"arcs":[[376,377,-12,-167,378,-342,379,380]],"type":"Polygon","properties":{"id":"14000US44003021300"}},{"arcs":[[381,382,-226,-361,383,-207,384]],"type":"Polygon","properties":{"id":"14000US44007013101"}},{"arcs":[[-75,385,386,-212,387]],"type":"Polygon","properties":{"id":"14000US44007013500"}},{"arcs":[[388,-76,-388,-216,-20,389,390]],"type":"Polygon","properties":{"id":"14000US44007013600"}},{"arcs":[[391,392,393,-71,-389,394,395]],"type":"Polygon","properties":{"id":"14000US44007013701"}},{"arcs":[[-396,396,397]],"type":"Polygon","properties":{"id":"14000US44007013702"}},{"arcs":[[398,399,400,401,402]],"type":"Polygon","properties":{"id":"14000US44007014100"}},{"arcs":[[403,404,405,-316,-339]],"type":"Polygon","properties":{"id":"14000US44007014200"}},{"arcs":[[-406,406,407,-390,-23,408,-380,-341,-27,409,-311,-317]],"type":"Polygon","properties":{"id":"14000US44003021100"}},{"arcs":[[-326,410,-307,411,412,413]],"type":"Polygon","properties":{"id":"14000US44003020904"}},{"arcs":[[-29,-286,-329,-319,-293,-261]],"type":"Polygon","properties":{"id":"14000US44003020200"}},{"arcs":[[414,-331,415,-414,416,417,-275]],"type":"Polygon","properties":{"id":"14000US44003020903"}},{"arcs":[[-312,-410,-26,418,419,-278]],"type":"Polygon","properties":{"id":"14000US44003021901"}},{"arcs":[[-344,-301,420,421,-419,-25]],"type":"Polygon","properties":{"id":"14000US44003021902"}},{"arcs":[[-422,422,-303,-279,-420]],"type":"Polygon","properties":{"id":"14000US44003021903"}},{"arcs":[[423,-251,424,425,426,-162,427,-370,-355]],"type":"Polygon","properties":{"id":"14000US44007002000"}},{"arcs":[[428,-364,-220,-358]],"type":"Polygon","properties":{"id":"14000US44007012701"}},{"arcs":[[429,430,431,432,433]],"type":"Polygon","properties":{"id":"14000US44007014300"}},{"arcs":[[-81,434,435,-386,-74]],"type":"Polygon","properties":{"id":"14000US44007000101"}},{"arcs":[[-368,436,437,438]],"type":"Polygon","properties":{"id":"14000US44007010501"}},{"arcs":[[439,-228,440,441]],"type":"Polygon","properties":{"id":"14000US44007015600"}},{"arcs":[[-227,-383,442]],"type":"Polygon","properties":{"id":"14000US44007012900"}},{"arcs":[[443,444,445,446,447,448]],"type":"Polygon","properties":{"id":"14000US44007018400"}},{"arcs":[[-192,449,450,451,452,453]],"type":"Polygon","properties":{"id":"14000US44009051101"}},{"arcs":[[454,455,456,-54,457,458]],"type":"Polygon","properties":{"id":"14000US44005040102"}},{"arcs":[[459,460,461,462,-153,463]],"type":"Polygon","properties":{"id":"14000US44005040302"}},{"arcs":[[464,-458,-53,465,-461]],"type":"Polygon","properties":{"id":"14000US44005040400"}},{"arcs":[[466,467,468,469,470,-49]],"type":"Polygon","properties":{"id":"14000US44005041000"}},{"arcs":[[-42,471,-125,-258,-56,472]],"type":"Polygon","properties":{"id":"14000US44005041602"}},{"arcs":[[[-257,-58]],[[-43,-473,-55,-457,473]]],"type":"MultiPolygon","properties":{"id":"14000US44005040101"}},{"arcs":[[474,475,476,-464,-152,477,-46]],"type":"Polygon","properties":{"id":"14000US44005040200"}},{"arcs":[[478,479,-193,-454,480]],"type":"Polygon","properties":{"id":"14000US44009050902"}},{"arcs":[[481,482,483,484,-254]],"type":"Polygon","properties":{"id":"14000US44009051503"}},{"arcs":[[485,486,487,488,489,-451]],"type":"Polygon","properties":{"id":"14000US44009051102"}},{"arcs":[[490,491,-256,492,-489]],"type":"Polygon","properties":{"id":"14000US44009051302"}},{"arcs":[[-306,493,494]],"type":"Polygon","properties":{"id":"14000US44009050104"}},{"arcs":[[495,496,-479,497,498]],"type":"Polygon","properties":{"id":"14000US44009050802"}},{"arcs":[[499,500,501,502,503]],"type":"Polygon","properties":{"id":"14000US44009050301"}},{"arcs":[[-504,504,505,506]],"type":"Polygon","properties":{"id":"14000US44009050401"}},{"arcs":[[507,508,509,510]],"type":"Polygon","properties":{"id":"14000US44007011404"}},{"arcs":[[511,-252,-424,-354]],"type":"Polygon","properties":{"id":"14000US44007012102"}},{"arcs":[[-371,512,513,514]],"type":"Polygon","properties":{"id":"14000US44007012402"}},{"arcs":[[515,516,517]],"type":"Polygon","properties":{"id":"14000US44009051400"}},{"arcs":[[[-474,-456,518,-44]],[[-188,-185,-36]],[[-64]],[[-63]]],"type":"MultiPolygon","properties":{"id":"14000US44005040105"}},{"arcs":[[-519,-455,519,520,-475,-45]],"type":"Polygon","properties":{"id":"14000US44005040104"}},{"arcs":[[-109,-131,-139,-143,-83,-85,521,522]],"type":"Polygon","properties":{"id":"14000US44007000800"}},{"arcs":[[-110,-523,523,524]],"type":"Polygon","properties":{"id":"14000US44007000900"}},{"arcs":[[-159,-525,525,526,527]],"type":"Polygon","properties":{"id":"14000US44007001000"}},{"arcs":[[-524,-522,-84,528,-526]],"type":"Polygon","properties":{"id":"14000US44007001100"}},{"arcs":[[-527,-529,-87,529,530,531,532]],"type":"Polygon","properties":{"id":"14000US44007001200"}},{"arcs":[[-528,-533,533,534]],"type":"Polygon","properties":{"id":"14000US44007001300"}},{"arcs":[[535,536,537,-393,538,-401]],"type":"Polygon","properties":{"id":"14000US44007001500"}},{"arcs":[[539,-78,-72,-394,-538,540]],"type":"Polygon","properties":{"id":"14000US44007000200"}},{"arcs":[[-531,541,-541,-537,542]],"type":"Polygon","properties":{"id":"14000US44007000301"}},{"arcs":[[543,-243,544,-118,545]],"type":"Polygon","properties":{"id":"14000US44007002802"}},{"arcs":[[-160,-535,546,547,548,549]],"type":"Polygon","properties":{"id":"14000US44007001601"}},{"arcs":[[-548,550,-399,551]],"type":"Polygon","properties":{"id":"14000US44007001602"}},{"arcs":[[-359,552,-340,-266,-288,553]],"type":"Polygon","properties":{"id":"14000US44007013201"}},{"arcs":[[-530,-86,-70,-540,-542]],"type":"Polygon","properties":{"id":"14000US44007000302"}},{"arcs":[[554,-546,-117,555]],"type":"Polygon","properties":{"id":"14000US44007002801"}},{"arcs":[[556,-511,557,558,-234]],"type":"Polygon","properties":{"id":"14000US44007011405"}},{"arcs":[[-325,-281,-302,-411]],"type":"Polygon","properties":{"id":"14000US44003020901"}},{"arcs":[[-170,-298,-343,-379]],"type":"Polygon","properties":{"id":"14000US44003021402"}},{"arcs":[[-165,559,-426,560]],"type":"Polygon","properties":{"id":"14000US44007002101"}},{"arcs":[[-560,-164,-157,-427]],"type":"Polygon","properties":{"id":"14000US44007002102"}},{"arcs":[[-201,561,562,-246,-512,-353]],"type":"Polygon","properties":{"id":"14000US44007012104"}},{"arcs":[[-200,-375,-245,563,-248,564,-562]],"type":"Polygon","properties":{"id":"14000US44007011902"}},{"arcs":[[-564,-244,-544,-555,-249]],"type":"Polygon","properties":{"id":"14000US44007011901"}},{"arcs":[[-565,-247,-563]],"type":"Polygon","properties":{"id":"14000US44007012103"}},{"arcs":[[565,-397,-395,-391,-408,566]],"type":"Polygon","properties":{"id":"14000US44007013800"}},{"arcs":[[-314,-327,-416,-330,-295,-318]],"type":"Polygon","properties":{"id":"14000US44003022202"}},{"arcs":[[567,-449,568,-104,569]],"type":"Polygon","properties":{"id":"14000US44007018100"}},{"arcs":[[-569,-448,570]],"type":"Polygon","properties":{"id":"14000US44007018200"}},{"arcs":[[-571,-447,571,-101,-105]],"type":"Polygon","properties":{"id":"14000US44007018300"}},{"arcs":[[572,-438,573,-1,-173,574,575,-213,-387,-436]],"type":"Polygon","properties":{"id":"14000US44007010502"}},{"arcs":[[576,577,578,-346,579]],"type":"Polygon","properties":{"id":"14000US44007011200"}},{"arcs":[[-446,580,-237,-95,-572]],"type":"Polygon","properties":{"id":"14000US44007018500"}},{"arcs":[[-221,-443,-382,581]],"type":"Polygon","properties":{"id":"14000US44007013001"}},{"arcs":[[582,-236,-376,-198,-363]],"type":"Polygon","properties":{"id":"14000US44007011500"}},{"arcs":[[-514,583,584,585,586,-334,587]],"type":"Polygon","properties":{"id":"14000US44007012500"}},{"arcs":[[588,589,590,-366,-146]],"type":"Polygon","properties":{"id":"14000US44007010102"}},{"arcs":[[-235,-559,591,-580,-345,-373]],"type":"Polygon","properties":{"id":"14000US44007011301"}},{"arcs":[[592,-106,-88,593,594]],"type":"Polygon","properties":{"id":"14000US44007017400"}},{"arcs":[[-581,-445,595,-508,-557,-233]],"type":"Polygon","properties":{"id":"14000US44007011402"}},{"arcs":[[-218,-357,-372,-515,-588,-333,-553]],"type":"Polygon","properties":{"id":"14000US44007012200"}},{"arcs":[[596,597,598,-502]],"type":"Polygon","properties":{"id":"14000US44009050302"}},{"arcs":[[599,-482,-253,-492,600,601]],"type":"Polygon","properties":{"id":"14000US44009051202"}},{"arcs":[[602,-602,603,604]],"type":"Polygon","properties":{"id":"14000US44009051201"}},{"arcs":[[605,606,607,608,609,-241]],"type":"Polygon","properties":{"id":"14000US44007016300"}},{"arcs":[[610,611,612,613,-127,614]],"type":"Polygon","properties":{"id":"14000US44007003300"}},{"arcs":[[-129,615,-613,616,617,618,-148,-149,-132,619,-136]],"type":"Polygon","properties":{"id":"14000US44007003400"}},{"arcs":[[-594,-92,-98,-204]],"type":"Polygon","properties":{"id":"14000US44007017500"}},{"arcs":[[620],[621]],"type":"Polygon","properties":{"id":"14000US44009990200"}},{"arcs":[[622,-452,-490,-493,-255,-485,623,624,-598,625,626,-494,-305,-324,-32,627]],"type":"Polygon","properties":{"id":"14000US44009990100"}},{"arcs":[[-478,-156,628,-47]],"type":"Polygon","properties":{"id":"14000US44005041200"}},{"arcs":[[-521,629,-476]],"type":"Polygon","properties":{"id":"14000US44005040303"}},{"arcs":[[[-629,-155,630,-467,-48]],[[-66]]],"type":"MultiPolygon","properties":{"id":"14000US44005041100"}},{"arcs":[[-260,631,-60]],"type":"Polygon","properties":{"id":"14000US44005041400"}},{"arcs":[[632,-122,-472,-41]],"type":"Polygon","properties":{"id":"14000US44005041601"}},{"arcs":[[-154,-463,633,-468,-631]],"type":"Polygon","properties":{"id":"14000US44005040600"}},{"arcs":[[-634,-462,-466,-52,634,-469]],"type":"Polygon","properties":{"id":"14000US44005040700"}},{"arcs":[[-635,-51,635,-470]],"type":"Polygon","properties":{"id":"14000US44005040800"}},{"arcs":[[-576,636,637,-7,-378,638,-214]],"type":"Polygon","properties":{"id":"14000US44007010600"}},{"arcs":[[-172,639,-637,-575]],"type":"Polygon","properties":{"id":"14000US44007010701"}},{"arcs":[[-640,-171,-8,-638]],"type":"Polygon","properties":{"id":"14000US44007010702"}},{"arcs":[[640,641,642,643,644]],"type":"Polygon","properties":{"id":"14000US44007010800"}},{"arcs":[[-347,-579,645,-641,646]],"type":"Polygon","properties":{"id":"14000US44007010900"}},{"arcs":[[-348,-647,-645,647]],"type":"Polygon","properties":{"id":"14000US44007011000"}},{"arcs":[[-349,-648,-644,648,649]],"type":"Polygon","properties":{"id":"14000US44007011100"}},{"arcs":[[-643,650,651,652,653]],"type":"Polygon","properties":{"id":"14000US44007015200"}},{"arcs":[[654,655,656,657]],"type":"Polygon","properties":{"id":"14000US44007015300"}},{"arcs":[[-657,658,-441,659]],"type":"Polygon","properties":{"id":"14000US44007015400"}},{"arcs":[[660,661,-442,-659,-656]],"type":"Polygon","properties":{"id":"14000US44007015500"}},{"arcs":[[662,663,-440,-662]],"type":"Polygon","properties":{"id":"14000US44007015700"}},{"arcs":[[-664,664,665,-229]],"type":"Polygon","properties":{"id":"14000US44007015800"}},{"arcs":[[-651,-642,-646,666,-658,-660,-232,667,668]],"type":"Polygon","properties":{"id":"14000US44007016000"}},{"arcs":[[-608,669,-653,670,671,672]],"type":"Polygon","properties":{"id":"14000US44007016100"}},{"arcs":[[673,-617,-612,674]],"type":"Polygon","properties":{"id":"14000US44007016500"}},{"arcs":[[-471,-636,-50]],"type":"Polygon","properties":{"id":"14000US44005040900"}},{"arcs":[[-620,-135,-140,-137]],"type":"Polygon","properties":{"id":"14000US44007003601"}},{"arcs":[[-384,-360,-554,-287,-322,-208]],"type":"Polygon","properties":{"id":"14000US44007013202"}},{"arcs":[[-432,-567,-407,-405,675]],"type":"Polygon","properties":{"id":"14000US44007013900"}},{"arcs":[[-350,-650,676,677,-239,-374]],"type":"Polygon","properties":{"id":"14000US44007011702"}},{"arcs":[[678,-205,-96,-583,-362,-429,-224]],"type":"Polygon","properties":{"id":"14000US44007012803"}},{"arcs":[[679,680,-595,-206,-679,-223]],"type":"Polygon","properties":{"id":"14000US44007012801"}},{"arcs":[[-510,681,-577,-592,-558]],"type":"Polygon","properties":{"id":"14000US44007011302"}},{"arcs":[[682,-668,683,684,-144,-619,685]],"type":"Polygon","properties":{"id":"14000US44007017100"}},{"arcs":[[-549,-552,686,-585,687]],"type":"Polygon","properties":{"id":"14000US44007001700"}},{"arcs":[[-616,-128,-614]],"type":"Polygon","properties":{"id":"14000US44007003200"}},{"arcs":[[688,-402,-539,-392,-398,-566,-431]],"type":"Polygon","properties":{"id":"14000US44007014000"}},{"arcs":[[-673,689,-675,-611,-609]],"type":"Polygon","properties":{"id":"14000US44007016400"}},{"arcs":[[-690,-672,690,-686,-618,-674]],"type":"Polygon","properties":{"id":"14000US44007016600"}},{"arcs":[[-669,-683,-691,-671,-652]],"type":"Polygon","properties":{"id":"14000US44007016700"}},{"arcs":[[691,692,-684,-231]],"type":"Polygon","properties":{"id":"14000US44007016800"}},{"arcs":[[-692,-230,-666,693,-590,694]],"type":"Polygon","properties":{"id":"14000US44007016900"}},{"arcs":[[-693,-695,-589,-145,-685]],"type":"Polygon","properties":{"id":"14000US44007017000"}},{"arcs":[[-276,-418,695,-500,-507,696,-516,697,698,-195,699]],"type":"Polygon","properties":{"id":"14000US44009050500"}},{"arcs":[[-495,-627,700,-412]],"type":"Polygon","properties":{"id":"14000US44009050103"}},{"arcs":[[-194,-480,-497,701,702]],"type":"Polygon","properties":{"id":"14000US44009050901"}},{"arcs":[[-196,-699,703,-486,-450,-191]],"type":"Polygon","properties":{"id":"14000US44009050600"}},{"arcs":[[704,-604,-601,-491,-488]],"type":"Polygon","properties":{"id":"14000US44009051304"}},{"arcs":[[-698,-518,705,-605,-705,-487,-704]],"type":"Polygon","properties":{"id":"14000US44009051306"}},{"arcs":[[-300,-308,-323,-423,-421]],"type":"Polygon","properties":{"id":"14000US44003021700"}},{"arcs":[[706,-570,-103,-593,-681]],"type":"Polygon","properties":{"id":"14000US44007017300"}},{"arcs":[[-702,-496,707]],"type":"Polygon","properties":{"id":"14000US44009050801"}},{"arcs":[[708,-624,-484,709]],"type":"Polygon","properties":{"id":"14000US44009051502"}},{"arcs":[[710,-433,-676,-404,-338]],"type":"Polygon","properties":{"id":"14000US44007014400"}},{"arcs":[[711,-434,-711,-337,-365,712]],"type":"Polygon","properties":{"id":"14000US44007014502"}},{"arcs":[[-587,713,-713,-335]],"type":"Polygon","properties":{"id":"14000US44007014800"}},{"arcs":[[714,-606,-240,-678]],"type":"Polygon","properties":{"id":"14000US44007015000"}},{"arcs":[[-677,-649,-654,-670,-607,-715]],"type":"Polygon","properties":{"id":"14000US44007015100"}},{"arcs":[[-292,-263,-332,-415,-274,-290]],"type":"Polygon","properties":{"id":"14000US44003020603"}},{"arcs":[[-22,715,-381,-409]],"type":"Polygon","properties":{"id":"14000US44003021200"}},{"arcs":[[-242,-610,-615,-126,-114,-119,-545]],"type":"Polygon","properties":{"id":"14000US44007002900"}},{"arcs":[[-151,-369,-439,-573,-435,-80,-142]],"type":"Polygon","properties":{"id":"14000US44007010400"}},{"arcs":[[-586,-687,-403,-689,-430,-712,-714]],"type":"Polygon","properties":{"id":"14000US44007014700"}},{"arcs":[[-428,-161,-550,-688,-584,-513]],"type":"Polygon","properties":{"id":"14000US44007001800"}},{"arcs":[[-250,-556,-121,-166,-561,-425]],"type":"Polygon","properties":{"id":"14000US44007002400"}},{"arcs":[[-547,-534,-532,-543,-536,-400,-551]],"type":"Polygon","properties":{"id":"14000US44007001400"}},{"arcs":[[-215,-639,-377,-716,-21]],"type":"Polygon","properties":{"id":"14000US44003021002"}},{"arcs":[[-477,-630,-520,-459,-465,-460]],"type":"Polygon","properties":{"id":"14000US44005040304"}},{"arcs":[[-622]],"type":"Polygon","properties":{"id":"14000US44009041500"}},{"arcs":[[-697,-506,716,-710,-483,-600,-603,-706,-517]],"type":"Polygon","properties":{"id":"14000US44009051305"}},{"arcs":[[-503,-599,-625,-709,-717,-505]],"type":"Polygon","properties":{"id":"14000US44009050402"}},{"arcs":[[-413,-701,-626,-597,-501,-696,-417]],"type":"Polygon","properties":{"id":"14000US44009050102"}},{"arcs":[[-498,-481,-453,-623,717]],"type":"Polygon","properties":{"id":"14000US44009051000"}}]}}}