{"type":"Topology","arcs":[[[1439,945],[44,18],[85,-39],[22,-47],[2,-118]],[[1592,759],[-56,-6],[-71,20],[-45,-9]],[[1420,764],[-30,99],[16,54],[33,28]],[[1202,963],[71,2]],[[1273,965],[14,-21],[-39,-58]],[[1248,886],[-55,49]],[[1193,935],[9,28]],[[1149,1134],[53,-171]],[[1193,935],[-38,-59]],[[1155,876],[-64,80],[-51,87]],[[1040,1043],[109,91]],[[977,744],[37,-3]],[[1014,741],[9,-13],[27,-208]],[[1050,520],[-81,18],[-54,41]],[[915,579],[10,151],[52,14]],[[3737,1245],[23,94],[39,37],[108,32],[82,-13],[82,23],[63,-23],[35,-33],[52,-156],[97,37],[199,-13],[93,4],[48,-33],[27,-59],[-2,-169],[-8,-53],[-25,-43],[-46,-36],[-58,-12],[-70,19],[-97,-35],[-81,27],[-68,110],[-52,29],[-21,107],[-57,-35],[-91,-5],[-22,22],[-78,-17],[-52,9],[-89,86],[-31,56],[0,43]],[[1020,748],[30,14]],[[1050,762],[54,-9]],[[1104,753],[78,-162]],[[1182,591],[-85,-61],[-47,-10]],[[1014,741],[6,7]],[[1041,807],[39,62]],[[1080,869],[45,-59]],[[1125,810],[-54,-18]],[[1071,792],[-9,-3]],[[1062,789],[-21,18]],[[1071,792],[33,-39]],[[1050,762],[12,27]],[[908,1014],[10,-8]],[[918,1006],[-3,-124],[12,-51],[58,-23],[-8,-64]],[[915,579],[-47,29],[-28,49],[-77,15],[-83,68],[-18,73],[41,84],[65,66],[89,49],[51,2]],[[1020,748],[-21,53],[42,6]],[[1125,810],[129,-165]],[[1254,645],[-72,-54]],[[1273,965],[17,44],[139,139]],[[1429,1148],[26,5]],[[1455,1153],[0,-157],[-16,-51]],[[1420,764],[-75,-4],[-53,-59]],[[1292,701],[-46,146],[-12,17]],[[1234,864],[14,22]],[[1455,1153],[82,-1],[59,-17],[69,-79],[14,-69],[28,-28],[8,-102],[-47,-77],[-76,-21]],[[1149,1134],[50,65],[84,19],[36,-4],[110,-66]],[[7699,187],[18,69],[50,62],[70,30],[55,4],[77,-39],[32,-46],[25,-86],[-2,-46],[-36,-94],[-52,-36],[-100,-5],[-88,32],[-44,82],[-5,73]],[[0,10167],[10,47],[69,75],[97,19],[101,-16],[45,-27],[14,-33],[7,-155],[-55,-78],[-44,-12],[-131,4],[-59,20],[-35,30],[-19,48],[0,78]],[[1234,864],[-79,12]],[[1292,701],[-38,-56]],[[1080,869],[-162,137]],[[908,1014],[125,16],[7,13]]],"transform":{"scale":[0.0003787153002741092,0.0003496445479239424],"translate":[-171.141181,-14.601339]},"objects":{"Tract_60_2025":{"type":"GeometryCollection","geometries":[{"arcs":[[0,1,2]],"type":"Polygon","properties":{"id":"14000US60010950200"}},{"arcs":[[3,4,5,6]],"type":"Polygon","properties":{"id":"14000US60010950500"}},{"arcs":[[7,-7,8,9,10]],"type":"Polygon","properties":{"id":"14000US60010950600"}},{"arcs":[[11,12,13,14]],"type":"Polygon","properties":{"id":"14000US60050951300"}},{"arcs":[[15]],"type":"Polygon","properties":{"id":"14000US60020951800"}},{"arcs":[[16,17,18,19,-13,20]],"type":"Polygon","properties":{"id":"14000US60050951203"}},{"arcs":[[21,22,23,24,25]],"type":"Polygon","properties":{"id":"14000US60050951000"}},{"arcs":[[-25,26,-18,27]],"type":"Polygon","properties":{"id":"14000US60050951202"}},{"arcs":[[28,29,-15,30]],"type":"Polygon","properties":{"id":"14000US60050951600"}},{"arcs":[[-26,-28,-17,31]],"type":"Polygon","properties":{"id":"14000US60050951100"}},{"arcs":[[32,33,-19,-27,-24]],"type":"Polygon","properties":{"id":"14000US60050951201"}},{"arcs":[[-5,34,35,36,-3,37,38,39]],"type":"Polygon","properties":{"id":"14000US60010950300"}},{"arcs":[[[40,-1,-37]],[[-35,-4,-8,41]]],"type":"MultiPolygon","properties":{"id":"14000US60010950100"}},{"arcs":[[42]],"type":"Polygon","properties":{"id":"14000US60030951900"}},{"arcs":[[43]],"type":"Polygon","properties":{"id":"14000US60040952000"}},{"arcs":[[-9,-6,-40,44]],"type":"Polygon","properties":{"id":"14000US60010950700"}},{"arcs":[[-10,-45,-39,45,-33,-23,46,-29,47]],"type":"Polygon","properties":{"id":"14000US60010950900"}},{"arcs":[[-47,-22,-32,-21,-12,-30]],"type":"Polygon","properties":{"id":"14000US60050951500"}}]}}}