{"type":"Topology","arcs":[[[24281,5521],[13,-17],[-20,-9],[-7,-11],[10,-39],[-3,-38]],[[24274,5407],[-5,-8],[12,-38],[-11,-29]],[[24270,5332],[-63,69]],[[24207,5401],[-19,23],[-24,39],[-32,27],[-25,6],[-45,0],[1,47],[218,-22]],[[24499,5233],[69,0]],[[24568,5233],[1,-59]],[[24569,5174],[3,-112]],[[24572,5062],[-69,4]],[[24503,5066],[0,2]],[[24503,5068],[-4,165]],[[22421,7603],[100,-1],[234,0],[273,-2],[299,1],[295,0],[375,0],[155,0],[149,-3],[64,0],[110,-3],[47,2]],[[24522,7597],[14,-20],[-8,-19],[-18,21],[-15,-10],[-5,-13],[10,-11],[24,-3],[4,-14],[-43,-22],[1,-27],[9,1],[9,28],[11,0],[9,-17],[-12,-15],[-1,-13],[20,-20],[0,-13],[-22,-13],[19,-13],[-43,-59],[0,-17],[15,-3],[2,29],[37,-21],[6,-24],[-23,-8],[-9,-10],[12,-13],[23,13],[12,-2],[-8,-40],[-25,-4],[3,-19],[26,-3],[-5,-40],[20,-11],[-4,-13],[-15,-11],[-19,-1],[2,-16],[17,2],[5,-17],[-16,-5],[-24,10],[-19,-33],[15,-13],[15,5],[10,-17],[-17,-10],[1,-16],[16,-13],[8,-28],[-16,-30],[23,-13],[-8,-28],[-28,5],[6,-19],[14,3],[19,-20],[9,-22],[-7,-24],[22,-7],[2,-22],[-18,-22],[13,-18],[-3,-37],[-5,-10],[11,-17],[-12,-13],[0,-14],[11,-22],[-32,-11],[-11,-11],[17,-13],[3,-37],[10,-17]],[[24566,6577],[-246,4],[-100,4],[1,-170],[-71,1],[-1,-97],[1,-80],[-2,-163],[-25,1],[-337,-1]],[[23786,6076],[-69,1],[1,206],[2,304],[-298,-1],[-60,1],[-54,-2],[-132,0],[-180,-1],[-143,1],[-1,-222],[0,-284],[-356,1]],[[22496,6080],[-76,1],[3,684],[1,36],[-2,502],[-1,207],[0,93]],[[24694,5654],[0,52],[4,18],[16,0],[1,52]],[[24715,5776],[6,28],[45,23],[2,-15],[-9,-33],[35,-10],[-3,-11],[-20,7],[-10,-13],[21,-25],[-24,-30],[2,-15],[-6,-25],[-15,6],[-15,-16],[12,-17],[-17,-12],[-1,-26],[20,-6],[-16,-19]],[[24722,5567],[-29,3]],[[24693,5570],[1,84]],[[11061,5073],[0,67]],[[11061,5140],[54,-1]],[[11115,5139],[-1,-69]],[[11114,5070],[0,-15]],[[11114,5055],[-31,0],[0,-11],[-23,0]],[[11060,5044],[1,29]],[[21790,4051],[357,-2],[543,-1],[232,0]],[[22922,4048],[82,0]],[[23004,4048],[1,-251],[0,-170],[-1,-334],[1,-86],[-2,-254]],[[23003,2953],[0,-253],[-1,-157],[0,-334],[0,-184]],[[23002,2025],[-196,0],[-511,0]],[[22295,2025],[-6,0]],[[22289,2025],[0,170],[-71,0],[0,254],[142,-1],[1,171],[-143,0],[1,169],[-70,0],[-1,63],[2,450],[0,79],[-143,0],[1,178],[-2,244],[-179,0],[-1,168],[-35,0],[-1,81]],[[7572,11151],[239,1],[462,0],[144,1],[510,1],[100,0],[339,1]],[[9366,11155],[228,0],[202,0],[136,1],[265,-2],[115,1],[148,2]],[[10460,11157],[0,-3],[87,0],[205,1],[287,-1],[230,-1],[234,-1],[268,0]],[[11771,11152],[1,-168],[-1,-170],[1,-330],[-1,-5],[1,-120],[0,-220],[-296,0],[-1,-23],[-1,-297],[-1,-177],[0,-85],[0,-421]],[[11473,9136],[-28,-2],[-197,1],[-240,-1],[-11,7],[-13,-7],[-309,1],[0,-82],[6,-13],[-6,-20],[0,-108],[-7,-20],[-18,-11],[-185,0],[-442,1],[0,219],[-1,377],[16,29],[3,17],[-17,6],[-160,113],[-373,0],[-285,0],[-55,-1],[-65,-63],[-143,-136]],[[8943,9443],[-36,43],[-29,12],[-34,1],[-26,-7],[-65,-36],[-21,-9],[-39,8],[-26,-2],[-47,-32],[-56,-21],[-18,-5],[-53,-22],[-20,-17],[-75,-33],[-114,-31],[-52,2],[-28,-9],[-23,5],[-78,36],[-71,20],[-41,6],[-34,-5],[-20,-8]],[[7937,9339],[50,136],[14,5],[0,160],[-433,0],[0,472],[0,195],[2,169],[3,168],[0,85],[0,253],[-1,169]],[[6002,11150],[304,1],[146,1],[144,-1],[293,0],[510,0]],[[7399,11151],[173,0]],[[7937,9339],[-69,-27],[-27,-17],[-163,-135],[-27,-14],[-23,-22],[-32,-20],[-34,-13],[-31,3],[-71,37],[-46,17],[-59,-3],[-25,9],[-107,106],[-37,33],[-41,28],[-56,24],[-32,6],[-62,2],[-33,-4],[-36,-12],[-25,-4],[-27,12],[-14,14],[-5,21],[4,19],[28,55],[3,18],[-7,21],[-19,36],[-25,19],[-20,-1],[-29,-13],[-38,-5],[-18,6],[-30,19],[-20,5],[-23,-2],[-38,-18],[-42,-9],[-44,1],[-24,-10],[-29,-6],[-28,0],[-41,-10],[-19,6],[-58,10],[-57,25],[-16,13]],[[6265,9559],[-56,74],[-15,39],[-17,25],[-56,57],[-14,11],[-36,47],[-10,37],[7,63],[-3,80],[-6,41],[2,58],[8,63],[-3,84],[0,41],[5,29],[4,60],[0,58],[-6,22],[-32,19],[-32,31],[-13,25],[-19,75],[6,20],[13,5],[43,-6],[19,9],[21,26],[10,33],[2,36],[-11,44],[-36,23],[-59,14],[-63,30],[-40,26],[-55,22],[-24,-3],[-32,-25],[-21,-34],[-35,-90],[-11,-45],[-13,-23],[-35,-32]],[[5652,10628],[1,524],[22,-1],[327,-1]],[[1299,8129],[33,-1]],[[1332,8128],[161,-2],[1,-2],[289,0],[81,1],[136,1],[72,-1],[302,-1],[217,2],[71,-3],[144,2],[205,0],[127,1],[90,-1]],[[3228,8125],[227,0],[-1,-459],[-1,-52],[1,-253],[-1,-84],[0,-169],[0,-84],[1,-424],[-1,-50],[0,-163],[0,-122],[1,-169]],[[3454,6096],[-199,0],[-476,-2],[0,-185],[0,-169],[-1,-169],[1,-289],[0,-48],[0,-186],[0,-492],[-1,-43],[-1,-463]],[[2777,4050],[-303,1],[-142,0],[-74,1],[-126,0],[-159,1],[-106,-2],[-373,0]],[[1494,4051],[0,421],[1,84],[-2,196],[1,226],[0,505],[1,166],[0,253],[-2,189],[-195,0],[0,175],[-1,246],[1,226],[0,298],[1,65],[-1,253],[0,338],[-2,85],[0,83],[3,269]],[[17034,4053],[12,2],[338,0],[389,1],[413,1],[447,0],[432,1]],[[19065,4058],[382,1]],[[19447,4059],[-2,-304],[0,-206],[1,-327],[-1,-265],[-142,1],[-1,-80],[2,-211],[0,-126],[-2,-87],[1,-425]],[[19303,2029],[-458,-1],[-89,0],[-436,-1],[-46,-1],[-249,1],[-355,2],[-105,-2],[-408,1],[-9,0]],[[17148,2028],[-116,0]],[[17032,2028],[0,251],[-1,3],[1,229],[0,195],[0,117],[1,390],[2,339],[-1,89],[1,164],[-1,248]],[[19447,4059],[355,0],[313,-1],[327,-2]],[[20442,4056],[1,-508],[0,-110],[-2,-476],[-2,-433],[0,-80],[1,-423]],[[20440,2026],[-107,1],[-211,0],[-385,1]],[[19737,2028],[-434,1]],[[22064,16647],[74,-2],[162,1],[229,0],[129,-1],[121,1],[174,-2],[13,1],[169,-2],[118,-1],[75,-2],[71,0],[21,-9]],[[23420,16631],[-4,-25],[28,-4],[11,-7],[-10,-16],[-21,-8],[-8,-16],[24,-15],[20,-37],[-6,-25],[-21,-14],[-3,-14],[11,-30],[10,-7],[20,4],[15,-3],[7,-23],[-2,-24],[-17,-25],[-1,-10],[15,-12],[27,-2],[5,-13],[-12,-14],[-15,-4],[-1,-16],[36,-30],[15,-41],[8,-13],[30,-19],[-1,-12],[-29,-9],[0,-23],[13,-17],[16,-30],[17,-17],[46,-21],[-1,-23],[-26,7],[-6,-15],[6,-56],[-3,-18],[-24,-16],[2,-16],[24,1],[1,-24],[-23,-37],[-2,-22],[-28,-29],[14,-16],[8,-41],[-5,-13],[-14,-6],[-32,21],[-12,-1],[-12,-15],[7,-22],[30,-34],[4,-16],[-16,-5],[-24,28],[-15,-12],[22,-32],[-13,-13],[-32,10],[-20,-6],[-9,-12],[4,-17],[19,-5],[21,5],[9,-16],[-15,-16],[-15,-29],[-28,-4],[-2,-22],[23,1],[13,-10],[-1,-39],[-8,-24],[-8,-3],[-25,9],[-17,-3],[3,-23],[27,-4],[9,-23],[-9,-30],[-13,-10],[-60,-10],[-10,-25],[12,-11],[24,-10],[45,2],[32,-4],[12,-16],[-12,-16],[-53,2],[-14,14],[-16,-17],[3,-24],[13,-27]],[[23407,15201],[-60,0],[-329,3],[-137,0],[-200,1],[-172,0]],[[22509,15205],[-447,1]],[[22062,15206],[0,422],[0,346],[0,242],[2,13],[-1,167],[1,251]],[[22063,17873],[320,0],[310,0],[485,-1],[-16,-13],[3,-18],[21,-8],[-21,-22],[-17,-28],[-2,-30],[2,-41],[-5,-22],[3,-18],[27,-10],[10,-11],[-15,-37],[-8,-48],[6,-9],[20,-3],[-2,-37],[4,-24],[13,-17],[17,1],[8,-16],[-9,-15],[-8,-30],[9,-17],[14,-6],[8,-19],[-7,-35],[9,-28],[11,-11],[46,-23],[11,-18],[-6,-20],[-30,4],[11,-35],[-9,-23],[11,-20],[21,-13],[33,2],[10,-15],[-36,-42],[-2,-25],[19,4],[16,-11],[0,-31],[20,-29],[-12,-37],[9,-28],[-2,-22],[-32,-15],[2,-27],[18,-26],[-9,-33],[-28,-15],[-1,-15],[24,6],[28,-19],[30,0],[22,-7],[3,-17],[-11,-13],[-20,-5],[-44,-24],[-1,-20],[15,3],[13,16],[18,5],[15,-11],[-6,-20],[-20,3],[-15,-12],[10,-15],[23,-6],[16,3],[7,-23]],[[22064,16647],[0,84]],[[22064,16731],[1,329],[-2,351],[-1,344],[1,118]],[[20727,17872],[244,1],[348,0],[465,0],[279,0]],[[22064,16731],[-195,0],[-104,2],[-141,-1],[-52,-3],[-29,-5],[-73,6],[1,45],[-1,39],[-71,4],[-90,1],[-62,-3],[-72,1],[-35,-6],[-44,-1],[-142,3],[-227,1]],[[20727,16814],[2,337],[2,160],[-1,90],[-5,170],[2,301]],[[14280,14204],[286,0],[90,-1],[389,0],[193,-1],[246,0]],[[15484,14202],[596,-1],[398,-1]],[[16478,14200],[0,-524],[1,-109],[0,-561],[0,-61],[16,-17],[9,-21],[22,5],[39,-14],[56,-31],[30,-21],[10,2],[24,29],[17,1],[18,-20],[-9,-22],[15,-15],[-3,-13],[21,-19],[19,-46],[2,-14],[-9,-24],[4,-18],[27,-20],[132,1],[-1,-169],[1,-186]],[[16919,12313],[-74,-3],[-94,0],[1,-18],[15,-33],[16,-19],[-21,-3],[-12,36],[-14,10],[-77,-1],[-30,-16],[-11,11],[-26,8],[-40,6],[-10,18],[-19,-21],[-17,16],[6,58],[31,64],[-12,21],[-15,12],[-14,-19],[1,-18],[-12,-34],[-3,-55],[-10,-3],[-14,28],[-11,7],[-24,-22],[-2,28],[8,63],[6,19],[14,80],[-11,2],[-29,-56],[-17,-57],[-25,8],[-9,16],[-15,10],[-12,31],[-31,12],[-31,-39],[-19,-4],[21,-42],[1,-123],[-19,-4],[-3,-41],[-103,0],[-4,-3],[0,-81],[-74,0],[0,-172],[-74,0],[1,-169],[-147,0],[1,-169],[-74,0],[0,-46],[17,-23],[9,-4],[4,-20],[10,-18],[-11,-37],[3,-21],[30,-27],[2,-25],[-10,-9],[11,-48],[-10,-13],[13,-33],[12,-5],[2,-18],[11,-15],[21,-5],[20,-12],[5,-18],[16,-11],[21,0],[13,-25],[-8,-19],[44,-34],[20,-3],[5,-16]],[[16032,11147],[-35,-1],[-473,0],[-250,0],[-443,2],[-432,1]],[[14399,11149],[-1,265],[1,750],[-123,0],[1,364],[0,144],[1,336],[0,331],[1,431],[1,184],[0,250]],[[11771,11152],[439,-1],[437,-2],[294,1],[14,1],[132,0]],[[13087,11151],[72,-1],[175,0],[191,0]],[[13525,11150],[0,-254],[0,-169],[-1,-145],[1,-361],[-1,-85],[125,1],[-1,-76],[0,-422],[1,-170],[0,-346],[0,-415],[-2,-84],[0,-228],[1,-146],[-1,-134]],[[13647,8116],[-71,1],[-201,0]],[[13375,8117],[-364,1],[-135,-1],[-242,1],[-145,-1],[-342,2],[-68,-1],[-289,1],[-155,0],[-90,-1],[-73,1]],[[11472,8119],[1,251],[0,512],[0,254]],[[12,3532],[140,0],[191,0],[145,0],[140,0],[215,-1],[0,519],[438,0],[213,1]],[[2777,4050],[144,1],[218,-1],[139,1],[326,0],[123,1],[84,0]],[[3811,4052],[-1,-29],[2,-226],[5,-269],[0,-167],[0,-172],[2,-130],[-1,-195],[-1,-202],[0,-134],[2,-166],[-1,-4],[3,-338]],[[3821,2020],[-71,-1],[-169,-4]],[[3581,2015],[-190,-5],[-409,0],[-298,0],[-397,1],[-333,0],[-404,1],[-158,-1],[-273,0],[-191,1],[-87,-1],[-134,1],[-505,1],[-69,-2],[-122,0]],[[11,2011],[0,418],[1,592],[1,327],[-1,184]],[[20532,1018],[351,1],[0,-170],[285,1],[0,-85],[71,0],[0,85],[208,0],[215,0],[-1,169],[1,253],[213,0],[212,-2],[1,84],[71,1],[0,-85],[70,0],[1,151],[2,440],[63,-1],[0,165]],[[23002,2025],[72,-1],[1,-253]],[[23075,1771],[-1,-420],[0,-87],[-1,-333],[1,-216],[-1,-353],[3,-4],[103,-24],[1,-178],[0,-154]],[[23180,2],[-198,2],[-71,-1],[-118,2],[-302,0],[-64,-5],[-111,0],[-558,2],[-281,1],[-282,-1],[-314,2],[-351,1]],[[20530,5],[0,590],[1,169],[1,254]],[[4141,5578],[40,21],[21,3],[77,0]],[[4279,5602],[0,-31]],[[4279,5571],[0,-11]],[[4279,5560],[-23,-2],[-16,-8],[-33,0],[0,-61]],[[4207,5489],[-41,-7],[-31,-18]],[[4135,5464],[0,105],[6,9]],[[4279,5739],[0,-137]],[[4141,5578],[-5,20],[0,141],[143,0]],[[21174,15206],[61,0],[456,0],[371,0]],[[22509,15205],[-2,-424],[33,-168]],[[22540,14613],[-76,0],[-31,21],[-1,-189],[74,0],[0,-85]],[[22506,14360],[-1,-172],[1,-486],[-2,-526]],[[22504,13176],[-298,-1],[-512,0],[-288,0],[-375,1]],[[21031,13176],[0,394],[0,174],[1,25],[1,367],[-11,38],[-2,24],[6,35],[0,635],[148,0],[0,169],[18,12],[-18,16],[0,141]],[[21248,14277],[148,0],[0,-85],[73,0],[0,85],[74,-1],[0,170],[-295,-1],[0,-168]],[[19476,15210],[443,-3],[438,0],[448,-1]],[[20805,15206],[369,0]],[[21031,13176],[-145,-1]],[[20886,13175],[-182,0],[-148,-1],[-479,2],[-150,-1],[-363,2]],[[19564,13177],[-1,86],[0,236],[2,184],[0,255],[0,257],[-90,0],[0,39],[1,384],[0,169],[0,339],[0,84]],[[22540,14613],[47,-254]],[[22587,14359],[-81,1]],[[22540,14613],[41,-1],[99,1],[0,-42],[36,1],[1,-36],[8,-7],[29,0],[-37,-42],[0,-127],[-130,-1]],[[23407,15201],[19,-12],[35,-12],[14,-16],[-8,-22],[-30,-8],[-8,-22],[3,-28],[18,-17],[21,4],[29,19],[11,0],[14,-15],[-5,-14],[-29,-32],[-18,-4],[-24,4],[-2,-60],[15,-24],[29,-15],[15,-17],[3,-20],[-18,-3],[-10,-18],[-20,-14],[-46,-11],[-11,-11],[2,-17],[11,-6],[25,0],[36,13],[20,1],[20,-11],[2,-17],[-14,-9],[-29,20],[-18,-4],[-7,-19],[4,-18],[17,-25],[39,0],[7,-18],[-3,-36],[-20,-30],[-47,-33],[-2,-24],[11,-7],[18,3],[23,28],[16,4],[18,-16],[3,-17],[-4,-28],[-7,-10],[-16,-4],[-24,14],[-23,-6],[-2,-13],[11,-15],[27,-9],[34,-23],[8,-16],[-7,-18],[-10,2],[-21,24],[-17,5],[-42,-13],[-15,-16],[7,-21],[22,5],[11,24],[10,3],[7,-24],[21,-24],[3,-22],[-29,-24],[-16,-26],[-12,-7],[-35,-3],[-12,-9],[-4,-16],[23,-10],[-3,-27],[14,-13],[21,-12],[37,15],[2,-21],[-13,-2],[-6,-14],[12,-24],[-6,-18],[-40,5],[-12,-8],[-3,-36],[30,-24],[11,-31],[25,-12],[1,-10],[-16,-20],[3,-17],[26,-1],[18,-11],[3,-22],[-11,-32],[-30,-12],[-15,-19],[11,-14],[13,13],[21,4],[30,-6],[16,-18],[-6,-14],[-27,-12],[-20,0],[-11,-11],[-12,-33],[1,-13],[15,-3],[27,15],[10,-18],[-14,-17],[8,-21],[37,-26],[3,-14],[-23,-6],[-17,24],[-14,3],[-34,-47],[9,-22],[20,22],[17,5],[9,-10],[15,-38],[4,-22],[-11,-17],[-20,-6],[6,-19],[-12,-15],[-30,7],[-24,-4],[-6,-10],[4,-17],[30,0],[30,-8],[11,-13],[-8,-13],[-17,-3],[1,-13],[19,-31],[-10,-14],[-21,2],[-33,-18],[-12,-13],[8,-19],[20,1],[16,-14],[-7,-12],[-19,-3],[-11,-17],[18,-20],[31,-3],[29,-16],[-5,-22],[-29,19],[-14,4],[-42,-19],[-13,-24],[8,-9],[21,20],[15,2],[40,-20],[15,-11],[13,-22],[4,-18],[-9,-14],[-13,4],[-12,37],[-12,17],[-14,4],[-13,-7],[0,-14],[14,-17],[21,-9],[-9,-16],[-25,-8],[-7,-16],[15,-20],[4,-14],[-19,-20]],[[23476,13169],[-90,-1],[-297,2],[-436,6],[-149,0]],[[16919,12313],[1,-146],[34,0],[33,51],[3,44],[15,19],[11,3],[18,32],[16,-4],[24,27],[19,-10],[19,3],[8,12],[35,-13],[-3,-27],[-8,-20],[24,-87],[0,-22],[10,-30],[22,-14],[-3,-16],[6,-32],[-8,-10],[3,-20],[-17,-34],[7,-36],[18,14],[12,17],[31,13],[17,-2],[15,6],[32,28],[32,-4]],[[17345,12055],[-7,-36],[-7,-17],[7,-28],[-2,-19],[45,-25],[28,-9],[-11,-12],[-10,-35],[4,-8],[1,-718]],[[17393,11148],[-83,-3],[-180,0],[-289,2],[-9,3],[-188,-1],[-5,1],[-418,-4],[-72,0]],[[16149,11146],[-117,1]],[[17345,12055],[55,-33],[39,41],[6,24],[-8,14],[-6,43],[7,17],[42,11],[30,23]],[[17510,12195],[-8,-36],[3,-22],[17,-29],[14,-12],[12,40],[8,37],[17,37],[33,27],[17,20],[53,39],[20,8],[22,21],[12,25],[18,22],[5,31],[47,-12]],[[17800,12391],[25,-2],[24,-17],[-14,-14],[-4,-17],[2,-25],[17,-49],[13,-15],[5,-18],[21,-22],[-6,-25],[8,-71],[-12,-16],[4,-20],[12,-9],[1,-22],[45,-17],[8,7],[-6,25],[1,42],[11,3],[7,-25],[15,-17],[-15,-22],[7,-21],[27,-24],[10,-63],[-10,-27],[-20,-23],[-31,7],[-34,-9],[-19,-24],[-1,-22],[-26,-39],[-17,-15],[10,-30],[15,-1],[17,23],[17,34],[23,20],[8,20],[19,11],[7,12],[12,-5],[24,5],[59,55],[23,49],[16,47],[10,7],[23,-1],[26,28],[39,2],[38,-15],[39,-4],[28,-49],[-4,-38],[-19,-30],[17,-33],[7,-61],[13,-24],[26,-35],[32,-35],[49,-44],[9,-22],[-16,-23],[-17,-11],[8,-10],[4,-34],[22,-41],[143,1],[3,-9],[193,0]],[[18771,11544],[0,-401]],[[18771,11143],[-63,0],[-2,7],[-274,0],[-90,-1],[-300,1],[-66,1],[-180,0],[-245,-2],[-62,1],[-96,-2]],[[22349,10127],[357,0]],[[22706,10127],[91,1],[346,0],[249,-1],[338,1],[184,-1],[252,1],[174,-1]],[[24340,10127],[-10,-10],[15,-37],[-7,-35],[5,-33],[12,-13],[0,-48],[-19,-20],[21,-31],[9,-37],[12,-19],[-11,-27],[26,-3],[-9,-20],[19,-2],[6,-10],[24,-5],[12,-13],[4,-20],[-7,-19],[16,-19],[-3,-22],[-20,-5],[29,-18],[2,-8],[-12,-41],[1,-20],[-8,-17],[-16,-17],[26,-20],[2,-15],[-27,-6],[-21,13],[-10,-11],[7,-21],[18,-9],[41,24],[7,-12],[-21,-24],[-19,1],[-8,-10],[9,-16],[25,-9],[4,-17],[-15,-19],[-16,-8],[4,-13],[25,-9],[16,-14],[3,-13],[-13,-8],[-17,25],[-25,-2],[-7,-11],[9,-12],[22,5],[4,-12],[-19,-31],[-12,-11],[-22,0],[27,-78],[24,-7],[23,14],[18,-13],[-14,-13],[-16,7],[-5,-22],[18,4],[12,-17],[-19,-6],[-14,2],[-2,-27],[10,-13]],[[24463,9124],[-21,-14],[-440,1],[-181,1],[-161,0],[-194,-1],[-386,1],[-64,0],[-36,-2],[-60,3]],[[22920,9113],[0,84],[-215,3],[-13,-37],[-45,-6],[-8,-15],[-26,-9],[-13,3],[-23,-5]],[[22577,9131],[-54,61],[-20,7],[-60,0],[-17,7],[-11,-7],[-68,1]],[[22347,9200],[0,41],[1,430],[1,456]],[[10686,5758],[-8,-48],[-3,-59],[14,-44],[96,-184],[40,-109],[17,-37],[17,-24],[47,-55]],[[10906,5198],[20,-27]],[[10926,5171],[-24,1],[-37,22]],[[10865,5194],[-22,21],[-21,32],[-22,13],[-74,23],[0,-20],[6,-42],[-30,-7],[-2,12],[-20,4],[-17,-8],[-1,-38]],[[10662,5184],[-43,-5],[-18,6],[-121,43]],[[10480,5228],[-67,25],[-26,19],[-28,27],[-40,14],[15,81],[-1,147],[1,98],[11,43],[1,21],[-11,81],[0,124],[-2,13],[149,3],[4,-11],[36,-59],[4,-23],[-2,-45],[14,-29],[33,-31],[12,-20],[10,7],[-18,36],[6,8],[105,1]],[[6637,6100],[139,-1],[412,1],[73,0],[159,0],[344,0]],[[7764,6100],[363,-1],[167,0],[136,1],[89,-1],[194,0],[90,0],[598,-1]],[[9401,6098],[2,-570],[3,-292],[5,-18],[-4,-29],[1,-198],[5,-250],[0,-96],[4,-406],[-15,-17],[-80,1],[-12,-15],[2,-132],[-1,-21]],[[9311,4055],[-219,-1],[-304,1],[-127,0],[-176,0],[-135,1],[-340,1],[-89,0],[-1,2],[1,505],[-203,-1],[-84,1],[-138,-1],[-150,1],[-229,0],[-99,-1],[-382,0]],[[6636,4563],[-1,167],[1,171],[-1,325],[-1,12],[0,451],[-1,406],[4,5]],[[10865,5194],[-41,21],[-57,-15]],[[10767,5200],[-102,-24],[-3,8]],[[9401,6098],[145,1],[210,3],[179,2],[246,2],[294,4],[104,-1]],[[10579,6109],[-8,-30],[-3,-29],[4,-20],[16,-29],[72,-65],[10,-13],[10,-38],[8,-77],[-2,-50]],[[10480,5228],[1,-184],[-6,-17],[6,-23],[2,-179],[88,3],[126,2]],[[10697,4830],[18,0],[32,-9],[13,9],[37,1]],[[10797,4831],[-26,-84],[0,-85],[37,0],[186,0],[28,5]],[[11022,4667],[37,9],[12,-4],[24,5],[16,-4],[13,-21],[6,-25],[-4,-36],[-11,-14],[-43,-8],[-24,-18],[20,-73],[12,-67],[12,-18],[24,-12],[29,4],[45,28],[27,3],[15,-15],[14,-31],[5,-24],[0,-24],[-15,-20],[-9,-42],[5,-20],[24,-25],[30,-14],[53,11],[36,17],[46,39],[21,23],[22,16],[30,11],[50,25],[13,-2]],[[11557,4341],[22,-7],[7,-16],[-7,-58],[-14,-24],[-21,-20],[-25,-47],[-14,-61],[5,-30]],[[11510,4078],[29,-31],[43,-38],[39,-49],[14,-12],[80,-50],[58,-24],[56,-32],[25,-36],[-1,-21],[-14,-34],[-21,-4],[-32,17],[-16,-8],[-7,-16],[2,-18],[37,-63],[26,-39],[36,-60],[46,-69],[1,-20],[-6,-30],[-16,-33],[-42,-44],[-40,-25],[-14,-13],[-15,-36],[-11,-39],[-15,-80],[-1,-35],[-5,-45],[-18,-81],[-1,-45],[4,-26],[23,-66]],[[11754,2873],[-34,8],[-8,-29],[-22,17],[-13,-16],[17,-12],[5,-17],[-12,-15],[-18,4],[-13,13],[-5,22],[-16,12],[-7,-9],[1,-30],[-41,-27],[-11,-11],[-29,-2],[-13,-6],[-12,-18],[-26,-10],[-29,37],[-25,-2],[-16,-15],[-18,-68],[-21,-23],[-14,0],[-12,27],[-12,-11],[-2,-23],[10,-38],[-23,-16],[-16,-19],[-15,3],[5,54],[-12,14],[-22,-14],[-20,6],[11,29],[-10,29],[-17,-3],[-13,-31],[-10,-14],[-16,16],[-18,4],[-17,-14],[-6,24],[-14,-1],[-13,-20],[-2,-16],[-24,-8],[-30,4],[-36,-2],[-18,-5],[-8,-30],[-23,0],[-22,26],[-30,-7],[-8,28],[-16,-10],[-56,26],[0,29],[-15,15],[-3,-18],[-12,-8],[2,-21],[-26,-34],[-42,4],[-4,13],[16,52],[2,20],[-8,27],[-15,1],[-18,-23],[-24,-11],[-3,-25],[3,-20],[-21,10],[-17,1],[-37,-15],[-3,-29],[-16,-20],[-3,-24],[-20,-9],[8,-18],[-9,-12],[-25,5],[7,-32],[-20,-16],[-7,-44],[13,-16],[0,-43],[-20,-9],[-32,0],[-15,-8],[11,-45],[-46,-22],[-3,-15],[11,-13],[-2,-16],[-16,-19],[-9,4],[-10,21],[-10,-4],[-6,-23],[3,-32],[-24,-19],[-16,-5],[-18,22],[-9,3],[-5,21],[-18,0],[-23,-18],[-1,-12],[17,-29],[-7,-34],[8,-7],[14,8],[14,-3],[21,-17],[-13,-9],[-2,-18],[-14,-18],[-34,19],[-7,-6],[-3,-28],[-14,-15],[-11,-21],[1,-19]],[[10274,2037],[-77,0],[0,339],[0,168],[-141,1],[-285,-2],[-257,2],[-168,-1],[0,169],[0,254],[0,506],[0,337],[0,244],[-35,1]],[[17691,12727],[0,-18],[-74,0],[3,-67],[-33,-60],[31,-21],[26,0],[26,-21],[73,-1],[26,-25],[31,-19]],[[17800,12495],[0,-104]],[[17510,12195],[-9,6],[4,38],[-8,25],[-22,10],[-39,38],[-13,27],[-19,18],[-44,35],[0,71],[24,74],[13,17],[-1,41],[20,18],[3,20],[-59,1],[0,119],[147,0],[-1,61],[74,-54],[0,162],[110,0],[1,-195]],[[16478,14200],[230,0],[550,-1],[-1,84],[2,254],[0,412],[0,263]],[[17259,15212],[206,-1],[210,-1],[452,0],[468,-1],[497,0],[384,1]],[[19564,13177],[-217,0],[-224,-2],[0,-84],[-1,-542],[-1,-387],[-132,1],[-218,-1],[0,-618]],[[17800,12495],[1,173],[-74,0],[0,58],[-36,1]],[[10912,4812],[28,17],[19,2],[26,12],[15,20],[9,32],[1,24],[6,9],[44,0]],[[11060,4928],[24,0],[26,11],[7,14]],[[11117,4953],[35,-12]],[[11152,4941],[10,-14],[5,-23],[-1,-75],[6,-14],[25,-24],[5,-11],[-1,-80],[2,-33],[12,-31],[7,-36],[14,-11],[22,0],[14,-15],[-1,-54],[13,-15],[45,0],[14,-20],[-1,-46],[8,-15],[47,1],[53,19],[35,-20],[71,0]],[[11556,4424],[1,-83]],[[11022,4667],[-40,11],[-44,40],[-15,28],[-5,47],[-6,19]],[[11492,5267],[2,303],[2,116],[71,0],[2,168],[3,85],[0,169]],[[11572,6108],[300,-3],[188,0],[13,2],[229,-2],[182,0],[124,-2],[107,1],[60,-2],[97,0],[213,0],[70,1],[179,-3],[37,2]],[[13371,6102],[132,0],[2,-2],[-5,-480],[-1,-140],[-3,-337],[-2,-227],[-2,-118],[-1,-134],[-3,-163],[-1,-179],[-3,-251]],[[13484,4071],[-143,2],[-10,-1],[-120,0],[-238,3],[-130,-1],[-427,2],[-223,1],[-228,2],[-222,2],[-233,-3]],[[11556,4424],[2,74],[0,90],[3,337],[0,85],[-71,0],[2,257]],[[11134,5225],[35,0]],[[11169,5225],[31,-5],[5,-18],[0,-47]],[[11205,5155],[-17,-4],[-14,-12],[-56,0]],[[11118,5139],[5,30],[11,23],[0,33]],[[11204,5057],[38,-30],[19,12],[12,15],[4,47],[1,124]],[[11278,5225],[21,1],[28,10],[43,25],[28,6],[94,0]],[[11152,4941],[7,25],[44,3],[1,88]],[[11114,5055],[-1,-90],[4,-12]],[[11060,4928],[0,116]],[[10951,5148],[19,1],[16,-26],[45,-34],[30,-16]],[[10912,4812],[-4,36],[9,24],[22,30],[33,81],[5,26],[-3,16],[8,48],[-31,75]],[[6969,689],[14,14],[7,-22],[-5,-11],[9,-17],[15,7],[14,-7],[12,8],[17,-2],[21,36],[17,-18],[16,-5],[3,23],[12,17],[23,7],[5,27],[28,19],[14,-32],[15,-6],[7,-17],[18,-15],[5,9],[-10,15],[16,9],[24,-12],[3,26],[38,-22],[13,0],[8,21],[-15,20],[8,21],[24,-5],[12,-17],[4,26],[22,-10],[-3,-15],[9,-13],[18,3],[9,14],[17,-9],[23,22],[-4,17],[23,11],[9,-22],[2,-20],[-12,-19],[13,-13],[-1,-38],[11,-15],[-32,-24],[21,-18],[2,-17],[17,-20],[-3,-27],[8,-13],[23,4],[7,7],[4,27],[13,-3],[38,-55],[3,18],[25,-2],[12,-15],[17,7],[-7,24],[19,17],[12,-10],[15,17],[17,-10],[9,20],[31,-35],[13,1],[31,45],[5,-18],[17,7],[-4,-37],[-9,-14],[7,-11],[17,0],[9,25],[14,24],[21,-6],[15,2],[19,-40],[21,-3],[-1,-20],[25,3],[18,-21],[12,17],[14,-6],[-4,-16],[18,-12],[13,0],[11,-18],[30,-2],[-1,-18],[20,-2],[19,8],[17,-12],[57,25],[3,27],[-10,16],[11,7],[-11,17],[14,12],[15,-5],[-2,21],[12,19],[45,6],[-3,-21],[13,-18],[15,-37],[14,-2],[-5,-21],[28,-17],[31,5],[-4,-15],[17,-11],[7,14],[30,15],[1,15],[17,13],[21,-22],[16,-7],[-4,-24],[18,-17],[7,6],[29,-6],[9,23],[13,7],[24,2],[2,-14],[20,8],[5,11],[-13,20],[-2,29],[-13,15],[4,15],[17,-11],[19,-2],[23,13],[-9,-28],[7,-4],[26,8],[19,-7],[10,-15],[17,5],[9,21],[27,5],[-6,13],[-16,-2],[-11,21],[12,7],[9,27],[-29,-8],[1,21],[22,12],[4,11],[19,18],[-1,21],[19,2],[2,13],[19,-6],[-8,28],[14,5],[11,-10],[2,-41],[32,-3],[6,10],[15,-1],[8,9],[40,9],[16,-10],[5,18],[18,27],[19,-10],[11,6],[9,-11],[11,13],[-13,21],[19,13],[8,25],[13,3],[20,15],[-1,19],[15,-2],[24,16],[15,-13],[26,-4],[20,-8],[6,-24],[14,-4],[7,36],[15,7],[6,-18],[24,8],[3,19],[31,13],[4,19],[-22,1],[-4,25],[40,15],[22,-3],[5,26],[24,-5],[10,8],[-17,20],[20,10],[8,13],[24,11],[12,-4],[-6,28],[13,11],[3,18],[-5,13],[5,15],[-16,4],[-14,18],[-19,10],[11,15],[12,-3],[22,29],[3,-24],[13,-1],[2,34],[24,11],[12,-3],[-2,-23],[20,-10],[7,12],[-3,21],[15,3],[14,-28],[19,46],[19,4],[8,-22],[13,5],[-2,28],[32,-16],[8,24],[17,-4],[17,-23],[5,18],[26,30],[-14,17],[12,9],[12,-5],[12,18],[4,20],[41,-19],[15,-29],[15,-2],[3,13],[-13,23],[-9,30],[3,14],[25,10],[0,17],[-18,12],[4,38],[-11,11],[13,31],[-16,-1],[-4,13],[16,22],[8,22],[44,21],[14,-6],[27,16],[-12,22],[5,9],[32,-19],[14,13],[23,3],[14,11],[1,35],[17,9],[21,20],[19,-17],[21,18],[14,-1],[7,32],[11,7],[15,22],[16,12],[5,20],[-9,19],[1,18],[-10,37],[-38,-8],[2,18],[12,15],[21,12],[0,36],[8,10],[30,-5],[13,10],[10,56],[-28,3],[2,27],[30,15],[17,-2],[14,-11],[15,6],[25,-20],[36,1],[3,39],[19,19],[16,7],[22,-12],[4,-23],[24,-1],[21,18],[-7,32]],[[11754,2873],[7,-19],[25,-50],[23,-63],[19,-61],[23,-54],[21,-63],[15,-65],[3,-35],[3,-98],[3,-43],[-2,-24],[-14,-57],[-20,-67],[-26,-63],[-29,-49],[-17,-43],[-4,-32],[6,-21],[29,-58]],[[11819,1908],[-117,-1],[-37,7],[-24,-6],[-299,-2],[0,-78],[-6,-6],[-274,-1],[-13,10],[-21,-8],[-12,-34],[-17,-6],[-16,-17],[-7,-20],[1,-22],[-23,-5],[-8,12],[-26,1],[-32,12],[-44,-33],[-35,-46],[-12,-3],[-15,-28],[0,-150],[62,0],[108,-128],[45,-17],[2,-34],[-10,-33],[4,-22],[23,-50],[9,-30],[1,-42],[-16,-26],[-18,-5],[-32,10],[-9,-16],[6,-30],[-19,-32],[-17,-10],[0,-134],[-29,7],[-18,-2],[-15,-9],[-21,-29],[-13,-13],[6,-23],[-42,4],[-10,-9],[2,-17],[0,-153],[-4,-18],[0,-36],[15,-11],[5,-18],[-18,-6],[9,-31],[-12,-4],[-10,-32],[22,-10],[-7,-19],[-1,-404],[1,-2]],[[10781,50],[-45,1],[-252,0],[-262,-2],[-130,0],[-95,3],[-62,-1],[-169,1],[-226,0],[-29,1],[-125,-1],[-260,1],[-34,0],[-159,-2],[-130,0],[-140,3],[-74,-2],[-231,2],[-169,-1],[-499,1],[-158,2],[-221,1],[-141,-2],[-203,1]],[[6967,56],[2,502],[0,131]],[[11115,5139],[3,0]],[[11205,5155],[-1,-98]],[[11204,5057],[-33,12],[-57,1]],[[23834,11479],[0,59]],[[23834,11538],[40,0],[9,4]],[[23883,11542],[15,-11],[7,-25],[-2,-12],[-30,-5],[13,-18],[-1,-17],[-11,-9]],[[23874,11445],[-17,9],[-23,1]],[[23834,11455],[0,24]],[[23803,11564],[23,9]],[[23826,11573],[9,-9],[-1,-26]],[[23834,11479],[-31,0]],[[23803,11479],[0,85]],[[22718,11882],[-1,-127],[37,0],[0,-22],[-37,0],[-1,-82]],[[22716,11651],[-8,0]],[[22708,11651],[-175,-1],[1,40],[-19,0],[0,84],[56,1],[1,232],[14,1],[0,-22],[41,1],[-1,-84],[19,-1],[-1,-42],[37,0],[0,22],[37,0]],[[18206,5748],[0,-50]],[[18206,5698],[-15,-9],[-21,11],[-11,19],[-1,28],[48,1]],[[18134,5808],[26,1],[6,36],[9,26],[-1,31],[10,15],[21,0]],[[18205,5917],[1,-169]],[[18206,5698],[4,-35]],[[18210,5663],[-28,17],[-47,-1]],[[18135,5679],[-1,129]],[[20805,15206],[0,361],[0,343],[0,307],[-1,7],[-75,0],[1,85],[-3,159],[0,307],[0,39]],[[20886,13175],[0,-168],[-1,-423]],[[20885,12584],[1,-84],[-1,-339],[73,0],[0,-571],[0,-449]],[[20958,11141],[-1,-590],[0,-382],[0,-41]],[[20957,10128],[-346,1]],[[20611,10129],[-244,0],[-190,1],[-177,-1],[-271,0],[-52,-1],[-318,1],[-132,0],[-370,0]],[[18857,10129],[-85,0],[-2,337],[1,253],[11,14],[-1,183],[-9,31],[-1,196]],[[2027,1492],[10,20],[60,-19],[0,85],[71,0],[0,169],[141,0],[0,-219],[0,-206],[-22,-19],[-14,-21],[-2,-14],[-18,2],[-8,45],[-12,5],[-6,15],[-19,21],[-14,0],[-24,13],[-2,-115],[-16,48],[-24,4],[-15,14],[-16,34],[0,55],[-48,0],[-2,22],[-17,31],[-3,30]],[[3581,2015],[-1,-268],[0,-162],[0,-592],[1,-343],[-1,-84],[0,-420],[1,-87]],[[3581,59],[-134,1],[-43,-2],[-405,1],[-92,0],[-175,0],[-421,0],[-67,-1],[-73,1],[-192,0],[-93,-2],[-22,2],[-425,1],[-406,-2],[-18,1],[-417,0],[-53,-1],[-65,2],[-316,-1],[-153,1],[-3,319],[-1,142],[3,307],[2,519],[0,232],[-1,432]],[[13525,11150],[125,-1],[165,1],[73,1],[60,-1],[451,-1]],[[16149,11146],[0,-178],[0,-538],[-1,-297],[108,0],[-1,-77],[0,-421]],[[16255,9635],[0,-251],[-1,-508],[0,-418],[0,-343]],[[16254,8115],[-2,2],[-179,-1],[-11,-1],[-164,0],[-374,1]],[[15524,8116],[-212,0],[-370,0],[-139,1],[-72,-1],[-142,1],[-72,0],[-364,0],[-147,0],[-146,1],[-213,-2]],[[13943,10728],[7,-25],[5,-43],[40,-82],[18,-16],[14,-4],[80,0],[-1,169],[-73,0],[0,103],[-24,8],[-9,-3],[-39,19],[0,-133],[-18,7]],[[24684,5800],[0,-27],[16,14],[15,-11]],[[24694,5654],[-16,0]],[[24678,5654],[1,84],[5,62]],[[24665,5823],[-2,-30],[9,-7],[12,14]],[[24678,5654],[-36,0],[1,168],[22,1]],[[24629,5528],[27,-8]],[[24656,5520],[-1,-47]],[[24655,5473],[-14,1]],[[24641,5474],[-29,0],[0,-24],[-43,0]],[[24569,5450],[0,78],[60,0]],[[24353,5236],[71,-2]],[[24424,5234],[5,-169]],[[24429,5065],[-37,1]],[[24392,5066],[-1,84],[-36,1]],[[24355,5151],[-2,85]],[[24569,5318],[35,1]],[[24604,5319],[36,6]],[[24640,5325],[-1,-28],[-35,-1],[-4,-16],[0,-47]],[[24600,5233],[-32,0]],[[24568,5233],[1,85]],[[14047,4069],[426,-3],[299,0],[262,-3],[250,-1],[346,-1]],[[15630,4061],[144,-1],[101,1],[197,-2],[546,-3],[378,-2],[38,-1]],[[17032,2028],[-243,1],[-130,-1],[-45,1],[-220,0],[-185,2],[-236,0],[-151,0],[-213,-1],[-374,-1],[-142,0],[-197,-2],[-284,-1],[-74,-1],[-208,2],[-156,0]],[[14174,2027],[-131,2],[-2,58],[2,111],[-1,454],[1,419],[1,295],[2,271],[1,432]],[[20442,4056],[196,-1]],[[20638,4055],[70,0],[114,-1],[492,-2],[324,-1]],[[21638,4051],[152,0]],[[22289,2025],[-248,0],[-364,0],[-231,0],[-172,1],[-457,-1],[-283,1]],[[20534,2026],[-94,0]],[[21505,3016],[2,-61],[71,-1],[0,-187],[54,6],[1,-31],[86,2],[0,296],[-71,0],[-12,-40],[-28,20],[-42,21],[-61,0],[0,-25]],[[4279,5739],[143,1],[1,-162],[22,-12],[36,-31],[13,-7],[0,-42],[-8,-6],[-3,-32]],[[4483,5448],[-63,34],[-69,10]],[[4351,5492],[0,79],[-72,0]],[[11472,8119],[-258,0],[1,-482],[-2,-511],[-373,-2],[-277,0],[-84,1]],[[10479,7125],[-3,10],[-31,41],[-26,46],[-24,79],[-10,51],[1,46],[22,80],[21,49],[14,48],[0,37],[-5,54],[-15,32],[-22,13],[-15,20],[-4,27],[-30,34],[-56,39],[-24,27],[-46,30],[-49,13],[-21,18],[-78,12],[-16,7],[-23,-8],[-39,1],[-29,-9],[-34,-6],[-71,-40],[-26,-9],[-23,-3],[-56,-14],[-24,-14],[-8,-18],[-10,-43],[2,-46],[-23,-69],[-25,-11],[-43,9],[-46,27],[-20,23],[-53,38],[-23,7]],[[9488,7753],[-10,21],[-36,30],[-23,11],[-22,16],[-25,12],[-29,7],[-71,38],[-14,-2],[-52,8],[-19,17],[-4,24],[1,46],[-6,50],[-28,72],[-3,86],[-11,92],[3,34],[-2,23],[-7,16],[-44,30],[-27,43],[-35,51],[-30,76],[-7,32],[-10,87],[-9,48],[-8,27],[-36,71],[-50,65],[-13,27],[-4,35],[9,46],[13,23],[41,60],[26,30],[25,19],[75,44],[40,37],[15,28],[5,34],[-10,17],[-59,47],[-23,13],[-71,99]],[[23710,11649],[3,-7],[-20,-26],[-1,-10]],[[23692,11606],[-35,1],[0,-26],[13,-16]],[[23670,11565],[-72,0],[-6,-3]],[[23592,11562],[-83,1],[0,87],[201,-1]],[[23766,11564],[37,0]],[[23803,11479],[-37,0]],[[23766,11479],[0,85]],[[23670,11565],[27,-1]],[[23697,11564],[56,0]],[[23753,11564],[13,0]],[[23766,11479],[-36,0]],[[23730,11479],[-148,-1]],[[23582,11478],[0,67],[10,17]],[[6138,12034],[315,-3],[424,0],[86,-3],[290,0],[99,1],[48,2]],[[7400,12031],[-1,-205],[0,-84],[0,-254],[0,-84],[0,-253]],[[6002,11150],[-14,34],[-20,21],[-8,24],[0,23],[-13,28],[-16,4],[17,32],[-15,8],[-16,29],[0,51],[13,35],[-11,15],[12,38],[-15,22],[-17,-17],[-7,44],[19,55],[-3,11],[15,30],[22,1],[-2,38],[28,44],[-10,16],[3,21],[27,22],[-11,43],[6,7],[-7,32],[14,15],[13,-4],[25,26],[-1,14],[18,5],[-8,23],[17,16],[1,17],[20,4],[-7,17],[37,35],[30,5]],[[3953,15225],[176,0],[267,0],[376,0],[611,1],[318,-1],[467,0]],[[6168,15225],[416,-1],[470,2],[0,-423],[0,-512],[-1,-81],[174,0],[1,-263]],[[7228,13947],[0,-452],[0,-457],[0,-231],[-1,-127],[1,-148],[0,-358],[172,0],[0,-143]],[[6138,12034],[-48,-4],[-294,1],[-109,1],[-153,0],[-370,-1],[-80,0]],[[5084,12031],[-13,13],[-54,20],[-41,21],[-31,22],[-13,17],[-5,30],[1,41],[-2,61],[-10,24],[-20,30],[-28,-1],[-30,-32],[-24,-14],[-25,-7],[-51,12],[-23,21],[-16,25],[-6,22],[3,20],[12,26],[4,57],[-4,47],[-14,19],[-32,16],[-40,6],[-50,25],[-31,2],[-39,-3],[-30,3],[-38,16],[-40,8],[-8,16],[9,8],[38,17],[10,8],[9,30],[5,62],[-8,19],[-17,24],[-44,29],[-29,8],[-11,-4],[-27,-27],[-27,-19],[-32,-15],[-40,-1],[-60,20],[-14,7]],[[4148,12760],[1,8],[0,269],[0,17],[0,303],[0,90],[-1,151],[1,73],[0,541],[-195,0]],[[3954,14212],[-1,0],[0,177],[0,416],[0,420]],[[7763,7615],[71,1]],[[7834,7616],[74,2],[35,-2],[106,0],[503,0],[145,1],[169,0],[220,1],[112,-2],[288,0],[2,137]],[[10479,7125],[17,-29],[25,-21],[15,-20],[14,-33],[16,-92],[1,-49],[5,-55],[2,-71],[5,-23],[36,-75],[20,-26],[40,-45],[20,-26],[31,-32],[29,-43],[19,-53],[-4,-94],[-8,-41],[-46,-72],[-45,-30]],[[10671,6195],[-28,-13],[-38,-29],[-14,-18],[-12,-26]],[[7764,6100],[0,337],[0,253],[-1,248],[1,83],[-1,259],[1,14],[-1,238],[0,83]],[[10926,5171],[90,49],[15,5],[31,0]],[[11062,5225],[-1,-85]],[[10951,5148],[-25,23]],[[11169,5225],[109,0]],[[11062,5286],[1,63]],[[11063,5349],[72,0]],[[11135,5349],[-1,-124]],[[11134,5225],[-72,0]],[[11062,5225],[0,61]],[[13375,8117],[1,-117],[-2,-334],[-1,-527],[-1,-261],[-1,-332],[0,-444]],[[11572,6108],[-279,1],[-85,1],[-138,0]],[[11070,6110],[-69,2],[-6,-2],[-210,4],[-50,-1],[-12,16],[-12,-8],[-11,24],[-12,11],[-17,39]],[[5084,12031],[5,-41],[-34,-97],[-15,-34],[-41,-71],[-46,-54],[-64,-50],[-14,-17],[-24,-42],[-13,-16],[-25,-52],[-41,-62],[-11,-29],[-4,-33],[-2,-79],[-18,-43],[1,-24],[-5,-59],[5,-53],[22,-127],[6,-20],[14,-16]],[[4780,11012],[-1,-114],[1,-174],[-1,-79],[0,-253],[0,-253],[-288,1],[-193,-1]],[[4298,10139],[-3,443],[1,681],[-2,140],[2,421],[1,84],[-1,125],[104,1],[438,-2],[246,-1]],[[16,12016],[29,-11],[43,-24],[20,-30],[10,-31],[9,-47],[15,-24],[26,2],[29,21],[12,18],[5,25],[-3,22],[18,15],[48,3],[44,-22],[40,-35],[23,-32],[23,-45],[20,-29],[12,-9],[81,31],[27,4],[22,12],[20,17],[21,34],[17,88],[29,42],[2,16],[-7,22],[-24,41],[16,37],[11,0],[91,-88],[12,-21],[0,-55],[-9,-40],[16,-6],[23,16],[21,24],[35,49],[13,33],[18,78],[1,30],[-5,53],[-17,47],[0,19],[8,50],[17,48],[21,22],[29,-7],[18,-10],[53,-78],[25,-14],[21,3],[7,14],[29,25],[16,6],[39,33],[12,20],[6,43],[-13,23],[-27,15],[-65,67],[-12,24],[-2,16],[7,18],[19,13],[49,53],[18,25]],[[1128,12675],[49,39],[24,16],[43,19],[26,4],[20,-4]],[[1290,12749],[30,-15],[38,-35],[36,-13],[20,2],[40,32],[28,35],[22,44],[24,22],[21,0]],[[1549,12821],[19,-12],[6,-43],[-23,-24],[-37,-20],[-16,-17],[1,-28],[63,-85],[16,-13],[56,-27],[33,-4],[33,3],[5,-11],[-15,-47],[-23,-31],[-47,-42],[-30,-37],[-13,-28],[-2,-31],[3,-27],[8,-16],[44,-33],[41,-9],[34,-1],[52,10],[22,-14],[16,-38],[14,-43],[28,-53]],[[1837,12100],[-85,-88],[-18,-31],[26,-56],[2,-46],[18,-15],[0,-33],[21,-66],[16,-26],[0,-18],[12,-26],[-2,-14],[16,-37],[13,-20],[3,-25],[-10,-22],[-51,3],[1,-35],[1,-643]],[[1800,10902],[0,-253],[73,-1],[1,-93],[-1,-409],[-16,-27],[1,-396],[6,-9],[5,-46],[-1,-24],[11,-21],[15,-16],[19,-40],[-4,-16],[5,-76],[12,-58],[18,-6],[28,-19],[17,10],[4,-13],[36,-10],[10,-22],[11,2],[17,21],[27,7],[17,-28],[1,-31],[-11,-25],[-10,-4],[-49,5],[-21,-8],[7,-19],[-3,-19],[-18,-4],[1,19],[-15,14],[-47,-14],[-30,-2],[-19,36],[-19,18],[-17,-3],[-4,-30],[-14,-21],[-10,2],[-3,36],[-13,20],[-17,10],[-29,9],[-60,-39],[27,-27],[-10,-30],[-34,-12],[-43,-29],[21,-21],[2,-18],[-23,-10],[-21,4],[6,48],[-20,18],[-18,-10],[-7,-20],[-19,-11],[-12,4],[-9,21],[4,18],[-6,15],[-21,8],[-11,-10],[27,-20],[-9,-22],[-29,-4],[-11,4],[-7,30],[-10,11],[-14,-2],[-16,-17],[0,-20],[17,-26],[-4,-32],[-32,-30],[-3,-32],[24,-14],[14,-14],[4,-26],[12,-22],[-39,-9],[-5,-7],[14,-26],[-5,-17],[-12,-11],[-10,-24],[-25,-38],[23,-15],[9,-22],[0,-15],[-10,-15],[-26,-6],[-4,27],[-11,5],[-28,-33],[-6,-16],[4,-20],[27,4],[16,-8],[11,-16],[0,-28],[-20,-3],[-15,-11],[-2,-18],[16,-31],[18,-6],[13,13],[15,1],[12,-12],[-13,-17],[-1,-13],[24,-13],[25,-33],[-29,-17],[-5,-19],[35,-7],[25,-23],[3,-13],[-21,-12],[-22,-27],[7,-11],[15,0],[9,-22],[-8,-18],[29,-58],[-5,-28],[-52,-38],[-9,25],[-16,16],[-20,-3],[-29,-24],[-15,-30],[15,-36],[13,-17],[6,-16],[-19,-8],[-10,-31],[-40,-33]],[[1299,8129],[-285,0],[-141,2],[-140,0],[-220,2],[-247,0],[-70,1],[-183,0]],[[13,8134],[1,446],[1,287],[1,535],[1,468],[0,108],[2,413],[0,89],[0,154],[3,272],[3,335],[-2,154],[0,109],[-3,212],[-4,300]],[[23075,1771],[273,1],[82,-2],[67,1],[64,2],[149,1],[68,0],[72,1],[0,128],[71,1],[422,-1],[177,1]],[[24520,1904],[-2,-211],[1,-342],[-6,-517],[2,-239],[-3,-341],[0,-165],[-4,-26],[-10,-28],[11,-3],[-1,25],[40,0],[0,-33],[91,-20]],[[24639,4],[-323,0],[-177,-2],[-90,3],[-17,-2],[-71,1],[-272,0],[-230,-1],[-77,0],[-202,-1]],[[1425,15735],[275,-1],[4,1],[367,-3],[178,-1],[627,1],[41,2],[39,-2],[556,0],[441,0]],[[3953,15732],[0,-169],[0,-338]],[[3954,14212],[-63,-1],[-181,0],[0,-178],[-266,1],[-23,2],[-153,1],[-1,175],[-52,0],[0,27],[-34,-27],[-282,0],[0,-178],[-33,1],[-447,2],[-260,-1],[-377,0],[-37,6],[-27,-6],[-253,0],[-20,-12]],[[1445,14024],[-7,11],[-1,44],[0,115],[5,39],[1,137],[-1,47],[0,359],[1,200],[-1,91],[-3,30],[3,40],[1,386],[-3,26],[-16,66],[1,120]],[[3,15735],[111,-1],[376,0],[99,-1],[129,0],[296,0],[277,0],[134,2]],[[1445,14024],[-7,-18],[-1,-349],[1,-191]],[[1438,13466],[-59,0],[-27,-22],[-48,1],[11,-16],[-24,-46],[0,-99],[-8,-8],[-65,0],[-1,-253]],[[1217,13023],[-145,0],[-1,-338],[44,0],[13,-10]],[[16,12016],[0,168],[-3,519],[-1,253],[0,173],[-2,487],[0,229],[-1,190],[-2,357],[-2,555],[-1,327],[-1,461]],[[1417,13018],[21,5]],[[1438,13023],[0,-85]],[[1438,12938],[-81,0]],[[1357,12938],[10,24],[42,50],[8,6]],[[10919,5261],[12,-29],[32,-17],[17,6],[1,44],[66,0],[1,21],[14,0]],[[10906,5198],[6,8],[-4,27],[11,28]],[[15642,5837],[286,-1],[212,-1],[1,157],[74,0],[69,-2],[0,-157],[103,-1],[5,9],[141,-11],[180,1],[1,-85],[214,1],[88,3],[196,2],[106,0],[145,-2],[258,1],[197,-2]],[[17918,5749],[0,-253],[3,-1],[209,0]],[[18130,5495],[76,0]],[[18206,5495],[70,0],[0,65],[-5,11],[39,10],[108,1]],[[18418,5582],[117,0],[68,-2],[175,0],[286,3]],[[19064,5583],[0,-86],[2,-336],[0,-99],[-2,-328],[2,-338],[-1,-338]],[[15630,4061],[3,293],[0,4],[1,216],[0,177],[3,240],[2,540],[3,306]],[[1800,10902],[234,-1],[335,0],[13,-1],[130,-36],[18,-3]],[[2530,10861],[-1,-50],[5,0],[65,-73],[3,-6],[73,0],[-1,84],[146,-1]],[[2820,10815],[1,-109],[27,-26],[37,-10],[43,-23],[69,-42],[46,-19],[2,-32],[-6,-15],[0,-29],[15,-30],[-15,-22],[0,-102],[33,-20],[54,-21],[36,3],[9,-18],[11,-39],[-25,-2],[-32,-19],[-13,-17],[4,-30],[-10,-29],[6,-18],[-21,-36],[9,-31],[1,-29],[24,4],[14,-32],[8,-4],[15,-32],[25,-12],[39,-1]],[[3226,9973],[1,-169],[1,-332],[-1,-174],[-1,-167],[1,-83],[0,-590],[1,-81],[0,-252]],[[1837,12100],[24,-26],[16,-4],[39,9],[35,34],[28,48],[24,22],[23,6],[31,18],[33,34],[19,8],[28,-2],[17,-6],[64,-39],[56,-16],[18,1],[61,20],[115,65],[22,9],[24,4],[42,-15],[19,-1],[26,22],[12,29],[9,58],[14,17],[44,9],[49,-14],[23,0],[14,10],[25,37],[6,40],[-16,34],[-18,15],[-50,20],[-11,15],[5,20],[51,93],[34,45],[34,49],[12,21],[22,27],[19,12],[57,-6],[95,11],[40,13],[23,18],[23,8],[21,0],[31,14],[32,7],[35,-4],[16,-15],[2,-30],[-6,-60],[15,-18],[27,12],[21,22],[19,11],[28,4],[57,12],[56,2],[63,-20],[18,2],[34,21],[71,12],[64,-4],[22,-8],[31,-20],[33,-52],[30,-11],[44,0],[25,9],[24,18],[29,30],[32,26],[33,6],[34,-13],[50,-29],[40,-36]],[[4298,10139],[-201,2],[-116,0],[-218,-1],[-290,0],[-104,1],[-143,1],[0,-169]],[[2820,10815],[0,169],[-290,1],[0,-124]],[[1290,12749],[1,120],[30,17],[34,0],[2,52]],[[1438,12938],[65,1],[8,-15],[1,-27],[27,0]],[[1539,12897],[-5,-27],[7,-12],[8,-37]],[[1438,13023],[71,0],[22,-4]],[[1531,13019],[9,-46],[-3,-32],[7,-19],[-5,-25]],[[1531,13019],[22,24],[-22,-1],[-3,31],[-13,33],[11,11],[-10,44],[-3,30],[0,41],[4,52],[-5,12],[0,157],[-20,13],[-54,0]],[[20532,1018],[1,250],[1,758]],[[9205,13384],[1,8]],[[9206,13392],[114,13],[14,4]],[[9334,13409],[3,-55],[19,0]],[[9356,13354],[0,-104]],[[9356,13250],[-18,2],[-66,19],[-20,14],[-45,46],[-12,5]],[[9195,13336],[10,48]],[[9334,13409],[22,19]],[[9356,13428],[6,9],[20,2],[11,-16],[1,-18],[18,-9]],[[9412,13396],[3,-16]],[[9415,13380],[-4,-26],[-55,0]],[[6890,16745],[0,-506],[264,-1],[345,0],[0,-130],[-2,-561],[0,-445],[0,-384],[160,0],[284,-1],[411,-1]],[[8352,14716],[5,-13],[35,-8],[4,-11],[-6,-25],[24,-1],[18,-13],[12,12],[31,-19],[15,-26],[32,-31],[-8,-17],[21,-14],[5,-11],[19,18],[17,-19],[-13,-29],[18,-34],[3,-56],[-20,-5],[1,-25],[8,-19],[16,-6],[7,-23],[1,-47],[49,-38],[-6,-26],[-27,-1],[7,-17],[22,11],[-5,-22],[9,-11],[-8,-19],[31,-30],[27,-19],[28,-4],[-1,-14],[12,-7],[-2,-17],[26,2],[-5,-26],[14,3],[24,-15],[-3,-19],[44,-85],[11,-12],[14,18],[17,-16],[-3,-32],[-8,-18],[18,-19]],[[8882,13861],[-207,1],[-32,-10],[-38,-7],[-11,-11],[-32,8],[-30,15],[-26,5],[-330,2],[-131,-1],[-118,0],[-16,8],[-58,66],[-21,11],[-129,0],[-85,-2],[-36,8],[-38,-6],[-136,-1],[-180,0]],[[6168,15225],[0,166],[0,294],[1,293],[0,261],[276,0],[0,259],[1,248],[444,-1]],[[9355,13142],[23,-4],[10,13],[-1,18],[32,5],[10,-14],[13,1],[15,-12],[41,52],[14,-3],[5,-21],[20,3],[9,9],[13,-6],[23,21],[16,-19],[51,0],[1,191]],[[9650,13376],[234,0],[17,8],[37,42],[16,8],[46,5],[313,0]],[[10313,13439],[-1,-236]],[[10312,13203],[1,-278],[-2,-145],[1,-328],[-1,-8],[0,-272],[151,-1],[-1,-253],[0,-244],[-1,-272],[0,-245]],[[9366,11155],[0,266],[2,27],[-8,77],[12,53],[-9,53],[3,47],[0,151],[-1,53],[7,35],[0,99],[4,31],[-1,26],[-9,44],[0,44],[-9,55],[0,294],[0,421],[1,32],[0,124],[-3,55]],[[9218,13546],[83,0],[2,-28],[19,-5],[2,-32]],[[9324,13481],[-42,0],[0,-42],[-68,0]],[[9214,13439],[-4,43],[0,33],[8,31]],[[8352,14716],[534,-1],[443,-1],[280,-1],[549,-1]],[[10158,14712],[0,-507],[155,0],[1,-87],[0,-259],[-1,-196],[0,-224]],[[9650,13376],[0,63],[-147,0],[0,253],[-146,0]],[[9357,13692],[-51,-1],[-14,-5],[-15,-17],[-59,-123]],[[9214,13439],[-8,-47]],[[9205,13384],[-22,-6],[-6,-11],[-14,7],[2,14],[-19,4],[1,21],[-37,28],[-2,22],[-16,7],[-4,-13],[-19,13],[-10,-26],[-10,5],[-11,23],[7,21],[-15,4],[-15,-11],[-12,14],[-3,33],[-16,13],[-21,34],[0,32],[-9,13],[-11,34],[5,26],[-16,15],[18,11],[-14,11],[5,12],[-26,32],[-7,15],[14,19],[-20,15],[-8,16],[5,37],[-17,-7]],[[9284,14543],[5,26],[21,18],[10,18],[-21,2],[-9,-20],[-47,0],[0,-21],[28,0],[0,-21],[-42,0],[0,21],[-19,0],[-10,-22]],[[9200,14544],[-3,0],[0,85],[-40,0],[-22,-42],[-67,-2],[0,-29],[-28,-11],[9,-26],[0,-16],[18,0],[46,-34],[16,-9],[68,-53],[0,-30],[17,-1],[0,-31],[14,0],[5,31],[111,0],[0,151],[-7,17],[-53,-1]],[[9356,13481],[4,20],[-3,37],[0,154]],[[9650,13376],[-29,0]],[[9621,13376],[-135,-1],[-20,14],[-29,7],[-25,0]],[[9356,13428],[0,53]],[[7834,7616],[1,138],[-2,149],[1,50],[-157,0],[-31,-8],[-31,-16],[-44,-14],[-82,-7],[-83,3],[-2,-12],[-1,-91],[80,-73],[18,-9],[33,-4],[16,-20],[23,-14],[29,2],[28,11],[8,-10],[27,-1],[19,5],[8,-6],[0,-93],[71,19]],[[6637,6100],[-166,1],[0,168]],[[6471,6269],[1,502],[0,171],[1,339],[-1,336],[1,341],[-1,164],[-207,0],[-1,250],[1,171],[0,169],[0,167],[-1,246],[1,184],[0,183],[0,67]],[[8122,8030],[0,-162],[8,0],[0,-50],[22,-11],[31,10],[7,26],[10,11],[-3,21],[15,16],[9,-14],[64,-17],[11,13],[5,20],[-19,39],[25,2],[10,-11],[15,7],[17,-2],[17,36],[-5,27],[-13,30],[6,17],[-55,0],[1,79],[6,17],[17,21],[0,52],[-28,0],[-8,5],[0,79],[-144,0],[0,-168],[-21,-1],[0,-92]],[[9356,13481],[-32,0]],[[3772,17866],[-2,-610],[0,-425],[0,-253],[-1,-131],[0,-207],[184,0],[1,-173],[-1,-87],[0,-248]],[[3,15735],[0,263],[-2,447],[0,117],[-1,362],[0,562],[1,383],[255,0],[329,-1],[482,-1],[461,-2],[496,1],[246,0],[384,0],[466,0],[389,0],[263,0]],[[18210,5663],[-4,0],[0,-67],[12,-43],[-9,-27],[-3,-31]],[[18130,5495],[-16,59],[2,18],[27,52],[-8,17],[0,38]],[[22713,11143],[320,0],[549,-2],[0,254]],[[23582,11395],[147,0]],[[23729,11395],[-1,-170],[74,0]],[[23802,11225],[156,-1]],[[23958,11224],[9,-35],[-2,-33],[17,-38],[-6,-21],[25,-5],[6,-26],[10,-14],[-5,-16],[5,-13],[18,-2],[0,-19],[-13,-3],[0,-29],[8,-33],[-13,-11],[-20,5],[4,-17],[24,-17],[11,-15],[0,-22],[29,12],[14,-29],[17,-12],[4,-17],[-14,-7],[-13,-27],[13,-4],[14,-20],[8,-30],[30,1],[2,-13],[37,-36],[-11,-19],[4,-24],[25,-16],[-9,-10],[-16,10],[-5,-15],[28,-15],[5,-10],[1,-29],[-12,-22],[-3,-18],[6,-16],[21,-30],[2,-19],[18,-10],[-7,-20],[-32,-21],[-2,-13],[16,-3],[16,16],[9,-16],[-2,-29],[22,-10],[4,-8],[-10,-21],[-20,-12],[12,-11],[19,9],[15,-43],[-9,-24],[14,-4],[14,17],[8,-13],[1,-22],[10,-46],[0,-22],[8,-6],[26,7],[-3,-13]],[[22706,10127],[3,312],[1,301],[3,403]],[[22716,11651],[227,0],[49,-2],[151,0],[1,341],[1,118],[4,47],[356,-1],[205,-1]],[[23710,12153],[6,-15],[25,-11],[-12,-27],[7,-41],[1,-26],[5,-15],[32,-28],[0,-21],[-20,-74],[7,-27],[-15,-30],[1,-11],[21,-18],[10,-27],[-11,-39],[8,-25],[17,-17],[30,-8]],[[23822,11693],[-1,-20],[-23,0],[-17,-6],[1,-18]],[[23782,11649],[-53,0]],[[23729,11649],[-19,0]],[[23582,11478],[0,-83]],[[22713,11143],[3,461],[-8,47]],[[23729,11649],[1,-63],[23,0],[0,-22]],[[23697,11564],[6,10],[-11,32]],[[23802,11395],[1,84]],[[23834,11455],[-1,-81]],[[23833,11374],[-31,0],[0,21]],[[23766,11479],[0,-84]],[[23766,11395],[-37,0]],[[23729,11395],[1,84]],[[23766,11395],[36,0]],[[23833,11374],[0,-43],[-5,-21],[-26,0],[0,-85]],[[3821,2020],[172,0],[239,0],[127,1],[348,5],[323,1],[242,3]],[[5272,2030],[2,-451],[140,-1],[59,1],[33,-1],[407,0],[348,-2],[276,-1],[77,1],[356,0]],[[6970,1576],[0,-335],[-1,-134],[1,-207],[-1,-84],[0,-127]],[[6967,56],[-148,-1],[-184,2],[-61,-1],[-230,0],[-232,1],[-117,0],[-149,1],[-398,-1],[-13,1],[-172,0],[-169,-1],[-104,1],[-195,-1],[-14,2],[-210,-1],[-104,1],[-186,-1],[-132,1],[-322,-1],[-65,0],[-181,1]],[[20957,10128],[291,0],[511,0],[226,0],[73,-1],[291,0]],[[22347,9200],[0,-5],[0,-334],[-2,-92],[0,-203],[-1,-171],[0,-40],[0,-253],[77,-1],[1,-160],[0,-201],[-1,-137]],[[22421,7603],[-98,1],[-244,-2],[-89,0],[-433,6]],[[21557,7608],[-291,2],[-217,0],[-144,2],[-216,-2]],[[20689,7610],[2,340],[1,6],[1,154],[-90,1],[2,168],[-1,116],[1,75],[2,400],[1,443],[2,394],[-1,6],[2,416]],[[6890,16745],[1,171],[-1,236],[0,15],[1,253],[0,246],[0,197]],[[6891,17863],[137,0],[492,1],[409,1],[352,1],[393,1]],[[8674,17867],[0,-449],[0,-169],[0,-83],[0,-283],[0,-645],[155,-1],[-1,-507],[0,-102],[0,-405],[458,-1],[388,-2],[485,-1]],[[10159,15219],[-1,-507]],[[20498,5826],[46,25],[32,2]],[[20576,5853],[136,-20],[0,-85],[-3,-9],[-33,-1]],[[20676,5738],[-12,15],[-50,11],[-72,-2],[-35,-4],[-1,25],[-8,43]],[[18970,7611],[494,1],[366,2],[135,-1],[82,1],[207,2],[172,-3],[118,0],[79,-2]],[[20623,7611],[39,-20],[1,-10],[17,-10],[8,-17],[0,-102],[3,-138],[-12,-19],[-46,-56],[-22,-33],[-33,-43],[-22,-12],[-23,-21],[-17,-27],[-6,-22],[-29,-63],[-16,-17],[-6,-27],[1,-16],[-11,-6],[-8,-27],[6,-47],[10,-28],[16,-24],[28,-27],[13,-46],[-14,-47],[-14,-21],[-60,-54],[-18,-30],[-19,-23],[-14,-5],[-25,-29],[-14,-34],[-2,-24],[3,-34],[-13,-26],[-46,-52],[-34,-17],[-30,-33],[5,-9],[-15,-44],[6,-19],[5,-33],[16,-45],[7,-31],[14,12],[18,-17],[-13,-15],[47,-38],[6,0],[18,-44],[21,-23],[5,13],[15,-10],[19,-23],[12,12],[56,-10],[-2,-20],[17,-1],[10,-15],[10,8],[16,-19],[-2,-25],[22,-21],[3,-17],[26,4],[5,-27],[15,-14]],[[20498,5826],[-3,4],[-140,2],[0,-157],[67,-5],[48,13],[0,15],[36,-10],[17,2],[7,-13]],[[20530,5677],[38,-74],[-2,-293],[-4,-24],[5,-28],[0,-174],[18,-32],[0,-53],[3,-9],[24,-12],[3,-102],[15,-100],[-5,-33],[0,-37],[-4,-65],[4,-28],[13,-40],[-1,-143],[-2,-26],[1,-54],[6,-21],[-8,-24],[6,-29],[-4,-33],[2,-188]],[[19064,5583],[-1,422],[0,85],[-95,0],[1,514],[0,233],[0,435],[1,222],[0,117]],[[20676,5738],[2,-25],[-18,9],[-20,0],[0,-50],[-22,-1],[-88,6]],[[20623,7611],[66,-1]],[[21557,7608],[1,-503],[-1,-90],[2,-416],[-1,-177],[-1,-84],[-1,-254],[84,-1],[0,-345],[-1,-316],[0,-441],[0,-594],[-1,-336]],[[9356,13185],[0,65]],[[9356,13250],[29,7],[36,15],[57,3],[46,-15]],[[9524,13260],[5,4],[74,103],[18,9]],[[9355,13142],[1,43]],[[9524,13260],[-15,19],[-14,32],[-44,44],[-36,25]],[[9356,13185],[-147,1],[0,84],[-16,10],[2,56]],[[9200,14544],[4,-12],[70,-56],[14,-3],[-4,70]],[[4780,11012],[38,-51],[23,-50],[42,-35],[53,-31],[44,-36],[73,-52],[49,2],[41,13],[47,5],[32,-6],[45,-14],[38,-31],[21,-28],[30,-29],[46,-24],[50,-3],[39,-6],[13,-6],[48,-37],[30,-3],[31,10],[39,28]],[[6471,6269],[-216,0],[-292,0],[-276,0],[-149,1],[-74,-1],[-143,0]],[[5321,6269],[-144,0],[1,-169],[-216,0],[-317,0],[-115,0],[-233,-3],[-206,0],[-257,0],[-87,-1],[-180,0]],[[3567,6096],[-113,0]],[[24655,5473],[31,-4],[30,4]],[[24716,5473],[-19,-18],[4,-21],[-11,-32]],[[24690,5402],[-49,0]],[[24641,5402],[0,72]],[[24605,5402],[36,0]],[[24690,5402],[21,-24],[0,-22],[-20,12],[-3,-22],[14,-5],[13,8],[8,-16],[-22,-12]],[[24701,5321],[-36,7],[-25,-3]],[[24604,5319],[1,83]],[[12,3532],[0,587],[0,338],[-1,52],[1,199],[-2,599],[0,170],[1,430],[1,332],[1,173],[0,91],[0,331],[1,414],[0,452],[-3,34],[3,27],[-1,373]],[[22920,9113],[0,-42],[-6,-1],[0,-42],[-67,0],[-70,3],[-72,-3],[-72,1],[0,85],[-32,1],[-24,16]],[[10797,4831],[4,30],[-6,44],[3,18],[15,25],[31,31],[2,18],[-9,37],[-25,49],[-41,62]],[[10771,5145],[-4,13],[0,42]],[[10771,5145],[-35,-9],[-25,1],[-26,-9],[-3,-44],[-7,-45],[0,-22],[20,-61],[2,-126]],[[4207,5489],[72,10]],[[4279,5499],[72,-7]],[[4483,5448],[-11,-57],[-49,-15],[0,-105],[-110,-1],[-100,24],[-5,0],[0,107],[17,1],[0,24],[-20,-13],[-32,-1],[-7,14],[-28,10],[-13,22],[10,6]],[[15372,17866],[446,1],[225,0],[510,1],[232,1],[374,1]],[[17159,17870],[0,-49],[-2,-582],[1,-4],[-1,-169],[-1,-391],[1,-263],[2,-186],[100,0],[1,-377],[-1,-310],[1,-171],[-1,-156]],[[15484,14202],[-2,16],[1,323],[-1,168],[1,507]],[[15483,15216],[0,401],[0,611],[-112,0],[1,506]],[[15372,16734],[0,275],[0,398],[1,3],[0,251],[-1,205]],[[24657,5570],[36,0]],[[24722,5567],[1,-24],[24,-14],[-8,-33],[-20,8]],[[24719,5504],[-12,11],[-51,5]],[[24656,5520],[1,50]],[[24583,5570],[59,0]],[[24642,5570],[15,0]],[[24629,5528],[-30,22],[-16,20]],[[24427,5654],[74,-46]],[[24501,5608],[0,-64],[-8,-116]],[[24493,5428],[-9,4],[-59,1]],[[24425,5433],[1,55],[-72,1]],[[24354,5489],[0,24]],[[24354,5513],[0,98],[64,42],[9,1]],[[17148,2028],[-1,-29],[1,-112],[-1,-338],[-1,-322],[1,-101],[-2,-19],[-1,-312],[0,-161],[-5,-607]],[[17139,27],[-141,1],[-284,1],[-240,-1],[-324,1],[-305,2],[-191,-1],[-162,1],[-334,3],[-159,1],[-195,0],[-118,-2],[-112,0],[-357,3],[-49,1]],[[14168,37],[0,84],[0,257],[1,88],[2,449],[-1,56],[2,165],[-1,86],[1,154],[2,99],[-1,251],[0,189],[1,112]],[[16255,9635],[437,1],[287,-2],[122,0],[237,0],[287,-1],[72,1],[219,1],[84,-1],[491,-1],[367,0]],[[18858,9633],[1,-85],[0,-253],[-1,-182],[1,-324],[0,-7],[0,-329],[2,-340]],[[18861,8113],[-507,0],[-105,0],[-418,1],[-17,1],[-113,0],[-41,-1],[-420,0],[-319,0],[-376,1],[-291,0]],[[11135,5349],[1,78],[-2,37],[3,54]],[[11137,5518],[129,-1],[12,-17],[-1,-231],[1,-44]],[[13484,4071],[142,0],[64,-2],[71,1],[72,-1],[80,1],[134,-1]],[[14168,37],[-50,0],[-239,2],[-277,1],[-268,2],[-56,1],[-63,0],[-294,3],[-158,0],[-50,2],[-240,-1],[-108,2],[-345,1]],[[12020,50],[1,24],[14,44],[3,36],[-1,29],[-14,43],[-18,49],[-38,81],[-19,25],[-22,3],[-35,14],[-35,29],[-25,46],[-24,59],[-15,22],[-41,73],[-30,42],[-27,55],[-13,37],[-9,36],[-8,58],[-1,36],[11,56],[0,68],[-8,38],[-34,66],[-10,41],[0,67],[9,36],[23,70],[15,35],[61,118],[18,38],[26,38],[22,22],[9,15],[21,55],[35,104],[4,29],[-3,49],[-27,41],[-16,31]],[[20530,5],[-70,-1],[-323,1],[-172,1]],[[19965,6],[1,15],[-9,34],[5,15],[5,46],[13,25],[-1,33],[5,21],[2,54],[30,129],[22,45],[5,32],[18,11],[8,-19],[30,8],[8,10],[-21,28],[-17,44],[0,51],[13,59],[-23,30],[-5,60],[7,49],[29,57],[30,48],[8,41],[12,14],[23,11],[-8,46],[-1,40],[4,45],[4,76],[8,50],[13,27],[-4,39],[-6,16],[5,16],[-1,26],[-21,18],[2,16],[-7,15],[-5,66],[-9,11],[3,21],[-16,20],[-10,27],[-40,23],[-13,57],[-13,11],[-8,-7],[18,-23],[-28,-13],[-30,-26],[21,39],[-7,24],[-12,-2],[-4,-32],[-25,-22],[-13,1],[-11,24],[-17,-3],[1,27],[-11,17],[-15,4],[-14,-5],[-14,-16],[-36,-21],[-29,16],[-22,4],[-18,21],[-14,34],[-31,42],[0,25],[-10,15],[-28,13],[-28,-6],[-18,6],[-5,15],[22,64],[9,29],[-15,14],[32,7],[6,9],[1,37],[10,19],[21,9],[0,20],[11,46]],[[18696,340],[0,181],[213,-3],[-1,-262],[-27,42],[-170,3],[-15,24],[0,15]],[[19965,6],[-182,0],[-284,0],[-350,2],[-130,1],[-256,4],[-246,4],[-212,2],[-142,2],[-177,1],[-389,2],[-153,1],[-305,2]],[[24572,5062],[75,0]],[[24647,5062],[0,-24],[-16,-6],[23,-18],[-8,-20],[6,-16]],[[24652,4978],[-83,1],[-67,3],[1,84]],[[24290,5066],[32,0]],[[24322,5066],[70,0]],[[24429,5065],[74,3]],[[24652,4978],[13,0],[14,-19],[-32,-48],[18,-7],[18,14],[9,-5],[-3,-20],[-20,2],[2,-17],[12,-15],[33,-8],[-8,-19],[-31,11],[8,-18],[-6,-17],[0,-31],[14,-3],[-5,-18],[1,-29],[-7,-23],[18,-24],[-12,-34],[12,-62],[-18,-12],[13,-21]],[[24695,4555],[-343,4]],[[24352,4559],[2,169],[35,0],[1,43],[-36,0],[3,212],[-18,10],[-39,2],[-13,33],[3,38]],[[24281,5521],[73,-8]],[[24354,5489],[0,-84]],[[24354,5405],[-80,2]],[[24298,5153],[57,-2]],[[24322,5066],[-1,43],[-21,1],[-10,20],[8,23]],[[24501,5608],[61,-38],[21,0]],[[24569,5450],[0,-49]],[[24569,5401],[-75,1]],[[24494,5402],[-1,26]],[[24206,5006],[44,-1],[0,62],[40,-1]],[[24352,4559],[-145,2],[-1,445]],[[24270,5332],[23,-13]],[[24293,5319],[2,-23],[-24,0],[12,-30],[-4,-35],[10,-10],[12,-28],[-3,-40]],[[24298,5153],[-92,1]],[[24206,5154],[-1,143],[2,10],[0,94]],[[24424,5234],[75,-1]],[[24701,5321],[-4,-12],[24,-31],[-12,-8],[-12,11],[-21,-5],[18,-22],[-8,-20],[-24,9],[-6,-7]],[[24656,5236],[-56,-3]],[[24354,5405],[35,-1]],[[24389,5404],[0,-84]],[[24389,5320],[-37,0]],[[24352,5320],[2,85]],[[24293,5319],[59,1]],[[24352,5320],[1,-84]],[[17159,17870],[445,0],[448,0],[500,1],[352,0],[367,0],[299,0],[352,0],[365,1],[440,0]],[[19167,16478],[0,-85],[224,0],[0,169],[-224,0],[0,-84]],[[6970,1576],[0,334],[0,122],[-166,1],[-1,276],[0,143],[-2,99],[-2,401],[1,16],[-4,414],[-4,423],[-3,252],[-155,1]],[[6634,4058],[2,253],[0,84],[0,168]],[[24206,5069],[0,85]],[[24206,5006],[0,63]],[[12954,14204],[352,-1],[426,1],[26,-9],[2,-29],[41,-1],[0,32],[37,6],[156,0],[286,1]],[[13087,11151],[1,587],[0,171],[1,258],[-134,0],[0,507],[-2,171]],[[12953,12845],[1,84],[0,254],[0,338],[1,330],[-1,8],[0,265],[0,80]],[[12820,15216],[445,2]],[[13265,15218],[295,0],[371,-1],[147,1],[100,-2],[121,1],[74,-1],[223,0],[19,0],[313,1],[555,-1]],[[12954,14204],[-75,1],[-59,-1],[0,400],[0,106],[0,506]],[[6634,4058],[-105,0],[-261,-1],[-58,0],[-133,-1],[-390,-4],[-91,0]],[[5596,4052],[-246,-1],[-214,0]],[[5136,4051],[-4,508],[71,1],[0,505],[36,0],[2,77],[6,18],[-12,31],[4,8],[0,161],[36,1],[1,214],[1,525],[44,0],[0,169]],[[3567,6096],[0,-40],[1,-485],[0,-104],[9,12],[26,6],[26,-22],[13,-3],[21,-20],[17,-9],[8,-18],[-49,-2],[-1,-513],[37,-5],[0,-74],[24,-8],[12,-15],[0,-238],[-1,-168],[215,0],[-3,-336],[1,-2]],[[3923,4052],[-112,0]],[[5136,4051],[-270,1],[-87,-1],[-256,0],[-531,2],[-69,-1]],[[1417,13018],[-1,5],[-199,0]],[[11070,6110],[0,-51],[5,-26],[39,-126],[23,-94],[1,-30],[-1,-265]],[[11063,5349],[0,84],[-68,0],[-110,3],[15,-77],[10,-34],[9,-64]],[[14918,17242],[8,0],[0,-407],[-2,-100]],[[14924,16735],[-166,0],[-131,1],[-185,0],[-410,1]],[[14032,16737],[0,505],[70,1],[432,-3],[324,2],[60,0]],[[24389,5404],[36,0]],[[24425,5404],[0,-84]],[[24425,5320],[-36,0]],[[17918,5749],[0,169],[206,-1],[1,-85],[9,-24]],[[18205,5917],[140,1],[1,-249],[72,-6],[0,-81]],[[18861,8113],[108,0],[1,-164],[0,-254],[0,-84]],[[15642,5837],[1,256],[-119,1],[-1,169],[0,421],[0,421],[1,256],[1,252],[-1,54],[0,199],[0,170],[0,80]],[[4279,5560],[0,-61]],[[5596,4052],[0,-160],[-18,-2],[1,-45],[17,-19],[0,-357],[71,0],[1,-119],[-16,-2],[-8,-20],[-19,6],[-12,-13],[6,-24],[-3,-15],[-13,-8],[4,-19],[-11,-39],[1,-338],[-71,0],[0,-230],[10,-8],[-1,-21],[-8,-8],[-1,-216],[-6,-16],[-23,-23],[-6,-17],[0,-222],[-178,-2],[0,-85],[-41,0]],[[24566,6577],[-16,-44],[18,-11],[7,-15],[-9,-21],[9,-13],[-16,-38],[10,-17],[8,18],[14,-7],[-11,-23],[-35,-5],[5,-17],[13,4],[22,-32],[-43,-14],[-13,-26],[-9,-33],[-3,-32],[8,-18],[31,-19],[-4,-44],[8,-16],[-13,-18],[12,-9],[8,-53]],[[24567,6074],[-141,1],[1,-175],[0,-246]],[[24206,5069],[-430,-2]],[[23776,5067],[1,425],[-180,-2],[-1,84],[37,0],[-1,85],[144,1],[3,251],[4,150],[3,15]],[[24496,5318],[73,0]],[[24499,5233],[-3,85]],[[24425,5433],[0,-29]],[[24425,5320],[71,-2]],[[25295,2280],[17,5],[-1,-43],[13,-10],[-3,-39],[-7,-14],[0,-23],[-8,-21],[16,-14],[-2,-12],[-20,-11],[-3,-11],[29,-9],[3,-38],[-15,-25],[15,-20],[2,-18],[-7,-22]],[[25324,1955],[-13,-2],[-14,8],[-35,1],[-16,5],[-11,-5],[-8,-18],[-15,-1]],[[25212,1943],[-8,25],[1,57],[1,254],[87,0],[2,1]],[[25324,1955],[2,-13],[-12,-35],[14,-10],[12,-20],[-8,-24],[14,-19],[21,5],[-4,-20],[-16,-11],[-11,2],[-16,-17],[2,-18]],[[25322,1775],[-62,0],[2,126]],[[25262,1901],[-5,14],[-45,28]],[[23003,2953],[264,2],[28,-3],[57,1],[145,0],[64,2],[77,-2],[219,1],[56,-1],[153,0],[0,-84],[219,1],[70,0],[133,1],[222,-1],[246,1],[12,-14]],[[24968,2857],[-9,-37],[7,-6],[30,25],[7,-32],[-31,2],[6,-22],[44,9],[4,-13],[-16,-17],[8,-23],[17,11],[9,-5],[13,-41],[12,-25],[-9,-18],[22,-24],[-2,-27],[8,-21],[-2,-22],[25,-22],[11,-15],[5,-19],[21,-20],[21,-10],[-16,-13],[-1,-14],[8,-33],[13,-4],[17,13],[26,8],[6,-27],[37,-22],[-12,-22],[1,-10],[37,-26],[10,-26],[21,-4],[-21,-25]],[[25262,1901],[-110,-1],[-246,2],[-74,-1],[-68,2],[-244,1]],[[25322,1775],[-3,-20],[7,-21],[-3,-21],[10,-35],[-4,-17],[13,-9],[-3,-24],[15,-10],[5,-32],[-6,-12],[15,-9],[-2,-37],[-13,-1],[5,-52],[-11,-24],[8,-28],[-12,-4],[6,-21],[15,14],[29,-33],[5,-11],[-6,-40],[4,-19],[-14,-50],[4,-22],[21,-38],[4,-33],[10,-10],[-3,-43],[8,-35],[17,-4],[7,-16],[-22,-11],[13,-39],[13,-18],[1,-23],[9,-41],[-3,-38],[9,-19],[-9,-37],[-2,-27],[3,-49],[-8,-36],[-10,-25],[-13,-14],[-28,-86],[-13,-59],[13,-66],[-6,-45],[7,-26],[5,-81],[0,-73],[7,-79],[8,-30],[9,-6],[2,-41],[12,-27],[-8,-61],[-251,1],[-268,3],[-165,-1],[-116,0]],[[23004,4048],[203,1],[285,0],[235,2],[257,0],[261,2],[98,0],[270,0],[29,1]],[[24642,4054],[7,5],[35,-22],[-15,-9],[6,-12],[46,-36],[-20,-3],[-2,-10],[30,-33],[-18,-10],[4,-16],[18,-6],[-4,-21],[3,-26],[17,15],[9,-24],[29,1],[-8,-20],[-11,4],[-5,-17],[18,-14],[13,9],[7,-21],[-5,-33],[-15,-6],[2,-16],[31,4],[-18,-25],[24,-4],[6,-23],[-11,-27],[-1,-24],[-20,-3],[5,-14],[20,-1],[-6,-22],[8,-20],[-17,-24],[1,-18],[26,-18],[-7,-13],[8,-37],[-9,-26],[20,4],[-5,-22],[10,-24],[-2,-11],[12,-19],[-14,-5],[0,-16],[16,-14],[-21,-29],[5,-20],[18,-6],[1,-24],[-12,-10],[8,-12],[-18,-11],[4,-11],[20,-12],[-13,-9],[33,-32],[-2,-22],[14,-10],[11,15],[15,-4],[-25,-21],[31,-23],[-16,-21],[19,-4],[2,-31],[-8,-35],[-20,0],[0,-16],[17,-2],[-10,-27],[7,-30],[16,-6],[29,7],[-16,-42],[23,-2],[-4,-24]],[[24569,5174],[18,1],[9,8],[28,0],[-1,-14],[18,2]],[[24641,5171],[-6,-14],[1,-31],[-9,-13],[17,-16],[5,-14],[-2,-21]],[[24569,5401],[0,-42],[-63,1],[-10,6]],[[24496,5366],[-2,36]],[[24496,5366],[0,-48]],[[24656,5236],[22,-15],[14,-25],[-28,8],[-2,-22],[-21,-11]],[[10159,15219],[0,507],[202,1],[19,1],[292,0],[153,1],[293,0],[7,-1],[200,0]],[[11325,15728],[174,0],[63,-1],[73,1],[150,-1],[10,1],[210,-1],[373,-4],[1,-341],[0,-167],[222,1],[71,-1],[148,1]],[[12953,12845],[-512,-2],[0,85],[-222,1],[1,253],[-115,0],[-225,1],[-32,-15],[-28,0],[-35,-14],[-6,-9],[0,-36],[-9,-10],[-155,0],[-18,-11],[-18,11],[-13,-2],[-27,-15],[-18,-25],[-35,0],[0,48],[-42,-6],[-131,0],[-6,-13],[-24,-8],[-18,0],[0,22],[-93,-1],[-118,0],[-238,0],[-286,1],[-24,4],[-50,29],[-44,19],[-100,51]],[[24569,5401],[36,1]],[[12020,50],[-221,1],[-104,-2],[-140,1],[-248,2],[-98,-2],[-120,1],[-152,-1],[-156,0]],[[20885,12584],[441,0],[0,-418],[7,-5],[73,0],[457,0],[106,-1],[476,0],[150,0],[28,-2],[97,-44],[-2,-232]],[[22713,11143],[-366,-3],[-147,0],[-358,-1],[-446,4],[-74,1],[0,-86],[-146,0],[0,85],[-110,-1],[-73,1],[-35,-2]],[[23704,8563],[6,65],[5,19],[54,-1],[0,42],[18,0],[0,22],[52,-1],[21,6],[36,1],[0,-112],[-36,0],[0,-83],[-147,0],[-9,42]],[[24463,9124],[7,-11],[-42,-35],[-9,-13],[37,-16],[2,-11],[-14,-12],[-22,5],[-19,-38],[12,-4],[15,22],[15,3],[14,-11],[-11,-25],[-20,-13],[3,-29],[20,-34],[-13,-20],[-17,-4],[3,-13],[18,0],[8,-13],[-16,-11],[7,-12],[-8,-19],[12,-35],[-5,-13],[-15,-2],[1,-15],[22,-8],[-30,-27],[2,-14],[21,4],[9,-13],[-25,-15],[-13,-20],[17,-11],[-3,-16],[11,-23],[12,-6],[36,15],[7,-10],[-34,-29],[24,-13],[20,-20],[-13,-17],[-16,-6],[-3,-13],[13,-7],[18,2],[7,-17],[-14,-24],[12,-17],[-10,-11],[-24,11],[-7,-10],[18,-16],[-3,-20],[-24,1],[-4,-14],[15,-11],[16,0],[19,17],[7,-13],[-21,-19],[-25,9],[-22,-4],[2,-16],[20,1],[8,-22],[-11,-12],[4,-20],[39,-5],[-20,-19],[-7,-19],[2,-18],[14,-15],[4,-16],[21,-2],[14,-17],[-12,-30],[-29,-5],[-11,-19],[8,-12],[12,0],[17,24],[14,-4],[8,-13],[-9,-13],[-19,-4],[8,-25],[-8,-14],[-14,1],[-17,-9],[11,-19],[-4,-19],[28,4],[17,-35],[-15,-13],[-5,-19],[-25,-39],[2,-27],[8,-30],[3,-46],[-21,-14],[5,-24],[30,0],[5,-13],[-17,-12],[-18,5],[-9,-16],[39,-1],[0,-18],[-9,-20],[-20,-27],[9,-11],[15,21],[18,-31],[-8,-14],[-15,-6],[19,-36]],[[23874,11445],[-3,-18],[18,-18],[1,-13],[-18,-14],[-1,-20],[24,-30],[-18,-23],[7,-13],[16,-7],[37,-6],[13,-13],[-13,-24],[21,-22]],[[23782,11649],[21,-33],[0,-52]],[[23826,11573],[33,40]],[[23859,11613],[35,-39],[-13,-19],[2,-13]],[[23476,13169],[-6,-16],[-23,-30],[10,-22],[17,5],[17,-12],[3,-24],[-10,-12],[-22,-4],[-8,-9],[12,-58],[19,-18],[38,19],[20,-7],[1,-16],[-11,-13],[-50,-29],[-25,-44],[10,-18],[23,14],[34,-11],[15,-14],[-2,-12],[-16,-5],[-6,-17],[9,-52],[18,-43],[1,-27],[-7,-33],[12,-7],[22,4],[12,-8],[3,-26],[22,-21],[-1,-13],[-23,-11],[5,-12],[20,-8],[6,-13],[3,-28],[-5,-27],[-11,-17],[1,-15],[17,-3],[23,-41],[14,-32],[11,-13],[31,-23],[14,-41],[9,-105],[-12,-48]],[[23822,11693],[11,-7],[2,-18],[-6,-18],[10,-23],[20,-14]],[[13140,17866],[451,0],[288,-1],[448,0],[184,0],[409,1]],[[14920,17866],[6,-10],[0,-607],[-8,-7]],[[14032,16737],[0,-84],[-357,-1],[-239,1],[0,85],[-114,1],[-184,1]],[[13138,16740],[0,264],[1,217],[0,359],[1,286]],[[14924,16735],[154,-1],[294,0]],[[13265,15218],[0,540],[1,473],[-128,0],[0,509]],[[14920,17866],[452,0]],[[10503,17867],[354,0],[433,0],[450,-1],[420,0],[405,0],[353,0],[222,0]],[[11325,15728],[2,44],[-28,-1],[-5,20],[-24,0],[-11,37],[-42,33],[-34,31],[-24,16],[-14,1],[-21,-18],[-17,12],[7,21],[-19,0],[-4,-32],[-10,2],[-21,84],[-31,51],[-10,44],[2,63],[-26,50],[-12,14],[-1,17],[-22,29],[-5,40],[-8,20],[0,68],[-12,27],[-21,11],[-22,35],[-9,49],[-31,38],[-33,31],[-34,51],[-28,35],[-22,38],[-11,37],[-1,28],[-9,42],[-29,22],[0,13],[-15,28],[-17,47],[-3,20],[-12,34],[-30,55],[-20,23],[-10,20],[-9,50],[-23,13],[-14,23],[4,21],[-14,87],[-25,84],[-18,65],[-22,106],[2,89],[9,84],[18,81],[1,13],[18,55],[-2,38]],[[12170,16740],[129,0],[19,-10],[0,179],[-148,0],[0,-169]],[[8674,17867],[334,0],[333,0],[361,0],[310,0],[491,0]],[[18857,10129],[1,-496]],[[3772,17866],[541,-1],[458,-1],[322,0],[319,-1],[369,0],[442,0],[356,0],[312,0]],[[24567,6074],[-9,-40],[11,-15],[21,-7],[12,-14],[17,20],[14,6],[18,-13],[-15,-40],[-13,-12],[14,-16],[2,-19],[-17,-27],[15,-13],[22,14],[6,-18],[-3,-18],[8,-20],[-5,-19]],[[24678,5654],[0,-21],[-36,-1],[0,-62]],[[22924,5062],[64,1],[218,1],[352,-1],[218,4]],[[24695,4555],[-17,-14],[12,-16],[-16,-16],[16,-12],[-25,-15],[17,-33],[5,-22],[-17,-35],[17,-6],[-10,-16],[0,-37],[-15,-10],[-10,18],[-15,-11],[2,-22],[16,-14],[-3,-25],[-13,10],[6,-53],[-6,-13],[0,-21],[28,-29],[-12,-15],[12,-23],[16,-14],[-16,-9],[-8,-26],[-17,-22]],[[22922,4048],[0,422],[0,253],[2,339]],[[22924,5062],[-153,0],[-276,1],[0,241],[0,335],[1,441]],[[24719,5504],[-17,7],[4,-24],[10,-14]]],"transform":{"scale":[0.00029424628975265044,0.00017151356795165872],"translate":[-104.048889,45.93509099999999]},"objects":{"Tract_38_2025":{"type":"GeometryCollection","geometries":[{"arcs":[[0,1,2,3]],"type":"Polygon","properties":{"id":"14000US38017010201"}},{"arcs":[[4,5,6,7,8,9]],"type":"Polygon","properties":{"id":"14000US38017010303"}},{"arcs":[[10,11,12,13,14]],"type":"Polygon","properties":{"id":"14000US38017040200"}},{"arcs":[[15,16,17,18]],"type":"Polygon","properties":{"id":"14000US38017000100"}},{"arcs":[[19,20,21,22,23,24]],"type":"Polygon","properties":{"id":"14000US38015010100"}},{"arcs":[[25,26,27,28,29,30,31]],"type":"Polygon","properties":{"id":"14000US38073968900"}},{"arcs":[[32,33,34,35,36,37,38]],"type":"Polygon","properties":{"id":"14000US38055961001"}},{"arcs":[[39,40,-39,41,42,43]],"type":"Polygon","properties":{"id":"14000US38055940100"}},{"arcs":[[44,45,46,47,48,49]],"type":"Polygon","properties":{"id":"14000US38007963100"}},{"arcs":[[50,51,52,53,54,55]],"type":"Polygon","properties":{"id":"14000US38045972200"}},{"arcs":[[56,57,58,59,-53]],"type":"Polygon","properties":{"id":"14000US38045972100"}},{"arcs":[[60,61,62,63,64]],"type":"Polygon","properties":{"id":"14000US38067950500"}},{"arcs":[[65,-61,66,67]],"type":"Polygon","properties":{"id":"14000US38067950100"}},{"arcs":[[68,-68,69,70]],"type":"Polygon","properties":{"id":"14000US38067950200"}},{"arcs":[[71,72,73,74,75,76]],"type":"Polygon","properties":{"id":"14000US38005956700"}},{"arcs":[[-36,77,78,79,80,81,82]],"type":"Polygon","properties":{"id":"14000US38083960200"}},{"arcs":[[83,-49,84,85,86,87,88]],"type":"Polygon","properties":{"id":"14000US38087965000"}},{"arcs":[[89,-30,90,91,92,93]],"type":"Polygon","properties":{"id":"14000US38081974200"}},{"arcs":[[94,95,96,97,98,99]],"type":"Polygon","properties":{"id":"14000US38089963501"}},{"arcs":[[100,-95,101]],"type":"Polygon","properties":{"id":"14000US38089963502"}},{"arcs":[[102,-64,103,104,105,106,107],[108]],"type":"Polygon","properties":{"id":"14000US38099958100"}},{"arcs":[[109,110,-108,111,112,113]],"type":"Polygon","properties":{"id":"14000US38099958300"}},{"arcs":[[-109]],"type":"Polygon","properties":{"id":"14000US38099958200"}},{"arcs":[[114,115,-105]],"type":"Polygon","properties":{"id":"14000US38099958000"}},{"arcs":[[-115,116]],"type":"Polygon","properties":{"id":"14000US38099957900"}},{"arcs":[[-116,-117,-104,-63,117,118,-106]],"type":"Polygon","properties":{"id":"14000US38099957800"}},{"arcs":[[119,120,121,122,-75]],"type":"Polygon","properties":{"id":"14000US38005940100"}},{"arcs":[[123,124,125,126,127,-121]],"type":"Polygon","properties":{"id":"14000US38005940200"}},{"arcs":[[128,129,130,131,132,133,134]],"type":"Polygon","properties":{"id":"14000US38097970100"}},{"arcs":[[135,136,137,138,139,140]],"type":"Polygon","properties":{"id":"14000US38059020200"}},{"arcs":[[141,142,143,144,145]],"type":"Polygon","properties":{"id":"14000US38059020500"}},{"arcs":[[146,147,-139]],"type":"Polygon","properties":{"id":"14000US38059020100"}},{"arcs":[[148,149,-141,150,151,152,153,154,155,156,157,-144]],"type":"Polygon","properties":{"id":"14000US38059020400"}},{"arcs":[[158,159,-125,160]],"type":"Polygon","properties":{"id":"14000US38071957800"}},{"arcs":[[161,162,-114,163,-126,-160,164,-161,-124,-120,-74]],"type":"Polygon","properties":{"id":"14000US38071957700"}},{"arcs":[[-165,-159]],"type":"Polygon","properties":{"id":"14000US38071957600"}},{"arcs":[[165,166,167,168,169,-154,170]],"type":"Polygon","properties":{"id":"14000US38015011200"}},{"arcs":[[171,172,173,174,-155,-170,175]],"type":"Polygon","properties":{"id":"14000US38015011400"}},{"arcs":[[176,177,178,179]],"type":"Polygon","properties":{"id":"14000US38015010300"}},{"arcs":[[180,181,-176,-169,182]],"type":"Polygon","properties":{"id":"14000US38015011300"}},{"arcs":[[-24,183,-167,184]],"type":"Polygon","properties":{"id":"14000US38015010700"}},{"arcs":[[185,-25,-185,-166,186]],"type":"Polygon","properties":{"id":"14000US38015010600"}},{"arcs":[[187,-157,188,189,190,191]],"type":"Polygon","properties":{"id":"14000US38085940800"}},{"arcs":[[192,-179,193,194,-22]],"type":"Polygon","properties":{"id":"14000US38015010200"}},{"arcs":[[195,196,197,198,199]],"type":"Polygon","properties":{"id":"14000US38035010900"}},{"arcs":[[200,201,-196,202,203]],"type":"Polygon","properties":{"id":"14000US38035011000"}},{"arcs":[[204,205,206]],"type":"Polygon","properties":{"id":"14000US38035011900"}},{"arcs":[[207,208]],"type":"Polygon","properties":{"id":"14000US38093967401"}},{"arcs":[[209,210,-209,211,212,213]],"type":"Polygon","properties":{"id":"14000US38093967402"}},{"arcs":[[-70,-67,-65,-103,-111,214]],"type":"Polygon","properties":{"id":"14000US38067950600"}},{"arcs":[[-127,-164,-113,215,216,217,218,219,220]],"type":"Polygon","properties":{"id":"14000US38063959000"}},{"arcs":[[221]],"type":"Polygon","properties":{"id":"14000US38011965200"}},{"arcs":[[-88,222,223],[-222]],"type":"Polygon","properties":{"id":"14000US38011965300"}},{"arcs":[[224,-76,-123,225,226,227,228,-80],[229]],"type":"Polygon","properties":{"id":"14000US38103960000"}},{"arcs":[[230,-16,231,232]],"type":"Polygon","properties":{"id":"14000US38017000203"}},{"arcs":[[233,-233,234]],"type":"Polygon","properties":{"id":"14000US38017000204"}},{"arcs":[[235,236,237,238,239]],"type":"Polygon","properties":{"id":"14000US38017000602"}},{"arcs":[[240,241,242,243,244]],"type":"Polygon","properties":{"id":"14000US38017040501"}},{"arcs":[[245,246,247,248,249]],"type":"Polygon","properties":{"id":"14000US38017001003"}},{"arcs":[[250,251,-56,252,253]],"type":"Polygon","properties":{"id":"14000US38047972500"}},{"arcs":[[254,255,256,-32,257,258,-58],[259]],"type":"Polygon","properties":{"id":"14000US38073969000"}},{"arcs":[[-101,260,261,262,-96]],"type":"Polygon","properties":{"id":"14000US38089963400"}},{"arcs":[[-37,-83,263,264,265]],"type":"Polygon","properties":{"id":"14000US38055960800"}},{"arcs":[[266,267,268,269]],"type":"Polygon","properties":{"id":"14000US38035010400"}},{"arcs":[[270,-204,271,272]],"type":"Polygon","properties":{"id":"14000US38035010700"}},{"arcs":[[-269,273,274,275,-273,276,277,278]],"type":"Polygon","properties":{"id":"14000US38035010801"}},{"arcs":[[279,280,-40,281]],"type":"Polygon","properties":{"id":"14000US38061940300"}},{"arcs":[[282,283,284,-280,285,286,287,288]],"type":"Polygon","properties":{"id":"14000US38061955200"}},{"arcs":[[289,290,-265,291,292,-149,-143,293]],"type":"Polygon","properties":{"id":"14000US38065961200"}},{"arcs":[[294,295,-20,-186,296]],"type":"Polygon","properties":{"id":"14000US38015010500"}},{"arcs":[[-23,-195,-183,-168,-184]],"type":"Polygon","properties":{"id":"14000US38015010800"}},{"arcs":[[297,-181,-194,-178]],"type":"Polygon","properties":{"id":"14000US38015010900"}},{"arcs":[[298,299,300,301,302]],"type":"Polygon","properties":{"id":"14000US38015011101"}},{"arcs":[[-264,-82,303,-173,304,305,-292]],"type":"Polygon","properties":{"id":"14000US38015011500"}},{"arcs":[[-302,-180,-193,-21,-296]],"type":"Polygon","properties":{"id":"14000US38015010400"}},{"arcs":[[306,307,308]],"type":"Polygon","properties":{"id":"14000US38053940100"}},{"arcs":[[309,310,311,312,313,314,-45,315,316]],"type":"Polygon","properties":{"id":"14000US38053962500"}},{"arcs":[[317,318,319,-92]],"type":"Polygon","properties":{"id":"14000US38077971400"}},{"arcs":[[320,321,-289,322,323]],"type":"Polygon","properties":{"id":"14000US38105953400"}},{"arcs":[[324,-324,325,326,327,-310,328]],"type":"Polygon","properties":{"id":"14000US38105953500"}},{"arcs":[[329,330,331,332]],"type":"Polygon","properties":{"id":"14000US38105953800"}},{"arcs":[[333,-303,-295,-137,334]],"type":"Polygon","properties":{"id":"14000US38015011103"}},{"arcs":[[335,336,337,338,339,340,-51,-252,341]],"type":"Polygon","properties":{"id":"14000US38093967200"}},{"arcs":[[-315,342,343,344,345,-46]],"type":"Polygon","properties":{"id":"14000US38053962302"}},{"arcs":[[346,-287,-309,347,-345,348,-343,-314]],"type":"Polygon","properties":{"id":"14000US38053962301"}},{"arcs":[[349,-332,350,351,-312]],"type":"Polygon","properties":{"id":"14000US38105954100"}},{"arcs":[[352,353,-351,-331]],"type":"Polygon","properties":{"id":"14000US38105953900"}},{"arcs":[[-323,-288,-347,-313,-352,-354,354,-326]],"type":"Polygon","properties":{"id":"14000US38105953600"}},{"arcs":[[-230]],"type":"Polygon","properties":{"id":"14000US38103959800"}},{"arcs":[[-258,-31,-90,355]],"type":"Polygon","properties":{"id":"14000US38081974000"}},{"arcs":[[356,357,358,359,360,361]],"type":"Polygon","properties":{"id":"14000US38101010500"}},{"arcs":[[362,363,364,365,-359]],"type":"Polygon","properties":{"id":"14000US38101010100"}},{"arcs":[[366,367,368,-284,369]],"type":"Polygon","properties":{"id":"14000US38101011000"}},{"arcs":[[370,371,372,373,-34,374]],"type":"Polygon","properties":{"id":"14000US38101011200"}},{"arcs":[[375,376,377]],"type":"Polygon","properties":{"id":"14000US38101010302"}},{"arcs":[[378,379,-372,380,381,-378,382,-357,383,-368],[384,385]],"type":"Polygon","properties":{"id":"14000US38101010800"}},{"arcs":[[386,-381,387,388,-364,389]],"type":"Polygon","properties":{"id":"14000US38101010200"}},{"arcs":[[-42,-38,-266,-291,390,-294,-142,391,392],[393]],"type":"Polygon","properties":{"id":"14000US38057961800"}},{"arcs":[[-387,394,-376,-382]],"type":"Polygon","properties":{"id":"14000US38101010301"}},{"arcs":[[395,-321,-325,396]],"type":"Polygon","properties":{"id":"14000US38023954500"}},{"arcs":[[-260]],"type":"Polygon","properties":{"id":"14000US38073969100"}},{"arcs":[[-213,397,-338,398]],"type":"Polygon","properties":{"id":"14000US38093967800"}},{"arcs":[[-377,-395,-390,-363,-358,-383]],"type":"Polygon","properties":{"id":"14000US38101010400"}},{"arcs":[[399,400,401,402,403,-130,404]],"type":"Polygon","properties":{"id":"14000US38035011702"}},{"arcs":[[-206,405,406,407,408,409,-270,-279,410,-400,411]],"type":"Polygon","properties":{"id":"14000US38035011701"}},{"arcs":[[-410,412,-275,413,-267]],"type":"Polygon","properties":{"id":"14000US38035010301"}},{"arcs":[[-414,-274,-268]],"type":"Polygon","properties":{"id":"14000US38035010302"}},{"arcs":[[414,-203,-200,415,416]],"type":"Polygon","properties":{"id":"14000US38035011201"}},{"arcs":[[-277,417,418,419]],"type":"Polygon","properties":{"id":"14000US38035010805"}},{"arcs":[[-419,420,-417,421,-402]],"type":"Polygon","properties":{"id":"14000US38035011202"}},{"arcs":[[-272,-415,-421,-418]],"type":"Polygon","properties":{"id":"14000US38035010806"}},{"arcs":[[-87,422,423,424,-192,425,-223]],"type":"Polygon","properties":{"id":"14000US38001965600"}},{"arcs":[[-219,426,-135,427,428,429,430]],"type":"Polygon","properties":{"id":"14000US38091968700"}},{"arcs":[[431,432,433,434,-379,-367]],"type":"Polygon","properties":{"id":"14000US38075952900"}},{"arcs":[[435,436,437]],"type":"Polygon","properties":{"id":"14000US38003968300"}},{"arcs":[[438,439,-436,440,441,-255,-57,-52,-341,442]],"type":"Polygon","properties":{"id":"14000US38003968000"}},{"arcs":[[-438,443,-441]],"type":"Polygon","properties":{"id":"14000US38003968200"}},{"arcs":[[444,-430,445,-256,-442,-444,-437,-440]],"type":"Polygon","properties":{"id":"14000US38003967900"}},{"arcs":[[446,447,448,-388,-371,449]],"type":"Polygon","properties":{"id":"14000US38101010602"}},{"arcs":[[-389,-449,450,-365]],"type":"Polygon","properties":{"id":"14000US38101010702"}},{"arcs":[[-361,-447,451]],"type":"Polygon","properties":{"id":"14000US38101010601"}},{"arcs":[[-366,-451,-448,-360]],"type":"Polygon","properties":{"id":"14000US38101010701"}},{"arcs":[[452,-386]],"type":"Polygon","properties":{"id":"14000US38101010902"}},{"arcs":[[-385,-453]],"type":"Polygon","properties":{"id":"14000US38101010901"}},{"arcs":[[-308,453,-43,-393,454,455,456,-47,-346,-348]],"type":"Polygon","properties":{"id":"14000US38025962200"}},{"arcs":[[-238,457,458,459,460]],"type":"Polygon","properties":{"id":"14000US38017000801"}},{"arcs":[[461,-460,462,463,-247,464]],"type":"Polygon","properties":{"id":"14000US38017000901"}},{"arcs":[[-316,-50,-84,465]],"type":"Polygon","properties":{"id":"14000US38033962900"}},{"arcs":[[466,-133]],"type":"Polygon","properties":{"id":"14000US38097970200"}},{"arcs":[[-147,-138,-297,-187,-171,-153,467,468]],"type":"Polygon","properties":{"id":"14000US38059020301"}},{"arcs":[[-140,-148,-469,469,-151]],"type":"Polygon","properties":{"id":"14000US38059020303"}},{"arcs":[[-468,-152,-470]],"type":"Polygon","properties":{"id":"14000US38059020302"}},{"arcs":[[-99,470,471,-262,472]],"type":"Polygon","properties":{"id":"14000US38089963800"}},{"arcs":[[473,474,-162,-73,475,476,477]],"type":"Polygon","properties":{"id":"14000US38095951500"}},{"arcs":[[478,-18,479,480,481]],"type":"Polygon","properties":{"id":"14000US38017000501"}},{"arcs":[[482,483,-482,-236,484]],"type":"Polygon","properties":{"id":"14000US38017000502"}},{"arcs":[[485,486,487,488,489,490]],"type":"Polygon","properties":{"id":"14000US38017010107"}},{"arcs":[[-253,-55,491,492,493]],"type":"Polygon","properties":{"id":"14000US38051972900"}},{"arcs":[[494,495,496,-227]],"type":"Polygon","properties":{"id":"14000US38031959600"}},{"arcs":[[-349,-344]],"type":"Polygon","properties":{"id":"14000US38053962400"}},{"arcs":[[497,498,-298,-177,-301]],"type":"Polygon","properties":{"id":"14000US38015011001"}},{"arcs":[[-175,499,-254,-494,500,501,-189,-156]],"type":"Polygon","properties":{"id":"14000US38029966500"}},{"arcs":[[-286,-282,-44,-454,-307]],"type":"Polygon","properties":{"id":"14000US38061940400"}},{"arcs":[[-59,-259,-356,-94,502,503]],"type":"Polygon","properties":{"id":"14000US38021973200"}},{"arcs":[[504]],"type":"Polygon","properties":{"id":"14000US38021973400"}},{"arcs":[[-54,-60,-504,505,-492],[-505]],"type":"Polygon","properties":{"id":"14000US38021973300"}},{"arcs":[[-8,506,507,508]],"type":"Polygon","properties":{"id":"14000US38017040505"}},{"arcs":[[509,510,-243,511,-9,-509,512,513,514]],"type":"Polygon","properties":{"id":"14000US38017040509"}},{"arcs":[[515,-490,516,517,-1]],"type":"Polygon","properties":{"id":"14000US38017010206"}},{"arcs":[[518,-244,-511,519]],"type":"Polygon","properties":{"id":"14000US38017040506"}},{"arcs":[[520,-485,-240,521,522,523,-487]],"type":"Polygon","properties":{"id":"14000US38017000601"}},{"arcs":[[524,-515,525]],"type":"Polygon","properties":{"id":"14000US38017040503"}},{"arcs":[[-3,526,527,528,529]],"type":"Polygon","properties":{"id":"14000US38017040502"}},{"arcs":[[530,-10,-512,-242]],"type":"Polygon","properties":{"id":"14000US38017040504"}},{"arcs":[[-464,531,532,-248]],"type":"Polygon","properties":{"id":"14000US38017001004"}},{"arcs":[[533,534,535,536]],"type":"Polygon","properties":{"id":"14000US38017010110"}},{"arcs":[[537,538,-245,-519,-528]],"type":"Polygon","properties":{"id":"14000US38017040508"}},{"arcs":[[-518,-537,-538,-527,-2]],"type":"Polygon","properties":{"id":"14000US38017010205"}},{"arcs":[[539,-71,-215,-110,-163,-475],[540]],"type":"Polygon","properties":{"id":"14000US38019951100"}},{"arcs":[[-145,-158,-188,-425,541,542]],"type":"Polygon","properties":{"id":"14000US38037965900"}},{"arcs":[[543,-529,-520,-510,-525,544]],"type":"Polygon","properties":{"id":"14000US38017040507"}},{"arcs":[[545,-77,-225,-79,546,547]],"type":"Polygon","properties":{"id":"14000US38069956200"}},{"arcs":[[548,549,-476,-72,-546,550]],"type":"Polygon","properties":{"id":"14000US38069956100"}},{"arcs":[[-455,-392,-146,-543,551,552,553]],"type":"Polygon","properties":{"id":"14000US38089963300"}},{"arcs":[[-457,554,555,-85,-48]],"type":"Polygon","properties":{"id":"14000US38089964000"}},{"arcs":[[-456,-554,556,-555],[-261,-102,-100,-473]],"type":"Polygon","properties":{"id":"14000US38089963900"}},{"arcs":[[-355,-353,-330,557,-327]],"type":"Polygon","properties":{"id":"14000US38105953701"}},{"arcs":[[-558,-333,-350,-311,-328]],"type":"Polygon","properties":{"id":"14000US38105953702"}},{"arcs":[[-293,-306,558,-498,-300,559,-335,-136,-150]],"type":"Polygon","properties":{"id":"14000US38015011105"}},{"arcs":[[-305,-172,-182,-499,-559]],"type":"Polygon","properties":{"id":"14000US38015011002"}},{"arcs":[[-299,-334,-560]],"type":"Polygon","properties":{"id":"14000US38015011104"}},{"arcs":[[560,561,562]],"type":"Polygon","properties":{"id":"14000US38079941800"}},{"arcs":[[-420,-401,-411,-278]],"type":"Polygon","properties":{"id":"14000US38035010804"}},{"arcs":[[563,564,565,-535]],"type":"Polygon","properties":{"id":"14000US38017010111"}},{"arcs":[[-214,-399,-337,566]],"type":"Polygon","properties":{"id":"14000US38093967500"}},{"arcs":[[-208,-211,567,-339,-398,-212]],"type":"Polygon","properties":{"id":"14000US38093967300"}},{"arcs":[[-228,-497,568,-443,-340,-568,-210,-567,-336,569]],"type":"Polygon","properties":{"id":"14000US38093967000"}},{"arcs":[[-394]],"type":"Polygon","properties":{"id":"14000US38057961600"}},{"arcs":[[-290,-391]],"type":"Polygon","properties":{"id":"14000US38057961700"}},{"arcs":[[570,-471,-98]],"type":"Polygon","properties":{"id":"14000US38089963600"}},{"arcs":[[-97,-263,-472,-571]],"type":"Polygon","properties":{"id":"14000US38089963700"}},{"arcs":[[-556,-557,-553,571,-423,-86]],"type":"Polygon","properties":{"id":"14000US38041964800"}},{"arcs":[[-572,-552,-542,-424]],"type":"Polygon","properties":{"id":"14000US38041964700"}},{"arcs":[[-13,572,573,-491,-516,-4,-530,-544,574,575]],"type":"Polygon","properties":{"id":"14000US38017040800"}},{"arcs":[[576,-250,-5,577]],"type":"Polygon","properties":{"id":"14000US38017010308"}},{"arcs":[[-489,578,-564,-534,-517]],"type":"Polygon","properties":{"id":"14000US38017010109"}},{"arcs":[[-536,-566,579,-578,-531,-241,-539]],"type":"Polygon","properties":{"id":"14000US38017040700"}},{"arcs":[[580,581,582]],"type":"Polygon","properties":{"id":"14000US38077970900"}},{"arcs":[[-582,583,584,585]],"type":"Polygon","properties":{"id":"14000US38077971000"}},{"arcs":[[586,587,-583,-586,588,-318,-91,-29]],"type":"Polygon","properties":{"id":"14000US38077970800"}},{"arcs":[[-589,-585,589,-319]],"type":"Polygon","properties":{"id":"14000US38077971100"}},{"arcs":[[590,591,-587,-28]],"type":"Polygon","properties":{"id":"14000US38077970700"}},{"arcs":[[592,593,-507,-7]],"type":"Polygon","properties":{"id":"14000US38017010307"}},{"arcs":[[-523,594,595]],"type":"Polygon","properties":{"id":"14000US38017000903"}},{"arcs":[[-488,-524,-596,596,-580,-565,-579]],"type":"Polygon","properties":{"id":"14000US38017010106"}},{"arcs":[[-249,-533,597,-593,-6]],"type":"Polygon","properties":{"id":"14000US38017010306"}},{"arcs":[[-435,598,599,-551,-548,600,-373,-380]],"type":"Polygon","properties":{"id":"14000US38049955600"}},{"arcs":[[-81,-229,-570,-342,-251,-500,-174,-304]],"type":"Polygon","properties":{"id":"14000US38043966800"}},{"arcs":[[-601,-547,-78,-35,-374]],"type":"Polygon","properties":{"id":"14000US38049955900"}},{"arcs":[[-595,601,-465,-246,-577,-597]],"type":"Polygon","properties":{"id":"14000US38017000904"}},{"arcs":[[-541]],"type":"Polygon","properties":{"id":"14000US38019950900"}},{"arcs":[[-502,602,-190]],"type":"Polygon","properties":{"id":"14000US38085940900"}},{"arcs":[[603,-207,-412,604,-217]],"type":"Polygon","properties":{"id":"14000US38035012000"}},{"arcs":[[605]],"type":"Polygon","properties":{"id":"14000US38097970400"}},{"arcs":[[-134,-467,-132,606,-11,-428],[-606]],"type":"Polygon","properties":{"id":"14000US38097970300"}},{"arcs":[[-416,-199,607,-403,-422]],"type":"Polygon","properties":{"id":"14000US38035011100"}},{"arcs":[[-409,608,-271,-276,-413]],"type":"Polygon","properties":{"id":"14000US38035010200"}},{"arcs":[[-605,-405,-129,-427,-218]],"type":"Polygon","properties":{"id":"14000US38035011800"}},{"arcs":[[609,610,-197,-202]],"type":"Polygon","properties":{"id":"14000US38035010600"}},{"arcs":[[-112,-107,-119,611,-406,-205,-604,-216]],"type":"Polygon","properties":{"id":"14000US38035011400"}},{"arcs":[[-369,-384,-362,-452,-450,-375,-33,-41,-281,-285]],"type":"Polygon","properties":{"id":"14000US38101011300"}},{"arcs":[[612,-610,-201,-609,-408]],"type":"Polygon","properties":{"id":"14000US38035010100"}},{"arcs":[[613,614,-563,615,616]],"type":"Polygon","properties":{"id":"14000US38079951700"}},{"arcs":[[-616,-562,617,-477,-550,618]],"type":"Polygon","properties":{"id":"14000US38079951900"}},{"arcs":[[619,-478,-618,-561,-615]],"type":"Polygon","properties":{"id":"14000US38079951600"}},{"arcs":[[620,-617,-619,-549,-600,621],[622]],"type":"Polygon","properties":{"id":"14000US38009952400"}},{"arcs":[[623,-622,-599,-434]],"type":"Polygon","properties":{"id":"14000US38009952500"}},{"arcs":[[-623]],"type":"Polygon","properties":{"id":"14000US38009952300"}},{"arcs":[[-122,-128,-221,624,-495,-226]],"type":"Polygon","properties":{"id":"14000US38027959200"}},{"arcs":[[625,-432,-370,-283,-322,-396]],"type":"Polygon","properties":{"id":"14000US38013953300"}},{"arcs":[[-625,-220,-431,-445,-439,-569,-496]],"type":"Polygon","properties":{"id":"14000US38039968600"}},{"arcs":[[626,-235,627,-483,-521,-486,-574]],"type":"Polygon","properties":{"id":"14000US38017000300"}},{"arcs":[[628,-575,-545,-526,-514,629,-591,-27,630]],"type":"Polygon","properties":{"id":"14000US38017040600"}},{"arcs":[[-14,-576,-629,631]],"type":"Polygon","properties":{"id":"14000US38017040300"}},{"arcs":[[-239,-461,-462,-602,-522]],"type":"Polygon","properties":{"id":"14000US38017000802"}},{"arcs":[[-232,-19,-479,-484,-628]],"type":"Polygon","properties":{"id":"14000US38017000400"}},{"arcs":[[-429,-15,-632,-631,-26,-257,-446]],"type":"Polygon","properties":{"id":"14000US38017040100"}},{"arcs":[[-481,632,-458,-237]],"type":"Polygon","properties":{"id":"14000US38017000700"}}]}}}