{"type":"Topology","arcs":[[[887,13271],[64,21]],[[951,13292],[54,-87],[47,-55]],[[1052,13150],[-29,-47],[-42,28],[-58,-38],[-44,-16],[-15,24],[-39,10],[-14,16]],[[811,13127],[29,102],[-4,35],[51,7]],[[1497,13345],[46,17],[28,-3],[30,-23],[15,-40]],[[1616,13296],[-82,-27]],[[1534,13269],[-37,76]],[[582,13592],[262,93]],[[844,13685],[29,-27],[11,-41],[20,-9]],[[904,13608],[-27,-17]],[[877,13591],[-70,-41],[-60,-47]],[[747,13503],[-62,67],[-35,-18],[-60,-6],[-8,46]],[[1264,13142],[41,211],[-3,45]],[[1302,13398],[60,24],[65,6]],[[1427,13428],[49,-49],[21,-34]],[[1534,13269],[-36,-14],[-181,-116]],[[1317,13139],[-62,-41]],[[1255,13098],[9,44]],[[501,13729],[29,-1],[-2,27],[61,9],[41,-6]],[[630,13758],[55,12],[22,-29],[61,-11],[32,11]],[[800,13741],[44,-56]],[[582,13592],[-37,88],[-36,-10]],[[509,13670],[-13,25],[5,34]],[[134,13732],[187,-79]],[[321,13653],[-23,-19],[-119,-120]],[[179,13514],[-13,14],[-32,75],[-4,86],[-7,21],[11,22]],[[344,13737],[42,-15],[66,12],[49,-5]],[[509,13670],[-166,-16]],[[343,13654],[-4,0]],[[339,13654],[-4,42],[9,41]],[[366,13351],[29,28],[55,13],[64,26]],[[514,13418],[40,-145]],[[554,13273],[-100,-22]],[[454,13251],[-2,4]],[[452,13255],[-22,16],[-50,15],[-30,36],[-14,5]],[[336,13327],[30,24]],[[747,13503],[-47,-32],[-92,-42],[-94,-11]],[[514,13418],[-21,53],[-5,36],[25,61],[69,24]],[[415,13255],[37,0]],[[454,13251],[13,-37],[54,-23],[27,-2],[15,-28],[57,-28],[24,34],[38,-28],[33,36],[25,-8],[19,12],[-7,29],[21,2],[22,-35],[-20,-29],[36,-19]],[[811,13127],[-5,-34],[16,-69],[29,-19],[65,-63]],[[916,12942],[-40,-28],[-50,-50],[-33,-21],[-45,-17],[-33,-3]],[[715,12823],[-240,-25],[-47,-10]],[[428,12788],[-12,38],[1,31],[16,114],[3,45]],[[436,13016],[7,154],[-6,41],[-22,44]],[[2406,14460],[71,37]],[[2477,14497],[21,-32]],[[2498,14465],[-114,-57],[-2,-9]],[[2382,14399],[-44,22]],[[2338,14421],[68,39]],[[2498,14465],[59,31]],[[2557,14496],[42,-61]],[[2599,14435],[-42,-23],[-56,-60]],[[2501,14352],[-42,31],[13,31],[31,32],[-5,19]],[[2501,14352],[-58,-30]],[[2443,14322],[-21,37],[-11,33],[-29,7]],[[1427,13428],[97,8],[225,24],[44,-2]],[[1793,13458],[-121,-121]],[[1672,13337],[-56,-41]],[[1794,14493],[154,-69]],[[1948,14424],[67,-31],[-29,-58]],[[1986,14335],[-19,16],[-52,-1],[-30,-23],[-20,6],[-22,-16],[-32,22],[-18,-36],[-2,-30]],[[1791,14273],[-18,-5],[-131,-10]],[[1642,14258],[24,38],[65,51],[14,87],[18,29],[31,30]],[[6763,2918],[46,10],[125,16]],[[6934,2944],[12,-107],[-22,-3],[-44,14],[11,-30],[29,-21],[4,-61],[-119,94],[-45,24]],[[6760,2854],[3,64]],[[2178,14372],[54,-25]],[[2232,14347],[-26,-43]],[[2206,14304],[-53,25]],[[2153,14329],[25,43]],[[955,14673],[15,-8],[9,-33],[22,-6],[19,-29],[-18,-29],[5,-22],[23,-8]],[[1030,14538],[50,-60],[5,-54],[-22,-24],[-22,3],[-31,-13],[-51,-49],[-20,-35]],[[939,14306],[-65,40],[-35,60]],[[839,14406],[-16,123],[-23,50]],[[800,14579],[51,34],[104,60]],[[2746,14739],[3,22],[8,190]],[[2757,14951],[1,23]],[[2758,14974],[68,-42],[43,-20],[31,-37]],[[2900,14875],[32,-47],[11,-32],[47,-37]],[[2990,14759],[-162,-121],[-51,-27]],[[2777,14611],[-41,43],[10,85]],[[281,9377],[26,11],[33,2],[31,17],[17,24],[16,46],[40,50],[12,38],[53,96],[18,23],[142,32],[55,20],[78,18],[62,39],[24,-11],[56,-13],[13,33],[35,28],[37,64],[14,43],[40,50],[8,42],[16,38],[56,41],[-5,28],[33,37],[7,24],[39,17]],[[1237,10214],[30,-30],[79,-65],[38,-49],[62,-132],[135,-176],[71,-131],[93,-125]],[[1745,9506],[-36,-5],[-29,15],[-34,4],[-29,-16],[-31,-50],[-17,4],[-49,-35],[-80,2],[-17,-25],[-57,-42],[-7,-25],[-20,-18],[-90,1],[-52,-12]],[[1197,9304],[-34,9],[-61,-8],[-24,20],[-21,0],[-48,51],[-289,25],[-302,-20],[-137,-8]],[[281,9373],[0,4]],[[554,13273],[246,57],[41,14],[54,34]],[[895,13378],[-8,-107]],[[1046,15100],[143,72],[133,55],[103,36],[158,45],[153,34],[110,19],[188,20]],[[2034,15381],[24,-48],[34,-37],[6,-23],[-20,-35],[-5,-38],[55,-58],[36,-84],[-5,-26],[-42,-43],[-31,-48],[-9,-40],[-46,-36],[1,-34],[25,-31],[3,-22],[61,-22],[3,-14],[-32,-42],[-36,-31],[-14,-47]],[[2042,14622],[-51,-9],[-21,-16],[-42,37],[-17,8],[-50,-43],[-13,41],[14,48],[-4,20],[-33,51],[-27,69],[-50,-4],[-56,14],[-50,24],[-91,28],[-20,22],[-24,7],[6,33],[-123,-51]],[[1390,14901],[-40,51],[-40,21],[-22,-45],[-41,6],[-18,17],[-9,27],[-36,45],[1,18],[-54,1],[-6,-11],[-74,21],[-5,48]],[[2629,14534],[-72,-38]],[[2477,14497],[-51,77]],[[2426,14574],[39,15],[13,-19],[26,13],[-15,28],[32,28],[35,12],[16,-31],[57,-29],[0,-57]],[[1390,14901],[4,-16],[34,-12],[-21,-25],[3,-23],[35,-3],[6,-41],[21,-35],[8,-32],[-36,-35],[-1,-28],[50,-36],[4,-30],[-32,-16],[-33,14],[-11,-8],[7,-36],[28,20],[29,-23]],[[1485,14536],[35,-48],[-20,-37],[21,-47],[-36,-27],[-13,-20],[34,-25],[21,-40],[-26,-19]],[[1501,14273],[-31,16]],[[1470,14289],[-42,28],[-77,89],[-26,24],[-75,-16]],[[1250,14414],[-6,59],[-17,61],[-14,91]],[[1213,14625],[-6,86],[-50,58],[-15,3]],[[1142,14772],[-84,20],[-36,30],[-42,50],[-70,2],[-32,27],[-73,46]],[[805,14947],[114,78],[127,75]],[[873,14084],[22,10],[40,42],[35,63],[53,41]],[[1023,14240],[40,-29],[70,1],[55,-29]],[[1188,14183],[-1,-16],[-26,-20],[3,-26],[26,-25],[7,-35]],[[1197,14061],[-62,-38],[-32,-27]],[[1103,13996],[-59,-52]],[[1044,13944],[-23,40],[-108,7]],[[913,13991],[-6,1]],[[907,13992],[-33,67],[-1,25]],[[2443,14322],[5,-40]],[[2448,14282],[-84,43]],[[2364,14325],[23,38],[-18,9],[13,27]],[[489,6412],[65,26],[125,18],[18,-30],[51,-29],[121,-30],[71,-28],[26,-4],[68,5],[175,-38],[150,-27],[75,-6],[22,-10],[64,-11],[73,4],[80,-42],[45,-76],[50,24]],[[1768,6158],[67,-168],[45,-138],[-17,-54],[74,13],[-26,-52],[-8,-144],[-10,-76]],[[1893,5539],[-60,12],[-87,-78],[-28,-8]],[[1718,5465],[-59,-8],[-80,-30],[-15,0],[-80,33],[-143,64],[-92,5],[-44,10],[-91,32],[-42,27],[-141,49],[-20,21],[-15,94],[-61,-19],[-44,-32],[-136,-68],[-85,-30],[-25,-2]],[[545,5611],[-56,801]],[[3694,5162],[4,36],[29,-9],[5,-21],[36,18],[-21,41],[11,25],[30,21],[-18,29],[23,45],[-41,43]],[[3752,5390],[29,17],[13,20],[-25,69],[27,32],[45,33],[4,32],[25,11],[16,-23],[63,14],[12,59],[43,-8],[46,10],[41,-21],[-4,-22],[21,-40],[17,6],[33,34],[40,-37],[1,-21],[39,-49],[25,-5],[10,25],[50,62],[18,-43],[-13,-44],[40,-12],[25,2],[35,26],[8,20],[42,-19],[34,8],[32,42],[45,-6],[30,-28],[-7,-35],[22,-16],[41,16]],[[4675,5499],[25,9]],[[4700,5508],[6,-294],[417,-451],[423,-447]],[[5546,4316],[-151,-3],[-67,-15],[-56,-8],[-15,31],[-25,28],[-25,6],[-26,-34],[-30,-7],[-16,-18],[30,-13],[-33,-30],[-56,-35],[-2,-32],[-47,-2],[-49,12],[-40,-32],[-60,7],[-30,17],[-11,-30],[-98,-11],[-35,-13],[-20,16],[-18,-17]],[[4666,4133],[-36,52],[-138,40],[-123,9],[-62,11]],[[4307,4245],[-61,58],[-85,52],[-38,50],[44,5],[73,60],[27,15],[95,9],[106,23],[-63,76],[-21,17],[-64,8],[-83,42],[-20,17],[-33,45],[-160,89],[-41,-44],[-59,-32],[-64,-28],[-144,132],[-140,111],[-13,4]],[[3563,4954],[15,12],[32,2],[26,18],[16,78],[50,45],[9,43],[-17,10]],[[2286,13795],[13,41]],[[2299,13836],[59,201],[14,53]],[[2372,14090],[89,-40],[31,-82],[-1,-53],[109,-109]],[[2600,13806],[-44,-65]],[[2556,13741],[-89,34],[-60,12],[-121,8]],[[2312,14233],[35,-21],[36,6],[58,26],[45,-12],[-4,-73]],[[2482,14159],[11,-37],[19,-25],[45,-27],[171,-69]],[[2728,14001],[-73,-146],[-55,-49]],[[2372,14090],[-82,37],[-24,6]],[[2266,14133],[-45,25]],[[2221,14158],[6,49],[12,25],[22,15],[51,-14]],[[2957,1875],[380,-179],[23,-10],[291,-110],[39,-4],[27,8],[126,49],[27,-46],[0,-38],[16,-77],[48,-31],[32,-51],[43,-157],[41,-52],[14,-30],[50,-25],[106,-68],[-34,-90]],[[4186,964],[-486,-150],[-11,-1],[-185,22],[-238,70],[-23,9],[-151,81],[-109,18],[-42,1],[-135,11],[-86,21],[-87,31],[-66,36],[-94,35],[-41,1],[-72,-14],[-100,17]],[[2260,1152],[-7,65],[-55,102]],[[2198,1319],[-176,325]],[[2022,1644],[91,24],[18,14],[104,-10],[18,10],[81,8],[0,-21],[192,13],[18,4],[76,37],[39,-34],[298,186]],[[2260,1152],[1,-64],[-7,-397]],[[2254,691],[-123,-7],[-1,121],[-62,2],[-36,-22],[-81,12],[-4,13],[18,103],[-48,50]],[[1917,963],[106,95],[-20,9],[1,57],[-19,26],[-28,13],[-22,25],[22,29],[36,-15],[40,-27],[67,20],[21,43],[-3,15],[32,16],[48,50]],[[850,1215],[58,-37],[38,2],[61,66],[58,33],[69,77],[28,47],[-4,74],[3,34],[18,15],[65,17],[42,102],[37,54]],[[1323,1699],[59,-34],[65,-11],[24,8],[36,-7],[10,-14],[51,-33],[28,-4],[78,18],[78,12],[69,-9],[17,7],[47,-5],[43,-20],[94,37]],[[1917,963],[-10,-5],[-457,-221],[-28,-5],[-502,46],[-41,8]],[[879,786],[-29,429]],[[3038,15042],[26,-15],[8,-25],[40,-12],[37,19],[53,56]],[[3202,15065],[50,-65]],[[3252,15000],[-66,-49],[-67,-66]],[[3119,14885],[-76,54],[-51,58]],[[2992,14997],[46,45]],[[2472,15279],[65,-9]],[[2537,15270],[40,-64],[55,-31],[104,-37]],[[2736,15138],[-76,-96]],[[2660,15042],[-64,44],[-17,0],[-61,-30],[-57,-13]],[[2461,15043],[-1,46],[13,93],[-1,97]],[[2736,15138],[135,-48]],[[2871,15090],[-43,-30],[-70,-86]],[[2758,14974],[-98,68]],[[688,14345],[20,-42],[44,-14],[30,-63],[59,-60],[15,-62],[17,-20]],[[907,13992],[-54,-26],[-49,9],[-47,-8],[3,35],[-7,56]],[[753,14058],[-12,95],[-22,48],[-45,47],[-50,30]],[[624,14278],[22,45],[42,22]],[[2312,14233],[8,18]],[[2320,14251],[44,74]],[[2448,14282],[20,-10],[29,12],[54,-21]],[[2551,14263],[4,-29],[-14,-25],[-42,-18],[-17,-32]],[[5799,2911],[22,36],[36,9],[60,98],[115,166],[55,-58],[82,-39],[91,66]],[[6260,3189],[105,-80]],[[6365,3109],[-122,-126],[-130,-168],[-50,-39],[-40,-19]],[[6023,2757],[-87,-48]],[[5936,2709],[-20,40],[-66,58],[-55,82],[4,22]],[[3818,2557],[99,91]],[[3917,2648],[35,-32],[25,-77],[79,5],[122,17],[28,0],[18,-16],[-24,-50],[-38,-35],[-8,-19],[3,-53],[-36,-99],[33,-42]],[[4154,2247],[-65,-10]],[[4089,2237],[-271,320]],[[2503,2872],[13,39],[-4,44],[24,26],[30,50],[100,69],[28,34],[18,87],[57,113],[36,41]],[[2805,3375],[68,18],[88,-18],[112,-61],[71,-35],[26,-6],[67,-1],[113,-20],[165,-21],[29,-37]],[[3544,3194],[108,-153],[51,-97],[47,-125],[68,-262]],[[4089,2237],[296,-359],[-89,-6],[-41,-36],[-62,25],[-83,72],[-82,42],[-77,19],[-98,10],[-34,24],[-55,62],[-73,7],[-76,28],[-64,54],[-67,48]],[[3484,2227],[-210,18],[-92,-3],[-111,8],[-16,6],[-128,87],[-20,8],[-81,14],[-131,6],[-62,25],[-18,2]],[[2615,2398],[71,63],[74,30],[39,58],[68,-1],[36,25],[56,49],[37,52],[-18,6],[-347,159],[-49,20],[-79,13]],[[5599,602],[30,39],[35,70],[27,9],[13,20],[15,68],[19,23],[-19,16]],[[5719,847],[16,3],[55,28],[25,28],[91,87],[46,31],[50,12],[69,8],[84,28],[54,2],[88,47],[54,-2],[34,-15]],[[6385,1104],[6,-48],[-4,-78],[72,9],[61,3],[14,-45],[31,-21]],[[6565,924],[-17,-29],[-2,-33],[-18,-40],[97,-28],[49,-9],[46,29],[2,-36],[-15,-45],[-52,-43],[-41,-18],[-77,-53],[-40,-6],[-28,-16]],[[6469,597],[-22,-2],[-56,-34],[-6,-56],[11,-36],[-19,-35],[-48,-55],[-11,-55],[-16,-24]],[[6302,300],[-59,27],[-72,11],[-51,39],[-31,51],[-44,34],[-38,42],[-39,-21],[-52,-43]],[[5916,440],[-43,1],[-107,14],[-21,34],[-146,113]],[[1699,2070],[28,25],[54,11],[33,-19],[39,-12],[14,48],[29,11]],[[1896,2134],[3,-37]],[[1899,2097],[9,-111],[64,-243],[50,-99]],[[1323,1699],[54,26],[30,25],[8,39],[21,18],[109,52],[27,31],[40,33],[7,47],[22,11],[20,40],[38,49]],[[4154,2247],[28,-4],[133,-67],[40,-7],[103,-44],[65,-39],[81,-9],[15,-37],[21,-17],[150,-17]],[[4790,2006],[11,-119],[12,-76],[-19,-55],[13,-87],[29,-67]],[[4836,1602],[2,-13]],[[4838,1589],[-31,5],[-25,42],[-36,4],[-41,-11],[-2,-27],[-47,12],[-26,-16],[-23,15],[-41,46],[-25,-18],[-75,-86],[29,-39],[-34,-68],[48,-84]],[[4509,1364],[64,-112],[-66,-33],[13,-13],[27,-119],[34,-52],[-162,52],[-55,4],[9,-57],[12,-34],[29,-6],[-6,-86],[59,-33],[52,-7]],[[4519,868],[-112,-28],[-209,-23]],[[4198,817],[-17,121],[5,26]],[[2957,1875],[344,214],[93,52],[19,14],[71,72]],[[1052,13150],[38,24],[5,28],[23,23],[-27,42],[38,50],[45,8]],[[1174,13325],[-10,-34],[85,-132],[15,-17]],[[1255,13098],[-37,-25],[-68,-31]],[[1150,13042],[-70,66],[-28,42]],[[715,12823],[1,-43],[16,-31],[-43,-14],[12,-113],[26,2],[9,-118],[28,-37],[5,-36],[42,3],[77,-29]],[[888,12407],[-53,-155],[-25,-31],[-182,-91],[-22,-41]],[[606,12089],[-113,-8]],[[493,12081],[-8,125],[15,98],[-5,59],[-22,164],[-4,68],[-8,26]],[[461,12621],[-5,73],[-28,94]],[[2521,8090],[101,-111],[20,-32]],[[2642,7947],[18,-54]],[[2660,7893],[-41,-2],[-86,-22]],[[2533,7869],[-32,97],[16,38],[4,86]],[[3512,5445],[22,4],[75,-51],[36,-4],[30,7],[39,-14],[38,3]],[[3694,5162],[-37,12],[-40,1],[-30,-29],[-47,-22],[-50,2],[-5,-14],[-43,-16],[-55,25],[-32,-1]],[[3355,5120],[-3,0]],[[3352,5120],[6,21],[77,106],[43,72],[24,75],[10,51]],[[1893,5539],[66,-14],[81,-7],[54,34],[73,13],[168,10],[37,-26],[53,38]],[[2425,5587],[9,-119],[-6,-15],[16,-75],[0,-26],[-49,-19],[35,-61],[-24,-55],[-43,-48],[29,-33],[-11,-106],[-43,-28],[-66,-16],[-90,-64],[-9,-15],[6,-41],[-14,-24],[-61,1]],[[2104,4843],[-59,-20],[-175,-9],[-52,-42],[-31,56],[-211,96],[-6,9],[25,45],[172,95],[24,27],[21,52],[15,18],[30,11],[-47,37],[-6,71],[-18,35],[-39,34],[-39,8],[-21,14],[1,26],[19,14],[11,45]],[[1745,9506],[27,-8],[31,11],[14,-11],[27,18],[41,3],[15,-16],[21,34],[37,-6],[31,-26],[31,27],[65,27],[34,58],[21,52],[-10,34],[7,24],[41,35],[58,16],[26,22],[-1,28],[-20,15],[10,25],[-31,40],[30,45],[31,-41],[31,2],[0,43],[-27,5],[-8,17],[29,27],[20,-1]],[[2326,10005],[11,-32],[71,-106],[138,-99],[70,-28],[65,-39],[-3,-54],[-16,-74],[-9,-334],[-6,-24],[-37,-55],[-9,-32],[2,-79],[33,-230],[1,-13]],[[2637,8806],[-60,3],[-12,16],[4,25],[-54,24],[-34,-6],[-20,-26],[-29,3],[-8,26],[-43,-7],[-40,7],[-25,-14],[-5,-28],[-23,-8],[-16,-30],[-45,4],[-29,-8],[-43,4],[-84,-7],[-12,-11],[-44,-6]],[[2015,8767],[-30,-1],[-33,22]],[[1952,8788],[-2,20],[19,108],[-2,88],[-23,68]],[[1944,9072],[-43,134],[-19,71],[-23,58]],[[1859,9335],[-60,102]],[[1799,9437],[-54,69]],[[2362,7139],[81,198]],[[2443,7337],[28,-2],[120,41],[66,16]],[[2657,7392],[91,0],[46,-23]],[[2794,7369],[18,-23],[-20,-44],[-138,-107]],[[2654,7195],[-188,-29],[-18,-25],[-75,-3]],[[2373,7138],[-11,1]],[[2245,13662],[41,133]],[[2556,13741],[-204,-262]],[[2352,13479],[-38,34],[-31,77],[-18,6],[4,49],[-24,17]],[[5700,1811],[115,-89],[164,-112],[24,-13],[25,-29],[11,-29]],[[6039,1539],[-28,-12]],[[6011,1527],[-37,-12],[-36,1],[-47,13],[-120,5],[-134,24],[-40,-18],[-59,5],[-37,-19],[-115,-12],[-57,41],[-53,-1],[-41,-34],[-38,-16],[-13,-35],[-28,-6]],[[5156,1463],[-25,15],[-69,18],[-77,-2],[-9,15],[-1,56],[-66,19],[-29,18],[-42,-13]],[[4836,1602],[12,28],[56,30],[48,7],[185,-5],[193,22],[126,5],[59,25],[74,2],[34,15],[77,80]],[[6994,792],[42,7],[13,12],[2,34],[50,-9],[17,4],[-27,38],[-3,88]],[[7088,966],[83,5]],[[7171,971],[6,-56],[10,-284],[26,-353],[-10,-277]],[[7203,1],[-12,0]],[[7191,1],[1,146],[-6,133],[-9,100],[-4,81],[-14,174],[-81,30],[-31,19]],[[7047,684],[-53,108]],[[6826,1121],[23,40],[112,0],[38,-5],[103,4],[49,-5]],[[7151,1155],[20,-184]],[[7088,966],[-70,12],[-137,36]],[[6881,1014],[-55,107]],[[188,10694],[200,-63],[69,119],[20,54],[-11,33],[123,31],[56,-11],[64,56],[27,17]],[[736,10930],[37,-72],[33,-99],[11,-62],[12,-34],[40,-49],[67,-41],[24,-28],[55,-34],[85,-82],[69,-75]],[[1169,10354],[-66,-67],[-162,-25],[-30,-18],[-23,-31],[-19,-40],[-79,140],[-45,44],[-33,21],[-52,-15],[-44,-33],[-34,-58],[-76,-31],[-25,-1],[-92,14],[-26,-5],[-133,-98],[-4,2]],[[226,10153],[-38,541]],[[1169,10354],[34,-52],[5,-43],[29,-45]],[[281,9377],[-55,776]],[[1672,13337],[-47,-64],[-35,-54]],[[1590,13219],[-101,-164],[-78,-118]],[[1411,12937],[-59,80],[-31,69],[-4,53]],[[1793,13458],[136,168]],[[1929,13626],[113,-181]],[[2042,13445],[-175,10],[-3,-83],[-89,-23],[43,-15],[32,-25],[23,-49],[45,-21],[46,64],[35,13],[26,-33]],[[2025,13283],[-132,-167]],[[1893,13116],[-67,11],[-1,17],[-40,16],[-22,23],[-68,2],[-105,34]],[[664,11200],[78,32],[37,79],[14,-27],[28,-19],[14,-23],[54,-8],[36,-29],[34,10],[25,-6]],[[984,11209],[-4,-18],[17,-91],[-102,-21],[-192,-11]],[[703,11068],[-39,132]],[[1495,11203],[9,15],[39,0],[22,-11],[33,7],[-12,37],[22,13],[26,-12],[41,10],[44,-22],[31,-32],[-10,-45],[-17,-24],[1,-33],[39,-15],[14,-22],[62,-35],[23,15],[26,-29],[24,2],[11,23],[59,9],[24,-19],[17,25],[40,19]],[[2063,11079],[37,-27],[29,-11],[29,-61]],[[2158,10980],[-50,-16],[-25,-28],[-32,22],[-27,-6],[8,-34],[-24,-15],[16,-37],[-58,4],[-55,-17],[-11,22],[-23,1],[5,-30],[-37,-1],[0,-53],[-43,-63],[-38,-7],[-24,-26],[-1,-20],[44,9],[56,-71],[4,-42]],[[1843,10572],[-19,-13],[-18,-32],[-46,-3],[-69,16],[-34,-12],[-25,19],[-79,149],[-5,46],[-23,86],[-18,38],[-42,52],[-53,39],[-1,14],[-41,82],[-54,39]],[[1316,11092],[45,34],[18,47],[53,24],[63,6]],[[26,12974],[223,82],[27,-29],[77,7],[54,-18],[29,0]],[[428,12788],[-132,-18],[-22,-1],[-82,18],[-55,5],[-80,13],[-19,-3]],[[38,12802],[-12,172]],[[984,11209],[49,-21],[9,-14],[45,12],[36,-1],[36,42],[88,60],[25,-15],[27,-2],[26,21],[13,30]],[[1338,11321],[20,-22],[26,15],[14,-43],[57,45],[28,-53],[-27,-28],[5,-20],[34,-12]],[[1316,11092],[-1,-25],[-49,-48],[-55,-21],[4,-10],[-19,-49],[-24,5],[-36,23],[-48,-22],[-76,7],[-129,-25],[-80,-7],[-32,14],[-35,-4]],[[736,10930],[-33,138]],[[2232,14347],[65,-30]],[[2297,14317],[-21,-35],[-25,2]],[[2251,14284],[-17,8]],[[2234,14292],[-28,12]],[[2116,8201],[46,-35],[33,-35],[22,-4],[8,-23],[61,-66],[52,-39],[11,-14],[43,-140]],[[2392,7845],[-44,-2],[-98,3]],[[2250,7846],[-1,31],[-19,38],[-65,34],[-70,21],[-48,25],[-37,57],[-40,43],[55,38],[15,20],[35,17],[41,31]],[[2492,7457],[62,149],[14,19]],[[2568,7625],[18,13]],[[2586,7638],[3,-19],[56,-158],[12,-69]],[[2443,7337],[49,120]],[[1377,7794],[93,14],[52,1],[451,0],[35,8],[59,24],[149,1]],[[2216,7842],[55,-85],[-32,-5],[-1,-42],[48,-96],[-10,-98],[1,-49],[-9,-19]],[[2268,7448],[-60,-79],[-118,-2]],[[2090,7367],[-59,-1],[-103,-31],[-31,0],[-96,22],[-35,-4],[-68,-24],[-68,-8],[-120,1],[-25,6]],[[1485,7328],[-65,46]],[[1420,7374],[57,43],[41,51],[-60,93],[-18,6],[-38,50],[-14,55],[-11,122]],[[357,8294],[59,10],[42,-125],[11,-17],[64,-47],[12,10],[50,11],[32,14],[49,38],[109,17],[28,13],[38,4],[284,-151],[126,-51],[80,-14]],[[1341,8006],[3,-80],[33,-132]],[[1420,7374],[-27,3],[-62,-12],[-40,-24],[-86,10],[-32,-22],[-34,-6],[-93,-76],[-102,-38],[-41,-4],[-34,-24],[-31,2],[-99,-40],[-38,-2],[-49,-38],[-57,-10],[-27,-35],[-78,-51],[-40,-39]],[[450,6968],[-42,598],[-51,728]],[[2090,7367],[-36,-80],[-55,-99],[25,-68],[12,-63],[27,-27],[30,3],[11,18],[49,45],[86,12],[14,34],[109,-3]],[[2362,7139],[-49,-120],[-7,-25],[-58,-407],[18,-32]],[[2266,6555],[37,-56]],[[2303,6499],[-79,-24],[-97,-11],[-29,-9],[-122,13],[-60,19],[-24,40],[-27,17],[-58,-3]],[[1807,6541],[-60,-15],[-26,16],[-62,10],[-54,18],[-53,-11],[-20,-10],[-24,13],[-38,-4],[-37,8],[-73,61],[77,40],[16,15],[36,79],[81,110],[-39,72],[-28,37],[-1,46],[16,67],[-21,20],[1,99],[-13,116]],[[2104,4843],[-9,-90],[-28,-174],[-18,-86],[-27,-188],[-15,-54]],[[2007,4251],[-193,-7],[-338,-13],[-448,-17],[-385,-16]],[[643,4198],[-61,884],[-37,529]],[[2717,14580],[60,31]],[[2990,14759],[31,23],[38,40]],[[3059,14822],[39,-39],[-28,-32],[40,-29]],[[3110,14722],[-75,-111],[-39,-95],[-61,-78]],[[2935,14438],[-29,20],[-16,-5],[-20,-28],[-39,9],[-6,20]],[[2825,14454],[48,21],[-156,105]],[[482,14650],[91,98],[49,47]],[[622,14795],[67,-102],[86,-80],[25,-34]],[[839,14406],[-57,-11],[-94,-50]],[[688,14345],[-2,34],[-30,25],[-19,47],[-5,69],[12,25],[14,65],[-33,12],[-63,2],[-80,26]],[[624,14278],[-19,12],[-35,-39],[-49,-45],[-32,-2],[-44,8],[-118,-49],[-18,42],[-24,1]],[[285,14206],[-16,43],[-45,15]],[[224,14264],[55,103],[61,98],[96,130],[46,55]],[[2025,13283],[50,2],[162,50]],[[2237,13335],[23,7],[47,80],[45,57]],[[2728,14001],[49,113],[75,209]],[[2852,14323],[83,115]],[[3110,14722],[146,110],[127,71],[111,25],[91,75]],[[3585,15003],[142,-93],[-208,-88],[-112,-45],[-67,-54],[-49,-47],[10,-9],[-30,-60],[-69,-36],[-44,-56],[4,-41],[-57,-157],[-33,-49],[-27,-54],[5,-45],[-20,-50],[8,-12],[-2,-87],[-20,-22],[-32,-4],[-41,23],[-22,-12],[-30,-43],[0,-12],[-34,-62],[-13,-35],[-100,-41],[-26,-34],[0,-104],[-8,-57],[-21,-88],[-37,-67],[-56,-52],[-37,-49],[-21,-39],[-56,-61],[-82,-24],[-64,-85],[-55,-24],[-30,-33]],[[2251,13095],[-29,-29],[-24,-1],[-79,-36],[-3,-63],[51,-114],[40,-59],[60,5]],[[2267,12798],[22,-45],[30,-11],[79,-69],[47,-11],[4,-19],[32,-28],[23,-7],[8,-21],[27,-30],[30,1],[63,-15],[52,-50],[8,-122],[-30,-52],[-30,-66],[-32,-41],[-117,-121],[-5,-20],[19,-34],[41,-20],[11,-57],[-4,-72],[-12,-62],[8,-28],[-25,-57],[0,-62],[7,-40],[24,-20],[-10,-14],[-102,-14]],[[2435,11591],[-9,62],[-15,-3],[-17,-63]],[[2394,11587],[-160,-8],[-44,-142],[30,-290],[0,-13],[286,-282],[422,-414],[61,-59]],[[2989,10379],[-238,-192]],[[2751,10187],[-23,-19]],[[2728,10168],[-3,26],[-48,154],[-44,89],[-54,68],[-84,181],[-28,45],[-51,36],[-106,103],[-119,80],[-33,30]],[[2063,11079],[-19,54],[-47,57],[-25,64],[-6,70],[3,59],[10,52],[35,141],[71,76],[47,-38],[38,17],[7,28],[-74,20],[22,53],[16,-19],[34,-9],[34,52],[35,90],[76,-11],[9,48],[-139,26],[12,36],[32,361]],[[2234,12306],[-5,29],[-31,34],[-311,270],[-77,53],[-40,42],[-8,73]],[[1762,12807],[1,66],[-18,41],[7,41],[61,60],[80,101]],[[2026,12729],[13,-28],[2,-38],[40,-70],[26,-17],[47,-7],[26,44],[-42,44],[-87,61],[-25,11]],[[1197,14061],[74,44]],[[1271,14105],[50,-61]],[[1321,14044],[46,-63],[78,35]],[[1445,14016],[-7,-23],[-31,-29],[8,-30],[-27,-7]],[[1388,13927],[-17,-6],[-52,5]],[[1319,13926],[22,34],[-74,50],[-25,2],[-60,-21],[-64,-17],[-15,22]],[[901,13864],[78,29],[65,51]],[[1319,13926],[-19,-22],[-5,-30],[-40,-27],[-31,11],[-31,-37],[-33,21],[-71,-14],[-18,-13],[-54,38],[-84,-21],[-32,-16]],[[901,13816],[-33,36],[33,12]],[[1321,12799],[65,-1],[18,-10],[37,24],[55,-19],[77,-7],[54,31],[135,-10]],[[2234,12306],[-354,-56],[-152,-30],[-91,-9],[-128,24],[-85,-1],[-83,-25]],[[1341,12209],[-14,28],[-20,128],[-62,269],[62,140],[14,25]],[[2435,11591],[-41,-4]],[[1355,11625],[3,106],[1,256],[4,145],[-2,36],[-20,41]],[[1338,11321],[-2,64],[17,196],[2,44]],[[916,12942],[1,-2]],[[917,12940],[16,-20],[28,-154],[-11,-35],[83,-60],[41,-23]],[[1074,12648],[-61,-79],[-63,-90],[-62,-72]],[[6994,792],[-113,222]],[[1150,13042],[-112,-51],[-121,-51]],[[1286,13443],[16,-45]],[[1174,13325],[-7,26],[19,25],[42,7],[10,31],[29,29],[19,0]],[[2818,15322],[174,-47],[148,-50],[59,-23]],[[3199,15202],[-43,-42]],[[3156,15160],[-136,23],[-93,19],[-129,23]],[[2798,15225],[20,97]],[[6663,1726],[178,10],[231,7],[128,10]],[[7200,1753],[10,-56],[-97,-1],[28,-411],[2,-58],[8,-72]],[[6826,1121],[-29,56]],[[6797,1177],[-21,79],[-36,41],[-21,56],[3,32],[22,48]],[[6744,1433],[6,22],[-7,49],[-60,120],[-15,44],[-5,58]],[[4700,5508],[331,123],[209,79],[547,204],[533,199]],[[6320,6113],[37,-56],[98,-200],[475,-944],[106,-214],[7,-8],[334,-666],[142,-284],[-22,-22],[21,-101],[17,-58],[3,-53],[-1,-126],[-10,-85],[0,-38],[18,-123],[25,-156],[8,-88],[30,-134],[12,-85],[16,-69],[9,-112],[-6,-107],[1,-122],[7,-61],[-3,-101],[5,-53],[-3,-46],[46,-73],[36,-139],[12,-185],[26,-205],[8,-182],[10,-124],[15,-117],[11,-122],[7,-202],[2,-143],[-9,-257],[-10,-84],[-1,-162],[-130,-6],[-466,1]],[[7200,1753],[-10,56],[-96,-19],[-30,511],[-81,646]],[[6983,2947],[-6,66],[-33,186]],[[6944,3199],[-32,278],[-36,234],[-79,261],[-33,11],[-82,-23],[-10,-86],[47,-70],[-69,-36]],[[6650,3768],[-48,-25],[-77,-16],[-70,26],[-141,30],[-89,10],[-77,4],[-15,8],[-299,192],[-288,319]],[[1470,14289],[-61,7],[-115,-67]],[[1294,14229],[-38,-23],[-61,-19]],[[1195,14187],[-1,10],[43,95],[20,55],[-7,67]],[[1895,14095],[92,74],[45,31],[66,30]],[[2098,14230],[25,-64],[59,-3],[-1,-38],[28,2],[7,35]],[[2216,14162],[1,-36],[10,-32],[-17,-37],[-21,-9],[-83,-17],[-55,13],[-44,3],[-34,-19],[-42,-13],[-13,-38],[-55,-36],[-26,2],[-21,17],[-60,0]],[[1756,13960],[-5,-2]],[[1751,13958],[1,53],[-29,34]],[[1723,14045],[31,17],[33,-53],[108,86]],[[1074,12648],[90,119],[42,27]],[[1206,12794],[29,24],[37,-20],[49,1]],[[1341,12209],[-131,-79],[-177,-38],[-35,-2],[-84,6],[-96,11],[-67,5],[-53,-6],[-78,-15]],[[620,12091],[-14,-2]],[[2599,14435],[10,-15],[31,16],[-12,-45]],[[2628,14391],[-75,-43],[8,-31],[-10,-54]],[[1501,14273],[2,-44]],[[1503,14229],[-49,-17],[-96,-56]],[[1358,14156],[-54,42],[-10,31]],[[1496,14123],[9,-8]],[[1505,14115],[14,-36],[-20,-30],[-46,-11],[-8,-22]],[[1321,14044],[28,22],[147,57]],[[2628,14391],[26,-38],[96,-45],[102,15]],[[2248,14511],[-38,-19],[-18,-48]],[[2192,14444],[-43,19]],[[2149,14463],[24,50],[33,24],[42,-26]],[[3119,14885],[-60,-63]],[[2900,14875],[48,77],[44,45]],[[2746,14739],[-43,-22],[-60,-19],[-19,72],[-48,87]],[[2576,14857],[96,25],[40,49],[45,20]],[[2871,15090],[61,34],[30,-7],[38,-23],[18,-43],[20,-9]],[[1388,13927],[-9,-40],[-29,-34],[8,-19],[37,-26],[31,12],[9,26],[24,-11],[32,4],[61,20],[63,-17],[15,-29]],[[1630,13813],[-15,-28],[17,-41],[-34,-32],[-37,-1],[-7,-32],[-46,-14],[30,-21],[-27,-41],[-36,28],[-22,-39],[24,-6],[5,-30],[-49,-13],[-22,-35],[-3,-43],[-57,-13],[-39,8],[-26,-17]],[[1286,13443],[-32,15]],[[1254,13458],[-28,13],[-98,36],[-21,25]],[[1107,13532],[-50,38]],[[1057,13570],[6,17],[-4,46],[-25,59],[-76,70],[-35,26]],[[923,13788],[-22,28]],[[1630,13813],[13,9],[42,74],[30,39],[36,23]],[[1756,13960],[8,-37],[43,-101],[48,-71],[74,-125]],[[904,13608],[63,-8],[90,-30]],[[1107,13532],[-85,-51],[-69,-70],[-58,-33]],[[895,13378],[8,128],[-14,59],[-12,26]],[[6837,1928],[1,37],[-33,101],[-19,44],[-29,31],[-17,5],[-72,-3]],[[6668,2143],[3,207]],[[6671,2350],[8,166]],[[6679,2516],[7,40],[65,176],[9,122]],[[6934,2944],[49,3]],[[6663,1726],[5,33],[32,52],[52,43],[53,37],[32,37]],[[1570,2843],[35,-25],[39,-41],[45,-21]],[[1689,2756],[-62,-341],[-10,-81],[4,-27],[32,-128],[45,-106]],[[1698,2073],[-91,-48],[-29,1],[-90,38],[-109,40],[105,36],[65,14],[-58,154],[-23,92],[4,55],[-8,58],[-12,28],[-4,42],[29,30],[35,76],[38,96],[20,58]],[[3399,4635],[97,19],[99,-1],[-1,138],[-24,105],[-7,58]],[[4307,4245],[-31,1],[-123,-12],[-86,4],[-123,-3],[-49,12],[-53,2],[-19,-44],[-78,-36],[-44,-73],[-39,32],[-27,41],[-42,19],[-31,49],[-66,-57],[-54,-1],[-39,-14]],[[3403,4165],[-4,470]],[[1689,2756],[63,-33],[55,-18],[22,1],[114,49]],[[1943,2755],[-52,-487],[5,-134]],[[1699,2070],[-1,3]],[[901,13864],[14,78],[9,20],[-11,29]],[[2637,8806],[5,-66],[39,-40],[17,-161],[42,-57],[22,-43],[40,-59],[144,-104],[61,-11]],[[3007,8265],[-48,-66],[-114,-132],[-60,-24]],[[2785,8043],[-325,250],[-46,41],[-55,69],[-43,40],[-138,96],[-71,60],[-55,68],[-22,40],[-15,60]],[[2751,10187],[202,-127],[13,-96],[149,-97],[160,-78],[51,-77],[114,-43],[76,-111],[17,-203],[259,-318],[23,-105],[16,-120],[-4,-176],[13,-61],[75,-210],[-4,-180],[-136,-153],[-22,-70],[-13,-113],[-22,-83],[15,-77],[28,-267],[37,-104],[30,-110],[-7,-238],[12,-94],[15,-43],[80,-126],[144,-72],[55,-49],[21,-25],[174,-133],[109,-107],[73,-153],[111,-166],[49,-141],[21,-79],[-12,-226],[2,-57]],[[3512,5445],[14,52],[2,44],[-8,37],[-113,270],[-40,78],[-80,69],[-26,42],[-56,169]],[[3205,6206],[-24,51],[-2,24],[42,223],[2,58],[-9,46]],[[3214,6608],[-36,164],[-1,31],[33,176],[13,53]],[[3223,7032],[30,185],[-10,44],[31,28],[16,33],[53,63],[8,18],[-47,31],[30,37],[-10,45],[16,17],[-38,25],[-2,20]],[[3300,7578],[11,16],[43,185],[-2,45],[-23,57],[-61,168],[-20,32],[-116,125],[-17,13],[-82,40],[-26,6]],[[2326,10005],[15,-23],[28,-11],[19,28],[28,10],[13,-25],[31,-14],[15,30],[23,14],[31,-13],[14,13],[-12,41],[26,15],[43,-12],[44,26],[9,38],[40,18],[35,28]],[[2785,8043],[-30,-17],[-113,-79]],[[2521,8090],[-70,59],[-218,177]],[[2233,8326],[-97,79],[-23,33],[-80,197]],[[2033,8635],[-81,153]],[[2989,10379],[116,-160],[240,-200],[417,-408],[201,-193],[336,-314],[248,-234],[199,-290],[500,-735],[117,-194],[174,-282],[266,-410],[226,-253],[249,-495],[42,-98]],[[2527,6196],[34,29],[42,50],[28,12],[10,28],[37,32],[47,11]],[[2725,6358],[60,20],[46,33],[92,-21],[48,7],[37,-3],[34,-21],[-13,-23],[18,-36],[22,-2],[17,-47],[22,-28],[58,-14],[39,-17]],[[3352,5120],[-55,-11],[-70,-26],[-35,-4],[-47,21],[-116,-60],[-74,-23]],[[2955,5017],[-44,24],[-27,112],[-5,72],[22,19],[-10,83],[9,28],[-99,32],[35,34],[90,64],[0,214],[-51,23],[-21,28],[-51,94]],[[2803,5844],[-77,62],[-14,16],[-5,35],[-38,35],[-61,113],[-18,27],[-63,64]],[[2533,7869],[-92,-23],[-49,-1]],[[2116,8201],[38,26],[29,11],[-4,51],[54,37]],[[2371,14702],[13,10],[98,115],[94,30]],[[2717,14580],[-21,-11]],[[2696,14569],[-67,-35]],[[2426,14574],[-33,-16]],[[2393,14558],[-22,144]],[[461,12621],[-116,-22],[-40,-24],[-35,-35],[-40,-24],[-78,-31],[-14,-21],[-73,-38]],[[65,12426],[-27,376]],[[1254,13458],[-92,-66],[-103,-53],[-108,-47]],[[3156,15160],[62,-25],[45,-14],[35,39]],[[3298,15160],[157,-78]],[[3455,15082],[-114,-29],[-89,-53]],[[3202,15065],[-98,42]],[[3104,15107],[52,53]],[[2825,14454],[-57,43],[-32,4],[-25,-12],[-20,33],[5,47]],[[285,14206],[-11,-38],[-17,6],[-26,-16],[-20,-33],[20,-14],[11,-45],[58,-43],[-16,-58],[3,-26],[51,-67],[14,-8],[3,-41],[-17,-33]],[[338,13790],[-46,11],[-2,32],[-73,-9],[-44,13],[-101,-18],[-41,27],[-27,2]],[[4,13848],[0,240],[144,0],[34,85],[42,91]],[[3199,15202],[99,-42]],[[1506,9177],[54,85],[51,70],[18,16],[101,32],[69,57]],[[1859,9335],[-38,-90],[-16,-19],[-48,-30],[-38,-55],[-24,-23]],[[1695,9118],[-124,-120],[-51,-16],[4,31],[-19,64],[-6,79],[7,21]],[[1307,9064],[62,50],[55,38],[36,17],[46,8]],[[1695,9118],[128,-104],[37,30],[84,28]],[[2033,8635],[-40,34],[-25,-20],[-43,-3],[-345,-99]],[[1580,8547],[2,27],[-17,43],[-30,39],[-37,25],[-13,78],[-2,45],[-51,51],[10,25],[-135,184]],[[2794,7369],[28,-11]],[[2822,7358],[-1,-32],[56,-4],[9,-17],[52,13],[32,-32]],[[2970,7286],[70,-25],[34,-39],[42,-29],[29,-31],[33,-61],[-37,-48]],[[3141,7053],[-76,-23],[-74,-42],[-40,-43],[-42,-27],[-37,-11]],[[2872,6907],[-14,25],[-29,4],[-59,40],[-20,29],[-124,92],[24,70],[4,28]],[[2872,6907],[-12,-9],[-97,-115],[-137,-123]],[[2626,6660],[-66,-17]],[[2560,6643],[-61,113],[-21,57],[3,51],[-19,50],[-104,110],[-9,24],[19,33],[5,57]],[[2560,6643],[-110,-49],[-93,-35],[-91,-4]],[[2303,6499],[59,-70],[117,-184],[48,-49]],[[2803,5844],[-35,-18],[-131,-95],[-171,-87],[-41,-57]],[[1768,6158],[91,51],[-79,207],[27,125]],[[3141,7053],[4,-14],[41,-14],[37,7]],[[3214,6608],[-31,54],[-77,87],[-9,15],[-65,-77],[-44,11],[-62,46],[-70,-53],[-77,-8],[-36,-12],[-72,-11],[-36,0]],[[2635,6660],[-9,0]],[[2116,8201],[-70,68],[-93,-38],[-37,-3],[-110,-51],[-77,-5],[-40,-13],[-84,9]],[[1605,8168],[13,49],[45,82],[57,56],[64,55],[-11,23],[-127,6],[-98,37],[32,71]],[[2635,6660],[8,-28],[27,-37],[59,-4],[6,-51],[-31,-57],[1,-14],[-37,-85],[51,-12],[6,-14]],[[1341,8006],[37,115],[24,20],[55,16],[30,-1],[67,-15],[38,8],[13,19]],[[2250,7846],[-34,-4]],[[2822,7358],[34,11],[15,27],[3,72],[39,26]],[[2913,7494],[11,-13],[126,-80],[36,-29],[-34,-37],[-29,-3],[-25,-47],[-28,1]],[[2216,14162],[5,-4]],[[2266,14133],[3,-52],[-20,-49],[-65,-82]],[[2184,13950],[-121,-154]],[[2063,13796],[-16,-20]],[[2047,13776],[-118,-150]],[[2913,7494],[-53,98]],[[2860,7592],[71,86],[135,-88],[34,-2],[5,40],[25,-6],[9,111],[67,-3],[-2,-108],[14,-31],[23,-14],[59,1]],[[1411,12937],[-90,-138]],[[1206,12794],[24,153],[25,151]],[[94,12019],[54,-4],[75,18],[52,25],[47,13],[171,10]],[[620,12091],[-8,-94],[92,-134],[39,-65],[10,-49]],[[753,11749],[-20,-148],[-61,-171],[-3,-21]],[[669,11409],[-62,3],[-32,27],[-53,-8],[-9,-48],[-20,-69],[-14,-84],[-22,-54],[-32,-2],[-67,17],[-155,52],[-54,0]],[[149,11243],[-55,776]],[[1355,11625],[-37,-3],[-113,18],[-154,18],[-109,38],[-45,42],[-22,10],[-54,4],[-68,-3]],[[2251,13095],[-14,-29],[-8,-51],[7,-77],[9,-10],[13,-73],[-8,-16],[17,-41]],[[12,13166],[52,8],[197,70],[49,10],[105,1]],[[26,12974],[-14,192]],[[1213,14625],[-63,-31],[-35,-5],[-85,-51]],[[955,14673],[62,40],[97,35],[28,24]],[[622,14795],[103,91],[80,61]],[[338,13790],[-11,-35],[17,-18]],[[339,13654],[-18,-1]],[[134,13732],[-130,56]],[[4,13788],[0,60]],[[5976,3295],[84,0],[54,-6],[57,-33]],[[6171,3256],[89,-67]],[[5799,2911],[-137,17]],[[5662,2928],[-1,66],[30,31],[16,27],[35,40],[234,203]],[[4519,868],[177,23],[-10,81],[58,81],[83,46],[31,22],[26,-8],[34,23],[19,27],[28,14],[1,38],[30,42],[23,13],[48,44],[55,31],[20,36],[14,82]],[[6011,1527],[-3,-42],[-118,-127],[-34,-30],[-65,-4]],[[5791,1324],[-49,-18],[-54,-50],[-47,-26],[-102,-11],[-24,-31],[-58,1],[-13,-8],[-19,-50],[-63,-18],[-34,-30],[129,-51],[56,-36],[-12,-10],[-22,-61],[-27,-34],[-55,-28],[-18,8],[-27,-43],[11,-46],[-55,-7],[27,-47],[11,-32],[13,-142]],[[5359,554],[-58,-55],[-17,-26],[-43,-30],[-4,-32],[-42,-45],[-14,-31],[5,-39],[-117,-26],[-75,-41],[-17,-3],[-79,11],[-85,3],[-59,35],[-15,30],[-18,5],[-149,13]],[[4572,323],[-86,7],[-28,-7],[-83,7],[-10,37],[-22,41],[-50,201],[-38,48],[-22,98],[-29,9],[-6,53]],[[6329,3598],[-128,-137],[-204,-74]],[[5997,3387],[-34,40],[97,74],[28,36],[-27,16],[-53,2],[-1,30],[-39,19],[15,23],[-23,18],[56,47],[32,18],[12,36],[24,7],[39,-23],[51,-59],[61,-28],[54,-5],[40,-40]],[[4088,2749],[25,17],[218,63],[45,16],[131,37],[82,34]],[[4589,2916],[14,-31],[41,-108],[5,-25],[9,-145],[16,-42]],[[4674,2565],[9,-21],[45,-74],[17,-100],[16,-25],[29,-339]],[[3917,2648],[79,68],[92,33]],[[5580,3508],[113,-82]],[[5693,3426],[-7,-6],[-108,-36],[-23,-33],[-51,-31],[-38,-33]],[[5466,3287],[-14,14],[-161,87],[156,12],[19,5],[47,36],[67,67]],[[4088,2749],[29,166],[25,32],[5,92],[19,78],[-3,82],[24,58]],[[4187,3257],[17,-13],[26,11],[37,30],[45,-4],[39,13],[52,5],[-10,57],[-14,104],[-23,84]],[[4356,3544],[34,4],[81,-21],[120,-5],[46,67],[15,30]],[[4652,3619],[46,-12],[46,-51],[21,-9],[6,-95],[37,-51],[-13,-73],[31,-20],[17,-26],[30,-198],[17,-50]],[[4890,3034],[-33,-9],[-128,-44],[-140,-65]],[[5503,2352],[13,45],[-5,109],[42,98],[15,75],[0,44],[10,52],[22,55],[60,88],[2,10]],[[5936,2709],[1,-51],[-47,-43],[-27,-35],[2,-38],[24,-33],[-30,-65]],[[5859,2444],[-21,-30],[-13,-43],[0,-130],[-41,-175],[-6,-19]],[[5778,2047],[-18,7],[-110,77],[-77,78],[-16,25],[-54,118]],[[6379,3420],[199,-284],[-14,-83],[29,-37],[-77,-12],[-18,14],[-28,-3]],[[6470,3015],[-59,53]],[[6411,3068],[-46,41]],[[6171,3256],[21,30],[33,90],[90,-21],[8,2],[56,63]],[[1271,14105],[87,51]],[[1503,14229],[-4,-29],[-19,-28],[-1,-35],[17,-14]],[[6811,3181],[25,14],[26,-23],[35,4],[47,23]],[[6763,2918],[20,76],[19,46],[30,33],[7,51],[-28,57]],[[753,14058],[-44,8],[-28,-58],[8,-24],[-41,-32],[17,-19],[12,-106],[-10,-48],[-37,-21]],[[2042,14622],[26,-15]],[[2068,14607],[-39,-69],[50,-35],[-34,-57]],[[2045,14446],[-87,40],[-10,-62]],[[1794,14493],[-62,21],[-131,13]],[[1601,14527],[-70,11],[-46,-2]],[[1195,14187],[-7,-4]],[[1023,14240],[-20,23],[-64,43]],[[923,13788],[-47,-17],[-50,13],[-27,-11],[1,-32]],[[366,13351],[-20,182],[-3,121]],[[1616,14257],[26,1]],[[1791,14273],[56,8],[68,-9],[24,15],[63,13]],[[2002,14300],[-13,-23],[39,-21]],[[2028,14256],[-44,-13],[-23,-16],[-70,-17],[-25,-27],[-54,-2]],[[1812,14181],[-15,18],[-141,-19]],[[1656,14180],[-34,47],[-6,30]],[[179,13514],[-11,-12]],[[168,13502],[-26,-29],[-141,-142]],[[1,13331],[-1,65],[4,118],[0,274]],[[1601,14527],[-13,-32],[10,-65],[6,-87],[12,-86]],[[1656,14180],[16,-27],[16,-58]],[[1688,14095],[-7,-11],[-91,13],[-64,22],[-21,-4]],[[1688,14095],[35,-50]],[[2002,14300],[42,8],[39,53]],[[2083,14361],[70,-32]],[[2153,14329],[-57,-96]],[[2096,14233],[-37,74],[-31,-51]],[[2649,4576],[64,122],[16,44],[46,29],[16,-8],[47,24],[24,54],[28,7],[34,47],[-1,69],[32,53]],[[3355,5120],[3,-23],[37,-101],[4,-361]],[[3403,4165],[-20,-13],[-63,-21],[-56,-11],[-23,-22],[-26,-39]],[[3215,4059],[-66,-8],[-103,119],[-24,-16],[-180,109],[-144,44],[-11,11],[-62,99],[10,71],[11,35],[3,53]],[[2379,15269],[93,10]],[[2461,15043],[-131,9]],[[2330,15052],[-6,43],[14,55],[33,86],[8,33]],[[2423,15381],[188,-21],[117,-19],[90,-19]],[[2798,15225],[-261,45]],[[2379,15269],[14,59],[30,53]],[[2798,15225],[-9,-20],[-53,-67]],[[4666,4133],[22,-29],[43,-34],[332,-178],[92,-71],[65,-59]],[[5220,3762],[-16,-20],[-43,32],[-24,-20],[-65,16],[-23,20],[-49,-1],[-20,-32],[-21,14],[-29,-3],[-21,-14],[3,-43],[-34,-21],[3,-15],[28,-27],[-60,-23],[-44,-6],[-48,8],[-34,-3],[-70,6],[-1,-11]],[[4356,3544],[-8,65],[13,52],[-6,75],[0,72],[-15,64],[-1,89],[-27,72],[-1,20],[17,110],[-18,32],[-3,50]],[[739,2821],[38,-4],[63,-24],[91,9],[114,43],[80,24],[45,4],[59,-4],[20,7],[112,63],[26,21],[159,-99],[24,-18]],[[850,1215],[-76,1095],[-35,511]],[[4674,2565],[105,-20],[45,-43],[25,0],[132,48],[70,-3],[121,-48],[52,13],[67,2],[92,-48],[72,-74],[48,-40]],[[5778,2047],[2,-1]],[[5780,2046],[-24,-99]],[[5756,1947],[-25,-98],[-31,-38]],[[4572,323],[-29,-42],[-41,-47],[23,-15],[12,-36],[22,-14],[-15,-61],[-16,-17],[-44,6],[-3,-24],[-36,-64]],[[4445,9],[-412,3],[-192,-1],[-146,3],[-978,21],[-474,14]],[[2243,49],[11,642]],[[2243,49],[-425,13],[-892,37],[-47,687]],[[4187,3257],[28,60],[-146,38],[-26,-3],[-66,-40],[-22,-7],[-91,-4],[-43,14],[-94,12],[-60,-26],[-14,-15],[-16,-45],[-14,-13],[-79,-34]],[[2805,3375],[34,54],[21,47],[71,66],[41,93],[64,71],[14,33],[-16,43],[4,27],[21,16],[84,118],[29,33],[47,37],[-4,46]],[[5359,554],[98,43],[-6,-25],[49,-80],[54,23],[18,49],[27,38]],[[5916,440],[59,5],[4,-40],[-9,-103],[-16,-42],[-31,-31],[-12,-34],[26,-73],[-2,-20],[-26,-39],[-31,-23],[-15,-39]],[[5863,1],[-453,0],[-965,8]],[[1900,3418],[26,326],[4,30],[29,94],[22,32],[12,39],[-18,120],[6,99],[26,93]],[[2007,4251],[266,11],[62,60],[45,25],[43,3],[35,44],[-2,26],[153,65],[40,91]],[[2503,2872],[-140,-24],[-102,-3],[-89,27],[-109,64],[-80,43],[-36,34],[-18,0]],[[1929,3013],[-12,151],[-19,197],[2,57]],[[6039,1539],[64,32],[190,47]],[[6293,1618],[162,41],[85,44],[51,15],[72,8]],[[6744,1433],[-22,-10],[-56,-3],[-20,9],[-37,-2],[-62,-24],[-2,-14],[-62,-21],[-19,-13],[-8,-44],[10,-177]],[[6466,1134],[2,-41],[-41,15],[-42,-4]],[[5719,847],[-17,15],[26,17],[13,109],[14,31],[-15,26],[7,24],[-22,15],[8,17],[-16,45],[-29,25],[11,15],[49,21],[0,30],[34,25],[9,62]],[[2248,14511],[7,3]],[[2255,14514],[42,-44]],[[2297,14470],[-11,-44],[-12,-16]],[[2274,14410],[-1,-1]],[[2273,14409],[-18,16],[-38,11]],[[2217,14436],[-25,8]],[[2068,14607],[52,21],[55,-19],[55,-5],[28,-35],[-5,-46]],[[2253,14523],[2,-9]],[[2149,14463],[-22,-28]],[[2127,14435],[-34,16],[-14,-23],[-34,18]],[[2273,14409],[-41,-62]],[[2178,14372],[39,64]],[[336,13327],[-21,6],[-3,32],[-49,-2],[-33,29],[-52,0],[-37,35],[3,19],[24,56]],[[2034,15381],[156,7],[130,-1],[103,-6]],[[2330,15052],[21,-159]],[[2351,14893],[20,-191]],[[2393,14558],[-93,-30],[-47,-5]],[[12,13166],[-11,165]],[[2274,14410],[32,-21],[-18,-29],[20,-9],[-11,-34]],[[2108,14404],[70,-32]],[[2083,14361],[25,43]],[[2127,14435],[-19,-31]],[[2002,14300],[13,21],[-29,14]],[[2393,14558],[13,-98]],[[2338,14421],[-7,17],[-34,32]],[[2234,14292],[-136,-62]],[[2098,14230],[-2,3]],[[2251,14284],[69,-33]],[[3038,15042],[66,65]],[[1812,14181],[15,-37],[-53,7],[-7,-35],[128,-21]],[[1899,2097],[45,17],[154,-12],[98,2],[68,-16],[25,51],[0,39],[12,33],[69,76],[16,26],[56,66],[117,7],[56,12]],[[6811,3181],[-37,62],[-58,56],[-27,19],[-205,189],[-54,41],[-28,9]],[[6402,3557],[79,83],[171,26],[12,48],[-14,54]],[[6777,370],[32,-8],[59,0],[36,-16],[112,-68],[45,-14]],[[7061,264],[5,-115],[-3,-50],[-22,-83]],[[7041,16],[-33,15],[-93,68],[-32,35],[-66,33]],[[6817,167],[-40,39],[-71,29]],[[6706,235],[10,67],[14,7],[17,44],[30,17]],[[6302,300],[9,-33],[27,9],[101,-19],[85,-32],[16,-18],[50,30],[84,8],[32,-10]],[[6817,167],[2,-33],[-29,-9],[-69,13],[27,-28],[-34,-21],[-46,0],[-26,20],[-39,-9],[-74,18],[-39,-8],[-47,7],[-26,12],[-62,-43],[-22,-46],[-22,-25],[-25,-15]],[[6286,0],[-423,1]],[[7041,16],[-11,-15]],[[7030,1],[-744,-1]],[[5756,1947],[73,-12],[97,-81],[17,15],[56,15],[18,-1],[48,-53],[51,-17],[12,-49],[32,-9]],[[6160,1755],[11,-4],[82,-68],[40,-65]],[[6797,1177],[-60,-44],[-26,-3],[-33,-23],[-39,-11],[-69,-12],[-53,36],[-51,14]],[[6402,3557],[-27,12]],[[6375,3569],[-46,29]],[[5997,3387],[68,-56],[-89,-36]],[[5976,3295],[-85,12],[-44,2],[-23,15],[-31,39],[-100,63]],[[5580,3508],[-300,220],[-60,34]],[[6375,3569],[24,-19],[15,-43],[0,-49],[-35,-38]],[[5780,2046],[120,-37]],[[5900,2009],[136,-41],[70,-1]],[[6106,1967],[82,-82],[12,-41],[-15,-40],[0,-24],[-27,-4],[2,-21]],[[5466,3287],[28,-35],[9,-88]],[[5503,3164],[-156,-27],[-457,-103]],[[6470,3015],[34,-26],[157,-87]],[[6661,2902],[-40,-26],[-9,-30],[-47,-56],[-7,-41],[-49,-4],[1,-37],[20,-32],[37,-26],[112,-134]],[[6671,2350],[-74,48],[-67,52],[-42,41],[-35,51]],[[6453,2542],[-19,29],[-17,58],[-28,68],[5,28],[-24,53],[2,38],[-10,57],[17,93],[22,89],[10,13]],[[6760,2854],[-99,48]],[[6115,2543],[183,-36],[42,12],[-4,22],[117,1]],[[6668,2143],[-71,-4],[-142,-40],[-47,5]],[[6408,2104],[-37,16],[-57,8],[-48,28]],[[6266,2156],[-29,51],[-35,34],[-58,26],[-80,16]],[[6064,2283],[7,100],[7,17],[5,84],[25,-2],[7,61]],[[4509,1364],[96,74],[26,10],[154,37],[16,8],[37,96]],[[5503,3164],[149,27],[94,11],[30,7],[200,86]],[[6115,2543],[-5,46],[-37,6],[-12,47],[-29,68],[-9,47]],[[6064,2283],[-19,0],[-61,37],[-31,35],[-50,16],[-18,52],[-26,21]],[[6266,2156],[-29,-21],[-39,-3],[-21,-15],[-65,-25],[-64,-36],[-74,41],[-66,-56],[-8,-32]],[[6284,1930],[48,-31],[59,5],[84,21],[36,-5],[155,11],[46,-2],[37,-30],[16,-1],[18,30],[54,0]],[[6106,1967],[28,32],[53,-5],[48,-23],[49,-41]],[[1943,2755],[7,91],[-21,167]],[[7061,264],[1,55],[12,140],[-1,43],[-22,94],[-12,34],[8,54]],[[7191,1],[-161,0]],[[2351,14893],[15,-9],[86,25],[11,-11],[33,16]],[[2496,14914],[80,-57]],[[2047,13776],[14,-29],[21,-214]],[[2082,13533],[11,-91]],[[2093,13442],[-51,3]],[[2299,13836],[-40,28],[-53,73],[-22,13]],[[2286,13795],[-174,10],[-23,-4]],[[2089,13801],[-26,-5]],[[2245,13662],[-26,-85],[-49,16]],[[2170,13593],[-19,76],[-1,56],[26,33],[-69,45],[-18,-2]],[[2170,13593],[-46,-32],[1,-32],[-43,4]],[[2237,13335],[-23,33],[-62,60],[-59,14]],[[664,11200],[-7,25],[12,184]],[[1843,10572],[25,-51],[-1,-34],[-12,-39],[-25,0],[-46,16],[-52,-21],[-48,3],[-35,16],[-34,-35],[-7,-36],[-48,-17],[-25,-25],[-19,34],[-33,9],[-14,-48],[-20,16],[-22,-41],[-32,0],[-8,-32],[21,-25],[-42,-4],[-19,-11],[-74,-9],[-36,-24]],[[188,10694],[-39,549]],[[94,12019],[-29,407]],[[2268,7448],[7,-4]],[[2275,7444],[22,-14],[36,2],[31,26],[42,-16],[23,20],[43,8],[20,-13]],[[2496,14914],[-18,28],[-17,101]],[[1197,9304],[9,-62],[11,0],[12,-74],[78,-104]],[[357,8294],[-76,1079]],[[2561,7678],[-3,-42],[10,-11]],[[2275,7444],[40,51],[157,189],[89,-6]],[[489,6412],[-39,556]],[[2586,7638],[33,23],[25,31],[45,137]],[[2689,7829],[23,-1],[110,-150],[38,-86]],[[2689,7829],[-8,35],[-21,29]],[[2561,7678],[5,92],[-33,99]],[[665,3887],[43,-8],[59,-22],[107,-29],[29,-11],[44,-29],[37,-33],[95,-55],[95,-42],[338,-266],[54,-39],[149,109],[31,-11],[154,-33]],[[739,2821],[-74,1066]],[[6408,2104],[32,-53],[-60,-32],[-19,-19],[-31,3],[-46,-73]],[[665,3887],[-22,311]],[[6994,792],[-42,24],[-64,16],[-58,41],[-54,84],[-33,19],[-4,38],[-63,-7],[-58,-54],[-53,-29]],[[6777,370],[-22,7],[-37,-11],[-12,35],[-47,-9],[-9,-34],[-22,-16],[-46,-16],[-26,6],[-40,26],[3,39],[37,-15],[47,94],[46,-4],[-3,34],[-30,7],[-74,40],[-30,7],[-43,37]],[[3455,15082],[100,-57],[30,-22]]],"transform":{"scale":[0.0001029317048215883,0.00009022368079022619],"translate":[-75.789023,38.451132]},"objects":{"Tract_10_2025":{"type":"GeometryCollection","geometries":[{"arcs":[[0,1,2,3]],"type":"Polygon","properties":{"id":"14000US10003013903"}},{"arcs":[[4,5,6]],"type":"Polygon","properties":{"id":"14000US10003014908"}},{"arcs":[[7,8,9,10,11]],"type":"Polygon","properties":{"id":"14000US10003014100"}},{"arcs":[[12,13,14,-7,15,16,17]],"type":"Polygon","properties":{"id":"14000US10003014904"}},{"arcs":[[18,19,20,-8,21,22]],"type":"Polygon","properties":{"id":"14000US10003014200"}},{"arcs":[[23,24,25]],"type":"Polygon","properties":{"id":"14000US10003014403"}},{"arcs":[[26,-23,27,28,29]],"type":"Polygon","properties":{"id":"14000US10003014501"}},{"arcs":[[30,31,32,33,34,35]],"type":"Polygon","properties":{"id":"14000US10003014702"}},{"arcs":[[-12,36,37]],"type":"Polygon","properties":{"id":"14000US10003014703"}},{"arcs":[[38,-34,39,40,41,42,43,44]],"type":"Polygon","properties":{"id":"14000US10003014808"}},{"arcs":[[45,46,47,48,49]],"type":"Polygon","properties":{"id":"14000US10003000500"}},{"arcs":[[50,51,52,53]],"type":"Polygon","properties":{"id":"14000US10003000601"}},{"arcs":[[-54,54,55,-48]],"type":"Polygon","properties":{"id":"14000US10003000602"}},{"arcs":[[56,57,58,-5,-15]],"type":"Polygon","properties":{"id":"14000US10003014909"}},{"arcs":[[59,60,61,62,63]],"type":"Polygon","properties":{"id":"14000US10003012200"}},{"arcs":[[64,65,66]],"type":"Polygon","properties":{"id":"14000US10005051102"}},{"arcs":[[67,68,69,70]],"type":"Polygon","properties":{"id":"14000US10003002200"}},{"arcs":[[71,72,73,74,75]],"type":"Polygon","properties":{"id":"14000US10003013612"}},{"arcs":[[76,77,78,79,80,81]],"type":"Polygon","properties":{"id":"14000US10003011000"}},{"arcs":[[82,83,84,85,86]],"type":"Polygon","properties":{"id":"14000US10003016901"}},{"arcs":[[-33,87,88,-4,-40]],"type":"Polygon","properties":{"id":"14000US10003014706"}},{"arcs":[[89,90,91,92]],"type":"Polygon","properties":{"id":"14000US10003011800"}},{"arcs":[[93,-51,-47,94,95]],"type":"Polygon","properties":{"id":"14000US10003000200"}},{"arcs":[[-93,96,97,98,99,100,101,102,103]],"type":"Polygon","properties":{"id":"14000US10003013501"}},{"arcs":[[104,105,106,107,108,109,110,111]],"type":"Polygon","properties":{"id":"14000US10003013604"}},{"arcs":[[-56,112,113,114]],"type":"Polygon","properties":{"id":"14000US10003000900"}},{"arcs":[[115,116,117,118,119]],"type":"Polygon","properties":{"id":"14000US10001042801"}},{"arcs":[[120,121,122,123,124,125,126,127]],"type":"Polygon","properties":{"id":"14000US10005050103"}},{"arcs":[[128,129,130,131,132]],"type":"Polygon","properties":{"id":"14000US10003015502"}},{"arcs":[[133,134,135,-131,136,137,138]],"type":"Polygon","properties":{"id":"14000US10003001902"}},{"arcs":[[139,140,141,142,143]],"type":"Polygon","properties":{"id":"14000US10005051701"}},{"arcs":[[-142,144,145,146]],"type":"Polygon","properties":{"id":"14000US10005051802"}},{"arcs":[[147,148,-143,-147,149,150]],"type":"Polygon","properties":{"id":"14000US10005051801"}},{"arcs":[[151,152,153,154,155]],"type":"Polygon","properties":{"id":"14000US10003010300"}},{"arcs":[[156,157,158,159,160]],"type":"Polygon","properties":{"id":"14000US10003011206"}},{"arcs":[[-159,161,162,163]],"type":"Polygon","properties":{"id":"14000US10003011300"}},{"arcs":[[164,-112,165,166,167]],"type":"Polygon","properties":{"id":"14000US10003013611"}},{"arcs":[[168,169,-114,170,171,-134]],"type":"Polygon","properties":{"id":"14000US10003002900"}},{"arcs":[[172,173,174,175,176]],"type":"Polygon","properties":{"id":"14000US10005051010"}},{"arcs":[[177,178,179,180]],"type":"Polygon","properties":{"id":"14000US10005050505"}},{"arcs":[[181,182,183,-181,184,185,186]],"type":"Polygon","properties":{"id":"14000US10005050501"}},{"arcs":[[187,188,189,190,191,192,193]],"type":"Polygon","properties":{"id":"14000US10005051302"}},{"arcs":[[194,195,196,-149,197]],"type":"Polygon","properties":{"id":"14000US10005050403"}},{"arcs":[[-185,-180,198,199,200,201,202,203,204,-140,205]],"type":"Polygon","properties":{"id":"14000US10005050601"}},{"arcs":[[206,207,-18,208,209]],"type":"Polygon","properties":{"id":"14000US10003014906"}},{"arcs":[[-43,210,211,212,213,214]],"type":"Polygon","properties":{"id":"14000US10003014810"}},{"arcs":[[215,216,217,218]],"type":"Polygon","properties":{"id":"14000US10001040900"}},{"arcs":[[219,-121,220,221,222]],"type":"Polygon","properties":{"id":"14000US10001042500"}},{"arcs":[[-118,223,224,225]],"type":"Polygon","properties":{"id":"14000US10001043000"}},{"arcs":[[226,227,228,229,230,231,232,233]],"type":"Polygon","properties":{"id":"14000US10001040203"}},{"arcs":[[234,235,236,237,238,239]],"type":"Polygon","properties":{"id":"14000US10001041702"}},{"arcs":[[240,-133,241,242]],"type":"Polygon","properties":{"id":"14000US10003015802"}},{"arcs":[[243,244,245,246,-201,247]],"type":"Polygon","properties":{"id":"14000US10005050703"}},{"arcs":[[248,249,250,251,252,253]],"type":"Polygon","properties":{"id":"14000US10005051204"}},{"arcs":[[254,255,-250,256,257]],"type":"Polygon","properties":{"id":"14000US10005051202"}},{"arcs":[[258,259,260,261]],"type":"Polygon","properties":{"id":"14000US10003016806"}},{"arcs":[[-261,262,-83,263]],"type":"Polygon","properties":{"id":"14000US10003016805"}},{"arcs":[[-16,-6,-59,264,265,266]],"type":"Polygon","properties":{"id":"14000US10003016306"}},{"arcs":[[-265,-58,267,268,269,270,271]],"type":"Polygon","properties":{"id":"14000US10003016309"}},{"arcs":[[272,273,274]],"type":"Polygon","properties":{"id":"14000US10003016613"}},{"arcs":[[275,276,277,278,279]],"type":"Polygon","properties":{"id":"14000US10003016807"}},{"arcs":[[280,-44,281,282]],"type":"Polygon","properties":{"id":"14000US10003014814"}},{"arcs":[[-274,283,284,-280,285,286]],"type":"Polygon","properties":{"id":"14000US10003016614"}},{"arcs":[[-69,287,288,289,290]],"type":"Polygon","properties":{"id":"14000US10003002100"}},{"arcs":[[291,292,293]],"type":"Polygon","properties":{"id":"14000US10001040700"}},{"arcs":[[294,295,296,-236,297]],"type":"Polygon","properties":{"id":"14000US10001041600"}},{"arcs":[[298,299,300,301,302,303]],"type":"Polygon","properties":{"id":"14000US10001041802"}},{"arcs":[[304,305,-304,306,307]],"type":"Polygon","properties":{"id":"14000US10001041900"}},{"arcs":[[-302,308,309,310,311,312]],"type":"Polygon","properties":{"id":"14000US10001042100"}},{"arcs":[[-119,-226,313,314,315]],"type":"Polygon","properties":{"id":"14000US10001043100"}},{"arcs":[[316,-81,317,318,319,320,321]],"type":"Polygon","properties":{"id":"14000US10003010502"}},{"arcs":[[322,323,-75,324,325]],"type":"Polygon","properties":{"id":"14000US10003013505"}},{"arcs":[[-326,-168,326,327,328]],"type":"Polygon","properties":{"id":"14000US10003013506"}},{"arcs":[[-271,329,330,-242,-132,-136,331,332,-320,333,334,335,336,337,338,339,340,341,-277,342,343,344],[345]],"type":"Polygon","properties":{"id":"14000US10003990100"}},{"arcs":[[-108,346,347,348,349,350,351]],"type":"Polygon","properties":{"id":"14000US10003013614"}},{"arcs":[[352,-109,-352,353,354]],"type":"Polygon","properties":{"id":"14000US10003013615"}},{"arcs":[[[-346]],[[355,-344,356,357]]],"type":"MultiPolygon","properties":{"id":"14000US10003016404"}},{"arcs":[[[358,-338]],[[359,-357,-343,-276,-285,360]]],"type":"MultiPolygon","properties":{"id":"14000US10003016608"}},{"arcs":[[-42,361,362,363,-211]],"type":"Polygon","properties":{"id":"14000US10003014809"}},{"arcs":[[-257,-249,364]],"type":"Polygon","properties":{"id":"14000US10005051203"}},{"arcs":[[-3,-210,365,-362,-41]],"type":"Polygon","properties":{"id":"14000US10003014903"}},{"arcs":[[366,-13,-208,367]],"type":"Polygon","properties":{"id":"14000US10003014907"}},{"arcs":[[368,369,370,371]],"type":"Polygon","properties":{"id":"14000US10003011203"}},{"arcs":[[372,373,-255,374,375,376]],"type":"Polygon","properties":{"id":"14000US10005051201"}},{"arcs":[[377,378,-251,-256,-374,379,380,381,382,-124]],"type":"Polygon","properties":{"id":"14000US10005990000"}},{"arcs":[[-100,383,384,385]],"type":"Polygon","properties":{"id":"14000US10003013400"}},{"arcs":[[386,387,388,389,390,391]],"type":"Polygon","properties":{"id":"14000US10003012900"}},{"arcs":[[-364,392,393,-358,394,395,-212]],"type":"Polygon","properties":{"id":"14000US10003016401"}},{"arcs":[[-53,396,397,-171,-113,-55]],"type":"Polygon","properties":{"id":"14000US10003003002"}},{"arcs":[[-384,-99,398,399,400]],"type":"Polygon","properties":{"id":"14000US10003013200"}},{"arcs":[[401,402,-349,403]],"type":"Polygon","properties":{"id":"14000US10003013000"}},{"arcs":[[-172,-398,404,-332,-135]],"type":"Polygon","properties":{"id":"14000US10003980100"}},{"arcs":[[405,406,407]],"type":"Polygon","properties":{"id":"14000US10003001200"}},{"arcs":[[-155,408,-318,-80,409]],"type":"Polygon","properties":{"id":"14000US10003010400"}},{"arcs":[[-77,410,411]],"type":"Polygon","properties":{"id":"14000US10003010900"}},{"arcs":[[412,-156,-410,-79,-163]],"type":"Polygon","properties":{"id":"14000US10003011100"}},{"arcs":[[-351,413,414,415,416,417,418,419,-354]],"type":"Polygon","properties":{"id":"14000US10003013800"}},{"arcs":[[420,-390,421,-268,-57,-14,-367,-415]],"type":"Polygon","properties":{"id":"14000US10003015000"}},{"arcs":[[-10,422,-418,423,424]],"type":"Polygon","properties":{"id":"14000US10003013901"}},{"arcs":[[425,426,427,428,-66,429,-380,-373,430]],"type":"Polygon","properties":{"id":"14000US10005051103"}},{"arcs":[[431,432,433]],"type":"Polygon","properties":{"id":"14000US10005050405"}},{"arcs":[[434,-127,435,436]],"type":"Polygon","properties":{"id":"14000US10005050105"}},{"arcs":[[437,438,-195,439,-433]],"type":"Polygon","properties":{"id":"14000US10005050406"}},{"arcs":[[-110,-353,440]],"type":"Polygon","properties":{"id":"14000US10003013608"}},{"arcs":[[-229,441,442,443]],"type":"Polygon","properties":{"id":"14000US10001040502"}},{"arcs":[[-341,444,-122,-220,445,446,447,448,449,-442,-228,450]],"type":"Polygon","properties":{"id":"14000US10001043202"}},{"arcs":[[-230,-444,451,-216,452,453,454]],"type":"Polygon","properties":{"id":"14000US10001040501"}},{"arcs":[[455,-378,-123,-445,-340]],"type":"Polygon","properties":{"id":"14000US10001990000"}},{"arcs":[[456,457,-446,-223,458,459,460]],"type":"Polygon","properties":{"id":"14000US10001043400"}},{"arcs":[[-453,-219,461,-292,462]],"type":"Polygon","properties":{"id":"14000US10001043300"}},{"arcs":[[463,-411,-82,-317,464,465,-96,466,467]],"type":"Polygon","properties":{"id":"14000US10003010800"}},{"arcs":[[-282,-215,468,469]],"type":"Polygon","properties":{"id":"14000US10003014812"}},{"arcs":[[-424,-417,470,-1,-89]],"type":"Polygon","properties":{"id":"14000US10003013906"}},{"arcs":[[-471,-416,-368,-207,-2]],"type":"Polygon","properties":{"id":"14000US10003013905"}},{"arcs":[[471,472,473,-153,474,475]],"type":"Polygon","properties":{"id":"14000US10003010105"}},{"arcs":[[-465,-322,476]],"type":"Polygon","properties":{"id":"14000US10003010703"}},{"arcs":[[-328,477,478,479]],"type":"Polygon","properties":{"id":"14000US10003014301"}},{"arcs":[[480,-472,-370]],"type":"Polygon","properties":{"id":"14000US10003010106"}},{"arcs":[[481,-233,482,483]],"type":"Polygon","properties":{"id":"14000US10001040204"}},{"arcs":[[484,-484,485,-231,-455,486,487]],"type":"Polygon","properties":{"id":"14000US10001040206"}},{"arcs":[[-238,488,489,490,491,492]],"type":"Polygon","properties":{"id":"14000US10001042203"}},{"arcs":[[-239,-493,493,494,495]],"type":"Polygon","properties":{"id":"14000US10001042204"}},{"arcs":[[-240,-496,496,-310]],"type":"Polygon","properties":{"id":"14000US10001042205"}},{"arcs":[[-312,497,-461,498,-224,-117,499]],"type":"Polygon","properties":{"id":"14000US10001042802"}},{"arcs":[[-494,-492,500,-448,501,502]],"type":"Polygon","properties":{"id":"14000US10001042207"}},{"arcs":[[-487,-454,-463,503,504]],"type":"Polygon","properties":{"id":"14000US10001041803"}},{"arcs":[[-232,-486,-483]],"type":"Polygon","properties":{"id":"14000US10001040205"}},{"arcs":[[-497,-495,-503,505,-457,-498,-311]],"type":"Polygon","properties":{"id":"14000US10001042206"}},{"arcs":[[506,-504,-294,507,-299,-306]],"type":"Polygon","properties":{"id":"14000US10001041804"}},{"arcs":[[-502,-447,-458,-506]],"type":"Polygon","properties":{"id":"14000US10001042208"}},{"arcs":[[508,509,-490]],"type":"Polygon","properties":{"id":"14000US10001041101"}},{"arcs":[[-389,510,-138,511,512,513,514,-422]],"type":"Polygon","properties":{"id":"14000US10003015200"}},{"arcs":[[-449,-501,-491,-510,515,516]],"type":"Polygon","properties":{"id":"14000US10001980000"}},{"arcs":[[-17,-267,517,-394,518]],"type":"Polygon","properties":{"id":"14000US10003016307"}},{"arcs":[[519,-213,-396,520,521,522,523]],"type":"Polygon","properties":{"id":"14000US10003016609"}},{"arcs":[[-395,-360,524,-521]],"type":"Polygon","properties":{"id":"14000US10003016611"}},{"arcs":[[[525,-336]],[[-518,-266,-272,-345,-356]]],"type":"MultiPolygon","properties":{"id":"14000US10003016308"}},{"arcs":[[526,-45,-281,527]],"type":"Polygon","properties":{"id":"14000US10003014813"}},{"arcs":[[-102,528,-72,529]],"type":"Polygon","properties":{"id":"14000US10003013507"}},{"arcs":[[-103,-530,-76,-324,530]],"type":"Polygon","properties":{"id":"14000US10003013508"}},{"arcs":[[-479,531,-30,532,-24,533,534]],"type":"Polygon","properties":{"id":"14000US10003014302"}},{"arcs":[[-94,-466,-477,-321,-333,-405,-397,-52]],"type":"Polygon","properties":{"id":"14000US10003010704"}},{"arcs":[[535,536,-173,537,538]],"type":"Polygon","properties":{"id":"14000US10005051011"}},{"arcs":[[-204,539,-246,540,541,542,543]],"type":"Polygon","properties":{"id":"14000US10005051502"}},{"arcs":[[544,545]],"type":"Polygon","properties":{"id":"14000US10005050903"}},{"arcs":[[546,547,548,-199,-179,549]],"type":"Polygon","properties":{"id":"14000US10005050506"}},{"arcs":[[550,551,552]],"type":"Polygon","properties":{"id":"14000US10005050807"}},{"arcs":[[553,554,555,556,557,-547]],"type":"Polygon","properties":{"id":"14000US10005050805"}},{"arcs":[[558,-538,-177,559,560,561]],"type":"Polygon","properties":{"id":"14000US10005051013"}},{"arcs":[[562,563,564,-174,-537,565]],"type":"Polygon","properties":{"id":"14000US10005051008"}},{"arcs":[[566,-400,567,-404,-348]],"type":"Polygon","properties":{"id":"14000US10003013100"}},{"arcs":[[568,-381,-430,-65,569]],"type":"Polygon","properties":{"id":"14000US10005051101"}},{"arcs":[[-327,-167,570,-19,-27,-532,-478]],"type":"Polygon","properties":{"id":"14000US10003013610"}},{"arcs":[[571,572,573,-60,574,575,-97,-92]],"type":"Polygon","properties":{"id":"14000US10003011900"}},{"arcs":[[-529,-101,-386,576,-106,577,-73]],"type":"Polygon","properties":{"id":"14000US10003013613"}},{"arcs":[[-37,-11,-425,-88,-32]],"type":"Polygon","properties":{"id":"14000US10003014705"}},{"arcs":[[-166,-111,-441,-355,-420,578,-20,-571]],"type":"Polygon","properties":{"id":"14000US10003013700"}},{"arcs":[[-28,-22,-38,-31,579]],"type":"Polygon","properties":{"id":"14000US10003014502"}},{"arcs":[[580,-63,581,582,583,584,585]],"type":"Polygon","properties":{"id":"14000US10003012400"}},{"arcs":[[-534,-26,586,587,588]],"type":"Polygon","properties":{"id":"14000US10003014404"}},{"arcs":[[-576,589,-586,590,591,-402,-568,-399,-98]],"type":"Polygon","properties":{"id":"14000US10003012000"}},{"arcs":[[-350,-403,-592,592,-391,-421,-414]],"type":"Polygon","properties":{"id":"14000US10003012700"}},{"arcs":[[593,594,595,596,-583]],"type":"Polygon","properties":{"id":"14000US10003002500"}},{"arcs":[[597,-459,-222,598,-437,599,600]],"type":"Polygon","properties":{"id":"14000US10005050101"}},{"arcs":[[601,-161,602,603]],"type":"Polygon","properties":{"id":"14000US10003011201"}},{"arcs":[[604,-372,605,-157,-602,606]],"type":"Polygon","properties":{"id":"14000US10003011202"}},{"arcs":[[-606,607,-158]],"type":"Polygon","properties":{"id":"14000US10003011205"}},{"arcs":[[-126,608,609,-556,610]],"type":"Polygon","properties":{"id":"14000US10005050801"}},{"arcs":[[611,-434,-440,-198,-148,612]],"type":"Polygon","properties":{"id":"14000US10005050401"}},{"arcs":[[613,-562,614,615,616,-248,-200,-549]],"type":"Polygon","properties":{"id":"14000US10005050701"}},{"arcs":[[-145,-141,-205,-544,617,618,619]],"type":"Polygon","properties":{"id":"14000US10005051702"}},{"arcs":[[-150,-146,-620,620]],"type":"Polygon","properties":{"id":"14000US10005051900"}},{"arcs":[[-600,-436,-611,-555,621,-183,622]],"type":"Polygon","properties":{"id":"14000US10005050200"}},{"arcs":[[-543,623,-194,624,625,-618]],"type":"Polygon","properties":{"id":"14000US10005051400"}},{"arcs":[[626,627,-601,-623,-182,628,629]],"type":"Polygon","properties":{"id":"14000US10005050302"}},{"arcs":[[-541,-245,630,631,-377,632,633,-189,634]],"type":"Polygon","properties":{"id":"14000US10005051308"}},{"arcs":[[635,636,637,638,639,640,-406]],"type":"Polygon","properties":{"id":"14000US10003001100"}},{"arcs":[[641,642,-636,-408,643,644,-573]],"type":"Polygon","properties":{"id":"14000US10003001300"}},{"arcs":[[-640,645,-68,646]],"type":"Polygon","properties":{"id":"14000US10003001500"}},{"arcs":[[-587,-25,-533,-29,-580,-36,647]],"type":"Polygon","properties":{"id":"14000US10003014402"}},{"arcs":[[648,-607,-604,649,650,-468,651,-642,-572,-91]],"type":"Polygon","properties":{"id":"14000US10003011700"}},{"arcs":[[-588,-648,-35,-39,-527,652]],"type":"Polygon","properties":{"id":"14000US10003014803"}},{"arcs":[[-575,-64,-581,-590]],"type":"Polygon","properties":{"id":"14000US10003012100"}},{"arcs":[[-577,-385,-401,-567,-347,-107]],"type":"Polygon","properties":{"id":"14000US10003013300"}},{"arcs":[[-639,653,-288,-646]],"type":"Polygon","properties":{"id":"14000US10003001600"}},{"arcs":[[654,-71,-595,655]],"type":"Polygon","properties":{"id":"14000US10003002300"}},{"arcs":[[-645,656,-656,-594,657,-61,-574]],"type":"Polygon","properties":{"id":"14000US10003002400"}},{"arcs":[[658,-50,659,-637,-643,-652]],"type":"Polygon","properties":{"id":"14000US10003000400"}},{"arcs":[[-596,-70,-291,660,661]],"type":"Polygon","properties":{"id":"14000US10003002600"}},{"arcs":[[-290,662,-169,-139,-511,-388,-661]],"type":"Polygon","properties":{"id":"14000US10003002700"}},{"arcs":[[-475,-152,663]],"type":"Polygon","properties":{"id":"14000US10003010200"}},{"arcs":[[-585,664,-392,-593,-591]],"type":"Polygon","properties":{"id":"14000US10003012600"}},{"arcs":[[-186,-206,-144,-197,665]],"type":"Polygon","properties":{"id":"14000US10005050408"}},{"arcs":[[-644,-407,-641,-647,-655,-657]],"type":"Polygon","properties":{"id":"14000US10003001400"}},{"arcs":[[-382,-569,666,667]],"type":"Polygon","properties":{"id":"14000US10005980000"}},{"arcs":[[668,669,670,671,672]],"type":"Polygon","properties":{"id":"14000US10005051309"}},{"arcs":[[-193,673,-672,674,675,-625]],"type":"Polygon","properties":{"id":"14000US10005051312"}},{"arcs":[[-671,676,677,-675]],"type":"Polygon","properties":{"id":"14000US10005051311"}},{"arcs":[[-635,-188,-624,-542]],"type":"Polygon","properties":{"id":"14000US10005051501"}},{"arcs":[[-617,678,679,-631,-244]],"type":"Polygon","properties":{"id":"14000US10005050708"}},{"arcs":[[-376,680,-633]],"type":"Polygon","properties":{"id":"14000US10005051307"}},{"arcs":[[-125,-383,-668,681,682,-546,683,684,-551,685,-609]],"type":"Polygon","properties":{"id":"14000US10005050905"}},{"arcs":[[-545,-683,686,-566,-536,-684]],"type":"Polygon","properties":{"id":"14000US10005050904"}},{"arcs":[[687,688,689,-679,-616]],"type":"Polygon","properties":{"id":"14000US10005050707"}},{"arcs":[[-686,-553,690,691,-557,-610]],"type":"Polygon","properties":{"id":"14000US10005050806"}},{"arcs":[[-564,692,693,-428,694,695]],"type":"Polygon","properties":{"id":"14000US10005051017"}},{"arcs":[[-682,-667,-570,-67,696,-693,-563,-687]],"type":"Polygon","properties":{"id":"14000US10005051009"}},{"arcs":[[697,-695,-427,698,699,700,701]],"type":"Polygon","properties":{"id":"14000US10005051014"}},{"arcs":[[-697,-429,-694]],"type":"Polygon","properties":{"id":"14000US10005051016"}},{"arcs":[[702,-247,-540,-203]],"type":"Polygon","properties":{"id":"14000US10005050604"}},{"arcs":[[-703,-202]],"type":"Polygon","properties":{"id":"14000US10005050603"}},{"arcs":[[-558,-692,703,-539,-559,-614,-548]],"type":"Polygon","properties":{"id":"14000US10005050804"}},{"arcs":[[-565,-696,-698,704,-175]],"type":"Polygon","properties":{"id":"14000US10005051015"}},{"arcs":[[-685,-704,-691,-552]],"type":"Polygon","properties":{"id":"14000US10005050808"}},{"arcs":[[-176,-705,-702,705,-560]],"type":"Polygon","properties":{"id":"14000US10005051012"}},{"arcs":[[-706,-701,706,-688,-615,-561]],"type":"Polygon","properties":{"id":"14000US10005050709"}},{"arcs":[[707,-431,-632,-680,-690,708]],"type":"Polygon","properties":{"id":"14000US10005050706"}},{"arcs":[[709,-629,-187,-666,-196,-439]],"type":"Polygon","properties":{"id":"14000US10005050407"}},{"arcs":[[-221,-128,-435,-599]],"type":"Polygon","properties":{"id":"14000US10005050104"}},{"arcs":[[-554,-550,-178,-184,-622]],"type":"Polygon","properties":{"id":"14000US10005050503"}},{"arcs":[[-670,710,-253,711,-677]],"type":"Polygon","properties":{"id":"14000US10005051205"}},{"arcs":[[712,713,-464,-651]],"type":"Polygon","properties":{"id":"14000US10003011600"}},{"arcs":[[-419,-423,-9,-21,-579]],"type":"Polygon","properties":{"id":"14000US10003014000"}},{"arcs":[[-515,714,715,716,-269]],"type":"Polygon","properties":{"id":"14000US10003015100"}},{"arcs":[[-137,-130,717,-512]],"type":"Polygon","properties":{"id":"14000US10003015400"}},{"arcs":[[-513,-718,-129,718,719]],"type":"Polygon","properties":{"id":"14000US10003015600"}},{"arcs":[[-719,-241,720,721]],"type":"Polygon","properties":{"id":"14000US10003015900"}},{"arcs":[[-514,-720,-722,722,-715]],"type":"Polygon","properties":{"id":"14000US10003016000"}},{"arcs":[[-723,-721,-243,-331,723,-716]],"type":"Polygon","properties":{"id":"14000US10003016100"}},{"arcs":[[-717,-724,-330,-270]],"type":"Polygon","properties":{"id":"14000US10003016200"}},{"arcs":[[-608,-371,-476,-664,-413,-162]],"type":"Polygon","properties":{"id":"14000US10003011204"}},{"arcs":[[-522,-525,-361,-284,-273,724]],"type":"Polygon","properties":{"id":"14000US10003016612"}},{"arcs":[[-286,-279,725,-263,-260]],"type":"Polygon","properties":{"id":"14000US10003016808"}},{"arcs":[[-523,-725,-275,-287,-259,726]],"type":"Polygon","properties":{"id":"14000US10003016610"}},{"arcs":[[-214,-520,727,-469]],"type":"Polygon","properties":{"id":"14000US10003014811"}},{"arcs":[[-95,-46,-659,-467]],"type":"Polygon","properties":{"id":"14000US10003000300"}},{"arcs":[[-366,-209,-519,-393,-363]],"type":"Polygon","properties":{"id":"14000US10003016301"}},{"arcs":[[-314,-225,-499,-460,-598,-628]],"type":"Polygon","properties":{"id":"14000US10001042900"}},{"arcs":[[-301,728,729,-298,-235,-309]],"type":"Polygon","properties":{"id":"14000US10001041701"}},{"arcs":[[-325,-74,-578,-105,-165]],"type":"Polygon","properties":{"id":"14000US10003013607"}},{"arcs":[[-160,-164,-78,-412,-714,730]],"type":"Polygon","properties":{"id":"14000US10003011400"}},{"arcs":[[-584,-597,-662,-387,-665]],"type":"Polygon","properties":{"id":"14000US10003012500"}},{"arcs":[[-658,-582,-62]],"type":"Polygon","properties":{"id":"14000US10003012300"}},{"arcs":[[731,-488,-505,-507,-305,732,-86]],"type":"Polygon","properties":{"id":"14000US10001040100"}},{"arcs":[[-85,-234,-482,-485,-732]],"type":"Polygon","properties":{"id":"14000US10001040201"}},{"arcs":[[733,-295,-730,734]],"type":"Polygon","properties":{"id":"14000US10001041500"}},{"arcs":[[-303,-313,-500,-116,735,-307]],"type":"Polygon","properties":{"id":"14000US10001042000"}},{"arcs":[[736,737,-516,-509,-489,-237,-297]],"type":"Polygon","properties":{"id":"14000US10001041200"}},{"arcs":[[-443,-450,-517,-738,738,-217,-452]],"type":"Polygon","properties":{"id":"14000US10001041000"}},{"arcs":[[-739,-737,-296,-734,739,-218]],"type":"Polygon","properties":{"id":"14000US10001041300"}},{"arcs":[[-508,-293,-462,-740,-735,-729,-300]],"type":"Polygon","properties":{"id":"14000US10001041400"}},{"arcs":[[740,-630,-710,-438,-432,-612,741]],"type":"Polygon","properties":{"id":"14000US10005050304"}},{"arcs":[[-707,-700,742,-709,-689]],"type":"Polygon","properties":{"id":"14000US10005050710"}},{"arcs":[[-627,-741,743,-315]],"type":"Polygon","properties":{"id":"14000US10005050303"}},{"arcs":[[-699,-426,-708,-743]],"type":"Polygon","properties":{"id":"14000US10005050711"}},{"arcs":[[-634,-681,-375,-258,-365,744,-190]],"type":"Polygon","properties":{"id":"14000US10005051313"}},{"arcs":[[-745,-254,-711,-669,745,-191]],"type":"Polygon","properties":{"id":"14000US10005051314"}},{"arcs":[[-192,-746,-673,-674]],"type":"Polygon","properties":{"id":"14000US10005051310"}},{"arcs":[[-654,-638,-660,-49,-115,-170,-663,-289]],"type":"Polygon","properties":{"id":"14000US10003002800"}},{"arcs":[[-409,-154,-474,746,-334,-319]],"type":"Polygon","properties":{"id":"14000US10003010104"}},{"arcs":[[-278,-342,-451,-227,-84,-726]],"type":"Polygon","properties":{"id":"14000US10003016904"}},{"arcs":[[-603,-731,-713,-650]],"type":"Polygon","properties":{"id":"14000US10003011500"}}]}}}