{"type":"Topology","arcs":[[[8348,14373],[87,207],[113,143],[143,116],[304,29],[217,-86],[93,-78],[96,-164],[18,-210],[-26,-119],[-27,-45],[-96,-137],[-58,-35],[-258,-168],[-307,-36],[-237,164],[-53,212],[-9,207]],[[6680,23865],[32,60],[38,51],[44,54],[51,56],[19,13],[28,30],[49,43],[108,38],[46,7],[35,22],[111,30],[44,6],[41,-12],[27,-18],[62,-22],[42,-18],[34,2],[91,-16],[25,-8],[29,-38],[28,-59],[81,-21],[38,-39],[41,-62],[24,-58],[41,-70],[-74,-51],[8,-86],[-3,-126],[-7,-49],[-18,-61],[-34,-64],[-44,-65],[-59,-72],[-57,-32],[-24,-46],[-10,-48],[-57,-30],[-28,-19],[-91,-42],[-65,-22],[-67,-17],[-137,24],[-93,61],[-61,29],[-35,32],[-48,32],[-15,36],[-36,34],[-31,40],[-54,57],[-24,62],[-34,64],[-18,110],[-7,136],[16,37],[-24,47],[22,58]],[[6555,25705],[24,66],[74,119],[76,144],[98,170],[104,112],[196,49],[202,-2],[128,-37],[133,-37],[118,-92],[48,-94],[39,-213],[9,-187],[-43,-230],[-62,-139],[-90,-104],[-152,-94],[-52,-20],[-138,-14],[-110,-21],[-102,11],[-117,44],[-172,111],[-125,116],[-62,88],[-9,25],[-2,29],[-12,37],[2,83],[-3,80]],[[6236,19390],[7,84],[43,103],[83,63],[14,38],[60,42],[136,66],[138,63],[159,31],[217,-72],[143,-117],[101,-105],[2,-9],[68,-60],[4,-120],[-6,-249],[-43,-127],[-46,-93],[-91,-88],[-141,-78],[-135,-34],[-151,-14],[-128,13],[-91,51],[-83,12],[-115,79],[-71,99],[-52,163],[-30,164],[8,95]],[[5832,29013],[36,112],[18,63],[24,63],[-2,49],[28,83],[13,72],[57,130],[51,53],[68,66],[-5,126],[15,58],[31,71],[29,42],[33,35],[42,33],[72,61],[45,35],[68,48],[51,43],[139,79],[53,7],[69,-1],[78,7],[43,1],[84,-25],[85,0],[47,-10],[107,-32],[112,-76],[26,-53],[35,-48],[73,-107],[37,-58],[26,-66],[22,-63],[24,-97],[-20,-52],[0,-69],[-18,-45],[0,-51],[-12,-113],[-38,-101],[-21,-63],[-76,-130],[-68,-79],[-73,-87],[-31,-10],[-51,-23],[-85,-45],[-78,-38],[-54,-49],[-124,-94],[-43,-45],[-56,-25],[-181,-101],[-158,0],[-184,28],[-123,73],[-58,44],[-39,23],[-18,31],[-28,38],[-9,42],[-25,38],[-20,63],[-30,51],[1,51],[-14,37]],[[5266,34214],[7,98],[79,202],[160,263],[68,65],[121,66],[103,24],[49,9],[109,10],[97,-3],[198,-40],[40,-19],[111,-90],[171,-237],[104,-227],[29,-126],[12,-125],[-6,-78],[-39,-132],[-22,-33],[-78,-122],[-94,-161],[-54,-42],[-202,-128],[-110,-47],[-13,-2],[-74,12],[-77,0],[-48,9],[-118,53],[-88,35],[-115,70],[-115,145],[-108,196],[-44,147],[-6,11],[-47,197]],[[5236,16865],[88,201],[184,155],[193,137],[208,62],[148,9],[316,-29],[206,-77],[103,-110],[43,-73],[65,-207],[9,-62],[10,-109],[-7,-29],[-65,-158],[-35,-72],[-123,-115],[-120,-106],[-62,-37],[-115,-61],[-38,-23],[-64,-18],[-110,-4],[-194,2],[-175,49],[-149,63],[-202,119],[-105,256],[-9,237]],[[3463,40849],[67,113],[95,106],[82,86],[79,67],[51,46],[53,22],[125,34],[84,4],[93,-11],[99,-22],[77,-32],[89,-78],[73,-57],[101,-74],[43,-80],[77,-87],[24,-58],[17,-113],[-36,-66],[-15,-99],[-44,-64],[-43,-73],[-59,-79],[-88,-160],[-193,-100],[-194,-19],[-175,46],[-41,14],[-90,42],[-94,37],[-89,53],[-18,72],[-17,19],[-28,55],[-59,133],[-18,111],[-39,112],[11,100]],[[2237,43310],[31,119],[70,147],[103,70],[125,75],[172,38],[214,6],[115,-26],[106,-26],[144,-97],[99,-116],[65,-127],[42,-110],[-34,-119],[-42,-93],[11,-26],[-25,-52],[-67,-98],[-73,-76],[-70,-52],[-77,-44],[-79,-50],[-13,-3],[-121,1],[-132,-6],[-85,7],[-119,26],[-73,52],[-48,58],[-75,75],[-88,63],[-19,99],[-28,108],[-29,177]],[[15,47085],[39,111],[87,122],[89,73],[121,56],[82,11],[170,15],[167,-16],[130,-43],[125,-101],[83,-95],[45,-137],[13,-107],[-1,-155],[-55,-111],[-53,-76],[-76,-72],[-61,-50],[-72,-55],[-54,-39],[-102,-23],[-93,-20],[-81,-8],[-60,4],[-25,15],[-88,11],[-63,37],[-59,13],[-47,35],[-49,43],[-33,50],[-4,59],[-28,55],[-43,113],[-19,155],[15,130]],[[6398,8484],[9,-17],[23,-12],[37,14],[25,15],[43,-7],[19,12]],[[6554,8489],[-1,-36],[-25,-7],[-11,-29],[7,-24],[-4,-104]],[[6520,8289],[-3,0]],[[6517,8289],[-74,-3],[-15,2]],[[6428,8288],[4,19],[-6,26],[12,38],[22,28],[-42,6],[-51,-3]],[[6367,8402],[10,51],[21,31]],[[2163,595],[1,29],[11,30],[69,52],[67,72],[23,52],[89,92],[2,20],[26,11],[90,-9],[89,31],[19,13],[42,4],[57,27],[16,24],[80,56],[55,30],[17,13],[29,11],[21,14],[40,14],[40,1],[77,-9],[25,0],[31,-12],[32,-2],[35,-7],[17,-10],[17,-1],[57,-20],[14,-24],[-3,-17],[-33,-54],[-9,-37],[3,-47],[-8,-39],[-10,-15],[-54,-26],[-30,-28],[-20,-3],[-34,19],[-69,0],[-19,-12],[-52,-5],[-41,-36],[-13,-6],[-19,-27],[-15,-3],[-6,-43],[7,-29],[-2,-14],[-57,-29],[-20,-43],[-28,-29],[-16,-6],[-20,8],[-34,-4],[-8,-9],[-33,-13],[-23,17],[-39,-3],[-40,11],[-38,-11],[-23,-27],[-31,-4],[-29,13],[14,21],[-1,43],[-10,14],[3,25],[-24,27],[-28,18],[-12,0],[-51,37],[-54,12],[-33,-22],[-22,-29],[-35,-63],[-29,-29],[-40,-5]],[[5333,7853],[381,-106],[111,-25],[85,-56],[8,-7],[55,-99],[565,-444]],[[6538,7116],[-5,-11],[-6,-51],[4,-103],[21,-60],[-3,-10],[13,-64],[1,-74],[-120,-389],[-150,-177],[-103,-141],[-77,-65],[-88,-30],[-99,-13],[-28,-6],[-28,-56],[-54,-125],[-61,-95],[-43,-40],[-71,-92],[-174,-140],[-208,-55],[-207,-8],[-175,48],[-54,60],[-43,19],[-79,64],[-71,144],[-33,130],[3,117],[13,83],[42,98],[93,146],[75,53],[192,97],[175,96],[74,11],[-153,110],[-114,158],[-65,145],[-16,61],[2,194],[33,212],[110,223],[8,15],[264,258]],[[5084,5837],[15,-28],[21,-7],[34,0],[60,24],[46,-2],[27,13],[72,57],[12,21],[7,27],[-13,34],[-29,12],[-25,-16],[-18,1],[-13,-18],[-45,-12],[-59,-29],[-23,-3],[-47,-23],[-10,-18],[-12,-33]],[[5616,6819],[-11,-59],[6,-29],[27,-47],[36,-31],[54,-30],[10,2]],[[5738,6625],[10,-23],[-23,-60],[9,-31],[-3,-36],[20,-65],[15,-13],[34,-4],[29,15],[21,25],[9,21],[35,53],[-7,20],[18,29],[17,7],[16,16],[41,-4],[-3,23],[-19,63],[5,23],[-4,16],[29,45],[-16,39],[20,18],[12,24],[12,46],[1,26],[27,100],[-17,17],[-2,19],[-19,33],[-28,18],[-32,-4],[-18,6],[-24,34],[-24,58]],[[5879,7179],[-11,14],[-9,40],[-3,38],[32,40],[28,23],[18,25],[5,21],[-15,14],[-11,33],[-1,32],[14,65],[0,33],[-18,43],[-40,54],[-26,27],[-14,-6],[-49,-51],[-22,-27],[-3,-14],[-39,-23],[-30,-38],[-33,-20],[-14,-27],[-31,-31],[-71,-84],[-36,-25],[17,-28],[-8,-16],[-7,-46],[-17,-19],[-17,-10],[-24,5],[-11,-63],[-20,-38],[-13,-48],[10,-20],[19,-7],[16,-26],[-9,-13],[-5,-43],[-14,-30],[7,-23],[23,-8],[11,-19],[40,-6],[24,15],[36,4],[29,-17],[6,-34],[23,-26]],[[1725,638],[29,93],[85,153],[114,70],[-14,74],[18,105],[77,96],[80,72],[83,42],[16,12],[103,50],[98,28],[149,-1],[62,56],[69,52],[31,27],[109,59],[132,34],[93,2],[105,-5],[51,-28],[39,-58],[67,9],[129,5],[103,-17],[74,-33],[154,-35],[94,-129],[66,-186],[-14,-168],[-7,-53],[-157,-244],[17,-82],[-11,-27],[-73,-94],[-98,-67],[-95,-34],[-91,-16],[-24,-55],[-78,-96],[-75,-51],[-93,-39],[-120,-24],[-74,-20],[-70,14],[-25,11],[-157,-95],[-135,-45],[-128,47],[-59,-2],[-84,-26],[-42,1],[-43,34],[-213,22],[-135,96],[-87,131],[-6,32],[-34,116],[-11,111],[6,76]],[[6862,8577],[-24,21],[-22,27],[-85,87]],[[6731,8712],[-25,27]],[[6706,8739],[9,17],[55,20],[31,31],[6,31],[16,14],[9,23],[36,34],[15,8],[10,25],[28,13],[19,27],[16,9],[37,46],[25,3],[9,-15],[34,-6],[18,-21],[36,-63],[25,-12],[4,-24],[-8,-42],[-21,-33],[-15,-5],[-41,5],[-17,12],[-39,-26],[9,-40],[-18,-16],[-4,-27],[-8,-13],[21,-20],[-29,-34],[-25,-3],[-4,-23],[-26,-34],[-41,-9],[-16,-14]],[[6184,7850],[19,-28],[6,24],[49,16]],[[6258,7862],[42,18],[15,11]],[[6315,7891],[35,-12],[14,-33],[-6,-15],[20,-7],[16,35],[34,42],[22,0],[20,-26],[26,15],[10,-1],[26,-36],[12,-4],[21,9]],[[6565,7858],[33,-19],[12,4],[17,-19],[-6,-34],[2,-35],[-10,-23],[-15,-13],[-5,-52],[-11,-42],[-21,-10],[-9,14],[-7,41],[-20,30],[-26,15],[-43,3],[-4,-8],[-66,15],[-44,4],[-5,-10],[-33,-7],[-19,3],[-11,33],[-40,35],[-34,20],[-46,16],[28,18],[2,13]],[[6201,7940],[16,-5],[-8,-21],[49,-52]],[[6184,7850],[-10,42],[27,48]],[[6554,8489],[19,39],[-18,25]],[[6555,8553],[10,9],[10,31],[13,17],[64,52],[79,50]],[[6862,8577],[-5,-20],[-33,-30],[-26,-50],[-18,-10],[3,-17],[21,-26],[-5,-43],[-27,-26],[3,-26],[12,-32]],[[6787,8297],[-20,-19],[-24,0],[-26,-18],[-11,-17],[-24,-13]],[[6682,8230],[-15,25],[-29,24],[-19,-1],[-35,11],[-64,0]],[[6557,8657],[1,5],[45,28],[14,19],[50,10],[39,20]],[[6555,8553],[-8,28],[24,37],[-14,39]],[[6341,8522],[6,12],[27,2],[0,-17],[20,-3],[40,12],[14,11],[-8,12],[12,21],[22,18],[18,-8],[17,22],[-3,17],[38,14],[13,22]],[[6398,8484],[-57,38]],[[6682,8230],[-26,-14],[7,-29],[21,-33],[20,10],[16,-32],[-18,-16]],[[6702,8116],[-10,7],[-35,7],[-18,-11],[-52,-12],[-11,-10],[-7,-37],[-14,-14],[-11,-38],[-12,-20]],[[6532,7988],[-42,16],[-13,-5],[-29,26],[-11,19]],[[6437,8044],[-44,10],[-7,5]],[[6386,8059],[-18,22],[18,25],[14,-9],[18,27],[13,36],[17,22],[51,83],[18,24]],[[6367,8402],[0,-51],[-22,7]],[[6345,8358],[-3,76],[-7,64],[6,24]],[[6328,8283],[17,75]],[[6428,8288],[11,-63],[-28,1],[-27,6],[-1,49],[-55,2]],[[6386,8059],[-8,-6],[-22,13]],[[6356,8066],[-34,48],[-10,26],[-23,11]],[[6289,8151],[29,88],[10,44]],[[6356,8066],[-33,-39],[-10,4]],[[6313,8031],[-16,22],[-42,-8],[-33,-2]],[[6222,8043],[9,8],[-2,31],[52,52],[8,17]],[[6313,8031],[-16,-26],[13,-6],[-29,-42],[-7,-20]],[[6274,7937],[-42,38],[-11,20]],[[6221,7995],[9,25],[-8,23]],[[6787,8297],[14,-24],[20,-6],[3,-40],[14,-26],[44,-27],[29,-23],[-35,-20],[-9,-53],[-19,-13],[6,-29],[-49,10],[-10,-10],[-42,7],[-36,32],[5,12],[-20,29]],[[6201,7940],[20,55]],[[6274,7937],[41,-46]],[[6437,8044],[-51,-63],[-21,-50],[-50,-40]],[[5333,7853],[531,98],[3,13],[61,64],[84,91],[54,101],[7,23],[46,106],[17,26],[-1,139],[4,113],[30,106],[24,36],[94,168],[189,270],[117,103],[86,55],[123,99],[79,46],[69,23],[114,-18],[101,-1],[136,-24],[162,-126],[103,-144],[40,-42],[35,-100],[43,-79],[14,-71],[-27,-117],[-24,-56],[-72,-217],[-63,-163],[-14,-13],[-7,-17],[1,-110],[-9,-14],[-1,-63],[-25,-123],[29,-37],[-23,-70],[-77,-38],[-37,-46],[-84,-23],[-72,-4],[9,-29],[-15,-62],[-19,-40],[-31,-33],[-26,-35],[-35,-27],[-85,-70],[-42,-24],[-47,-15],[-138,-24],[-77,-9],[-108,-18],[-35,-303],[-6,-12]],[[6565,7858],[-17,16],[-21,39],[-11,31],[2,23],[14,21]],[[5738,6625],[15,17],[29,-3],[7,82],[24,13],[-67,6],[7,73]],[[5753,6813],[35,390],[57,-6],[3,-15],[31,-3]],[[5616,6819],[34,3],[103,-9]]],"transform":{"scale":[0.00014238029514810545,0.0001386049122659196],"translate":[144.813338,14.036565]},"objects":{"Tract_69_2025":{"type":"GeometryCollection","geometries":[{"arcs":[[[0]],[[1]],[[2]],[[3]],[[4]],[[5]],[[6]],[[7]],[[8]],[[9]]],"type":"MultiPolygon","properties":{"id":"14000US69085950100"}},{"arcs":[[10,11,12,13,14,15]],"type":"Polygon","properties":{"id":"14000US69110000500"}},{"arcs":[[16]],"type":"Polygon","properties":{"id":"14000US69100950100"}},{"arcs":[[17,18],[19],[20,21,22]],"type":"Polygon","properties":{"id":"14000US69120990000"}},{"arcs":[[23],[-17]],"type":"Polygon","properties":{"id":"14000US69100990000"}},{"arcs":[[24,25,26]],"type":"Polygon","properties":{"id":"14000US69110000100"}},{"arcs":[[27,28,29,30]],"type":"Polygon","properties":{"id":"14000US69110001300"}},{"arcs":[[31,-28,32]],"type":"Polygon","properties":{"id":"14000US69110001200"}},{"arcs":[[33,34,-25,35,36,37,-12]],"type":"Polygon","properties":{"id":"14000US69110001700"}},{"arcs":[[38,-26,-35,39]],"type":"Polygon","properties":{"id":"14000US69110000200"}},{"arcs":[[40,-40,-34,-11,41]],"type":"Polygon","properties":{"id":"14000US69110000300"}},{"arcs":[[-13,-38,42,43,44,45,46]],"type":"Polygon","properties":{"id":"14000US69110001500"}},{"arcs":[[-42,-16,47,48]],"type":"Polygon","properties":{"id":"14000US69110000400"}},{"arcs":[[49,-48,-15,50]],"type":"Polygon","properties":{"id":"14000US69110000600"}},{"arcs":[[-51,-14,-47,51,52,53]],"type":"Polygon","properties":{"id":"14000US69110000700"}},{"arcs":[[-53,54,55,56]],"type":"Polygon","properties":{"id":"14000US69110000800"}},{"arcs":[[-56,57,58,59]],"type":"Polygon","properties":{"id":"14000US69110000900"}},{"arcs":[[-37,60,-43]],"type":"Polygon","properties":{"id":"14000US69110001600"}},{"arcs":[[61,-59,62,-29,-32]],"type":"Polygon","properties":{"id":"14000US69110001100"}},{"arcs":[[-58,-55,-52,-46,63,-63]],"type":"Polygon","properties":{"id":"14000US69110001000"}},{"arcs":[[-18,64],[65,-44,-61,-36,-27,-39,-41,-49,-50,-54,-57,-60,-62,-33,-31]],"type":"Polygon","properties":{"id":"14000US69110990000"}},{"arcs":[[-20]],"type":"Polygon","properties":{"id":"14000US69120950102"}},{"arcs":[[66,67,-22]],"type":"Polygon","properties":{"id":"14000US69120950201"}},{"arcs":[[68,-67,-21]],"type":"Polygon","properties":{"id":"14000US69120950101"}},{"arcs":[[-64,-45,-66,-30]],"type":"Polygon","properties":{"id":"14000US69110001400"}},{"arcs":[[-68,-69,-23]],"type":"Polygon","properties":{"id":"14000US69120950202"}}]}}}