{"type":"Topology","arcs":[[[4338,7423],[501,49],[14,-4]],[[4853,7468],[-38,-186],[-103,-456],[61,-23]],[[4773,6803],[-93,-204],[-65,-148]],[[4615,6451],[-3,2],[-29,-69]],[[4583,6384],[-538,148]],[[4045,6532],[39,129],[29,101],[31,106],[26,98],[1,14],[67,-19],[65,297],[17,73],[18,92]],[[860,802],[43,-19],[-7,-30],[25,4],[36,-6],[6,23],[42,5],[40,16],[24,2]],[[1069,797],[34,0]],[[1103,797],[-1,-27],[-8,-211]],[[1094,559],[-133,3],[-119,6]],[[842,568],[13,19],[1,28],[38,26],[-7,14],[1,32],[-31,77],[6,13],[-3,25]],[[625,1058],[248,-9]],[[873,1049],[6,-25],[-7,-26],[-7,-111],[37,-32]],[[902,855],[-15,-19],[-30,-24],[3,-10]],[[842,568],[-117,5],[-3,-12],[-111,2]],[[611,563],[10,305],[4,190]],[[873,1049],[245,-9]],[[1118,1040],[-7,-80],[-9,-142],[1,-21]],[[1069,797],[-25,7],[-43,-9],[-20,5],[-8,40],[-14,9],[-57,6]],[[1666,2346],[5,121]],[[1671,2467],[84,-6],[9,232],[6,180]],[[1770,2873],[2,69],[292,-12],[116,-6]],[[2180,2924],[187,-6],[1,-221]],[[2368,2697],[-109,35],[-14,-296],[-40,2],[-10,-199]],[[2195,2239],[-9,-167],[-4,-99]],[[2182,1973],[-115,3],[-192,15],[-182,6],[-6,-17]],[[1687,1980],[-38,7]],[[1649,1987],[3,79],[14,280]],[[1435,6705],[119,14],[4,79],[50,11],[-16,123],[-58,348],[78,13]],[[1612,7293],[2,-13],[28,1],[209,28],[9,3]],[[1860,7312],[70,8]],[[1930,7320],[7,-38],[26,-183],[14,-127],[19,-116],[76,9],[185,-67],[114,-44]],[[2371,6754],[293,-113]],[[2664,6641],[-45,-89],[-142,-255]],[[2477,6297],[-47,-84],[-25,-49],[-24,8],[-188,-388],[-34,13],[-4,18],[3,24],[-8,155],[-101,-51],[-95,-43],[-98,-48],[-103,41],[0,-97],[28,14],[28,-113],[22,-94]],[[1831,5603],[-113,-59],[-106,-49]],[[1612,5495],[-38,190],[-15,-4],[-9,14],[13,13]],[[1563,5708],[-14,104],[-25,135],[8,149],[-40,-3],[-1,52],[11,37],[-4,90],[9,36],[-53,-8]],[[1454,6300],[-2,50],[-16,336],[-1,19]],[[757,7326],[3,-45],[-110,-12],[-9,63]],[[641,7332],[-8,60],[112,16],[12,-82]],[[477,7836],[165,-21],[102,11],[179,23]],[[923,7849],[33,-212],[43,-261]],[[999,7376],[13,-104],[-255,54]],[[641,7332],[-499,-64]],[[142,7268],[8,47],[11,22],[-6,24],[11,33],[17,15],[-2,55],[26,15],[7,18],[32,17],[11,18],[28,16],[5,25],[25,38],[1,16],[15,14],[8,26],[21,14],[2,23],[31,11],[19,20],[22,-4],[8,26],[11,6],[24,73]],[[923,7849],[134,25],[64,9]],[[1121,7883],[155,28],[131,26],[2,-21],[205,28],[-15,94]],[[1599,8038],[171,-45],[40,-324],[32,-232],[18,-125]],[[1612,7293],[1,7],[-24,169],[-102,-13],[2,-16],[-211,-28],[-174,-22]],[[1104,7390],[-20,-4],[-85,-10]],[[947,6586],[52,5],[1,14],[-11,37],[4,10],[-11,21],[4,53],[63,7]],[[1049,6733],[8,-57],[-22,-39],[9,-43],[-7,-20],[29,-58],[32,-16],[40,-52],[79,-73],[14,-19],[-1,-86]],[[1230,6270],[-181,-23]],[[1049,6247],[-22,-3],[-14,80],[-46,71],[-4,36],[-16,17],[2,56],[4,38],[-6,44]],[[5146,8310],[188,213]],[[5334,8523],[38,-53],[47,32]],[[5419,8502],[344,236]],[[5763,8738],[210,-272],[69,-91],[86,-112]],[[6128,8263],[-20,-16],[-37,-20],[-34,-3],[-44,-18],[-49,28],[-26,7],[-48,24],[-21,0],[-25,-8],[-30,-25],[-16,-22],[-23,-9],[-39,10],[-48,-1],[-16,-5],[-74,4],[-13,-8],[-15,-31],[-75,-37],[-42,-11],[-37,11],[-14,-10],[5,-26],[-6,-67],[-16,-24],[-26,-11],[-9,-17],[-28,-8],[-19,-20],[-22,-37],[-16,-43],[5,-13],[29,8],[3,-15],[-9,-23],[7,-33]],[[5280,7794],[-382,84],[-111,21],[96,110],[165,192],[98,109]],[[1049,6733],[263,33]],[[1312,6766],[118,17],[5,-78]],[[1454,6300],[-224,-30]],[[3098,6937],[67,152],[96,217]],[[3261,7306],[86,-27],[16,41]],[[3363,7320],[20,-8],[379,-143]],[[3762,7169],[-36,-84],[-109,-257],[-34,-82]],[[3583,6746],[-137,62]],[[3446,6808],[-181,68],[-167,61]],[[2664,6641],[228,-86],[185,390],[21,-8]],[[3446,6808],[107,-491]],[[3553,6317],[-102,37],[-164,59],[-46,14],[-175,66],[-66,-125],[-102,-183],[-83,-157]],[[2815,6028],[-24,9],[-12,-17],[-234,85],[17,36],[-24,10],[16,28],[-72,32],[18,35],[-25,9],[18,35],[-16,7]],[[3583,6746],[90,-41],[372,-173]],[[4583,6384],[-165,-386],[49,-19]],[[4467,5979],[-200,-344],[-60,-112]],[[4207,5523],[-25,6],[-226,71],[-217,58]],[[3739,5658],[8,6],[-330,135],[-106,44]],[[3311,5843],[22,60],[26,49],[194,365]],[[3310,5843],[1,0]],[[3739,5658],[-128,-207],[-42,-64],[-85,-139],[-152,58],[-60,25],[-113,42],[-121,47]],[[3038,5420],[86,138],[54,80],[88,138],[44,67]],[[4240,4733],[5,10],[28,14],[13,40],[4,44],[9,29],[18,-12],[18,18]],[[4335,4876],[14,-21],[-4,-58],[-38,-54],[-6,-44],[3,-31],[-7,-10],[-49,-25],[5,-23],[-7,-23],[-12,-9],[-10,-45],[7,-30],[18,-23]],[[4249,4480],[-98,25]],[[4151,4505],[-5,30],[14,59],[8,17],[5,43],[10,23],[27,-23],[4,36],[22,28],[4,15]],[[3298,4752],[33,-10],[11,21],[22,-10],[213,-76],[80,-29],[17,2]],[[3674,4650],[28,-6],[9,-31],[10,-4]],[[3721,4609],[-22,-24],[-27,-51],[-192,-425]],[[3480,4109],[-401,124],[-16,4]],[[3063,4237],[235,515]],[[2976,3704],[1,18]],[[2977,3722],[229,-30],[270,-39]],[[3476,3653],[-29,-255],[-5,-99],[-16,-76],[-8,-71]],[[3418,3152],[-149,9],[-299,21]],[[2970,3182],[2,176],[4,70],[0,276]],[[2733,3779],[243,-75]],[[2970,3182],[-64,4],[-9,-150]],[[2897,3036],[-56,28],[-239,129]],[[2602,3193],[-15,92],[92,233],[61,219],[-19,5],[12,37]],[[520,4572],[18,11],[22,110],[40,109],[163,-9]],[[763,4793],[-11,-272],[-7,-134]],[[745,4387],[-9,-245]],[[736,4142],[-17,20],[0,38],[6,15],[-27,31],[-11,26],[-43,35],[-43,12],[-1,17],[-14,9],[-24,-7],[-23,9],[19,26],[-17,12],[13,28],[9,34],[-11,30],[-17,26],[-15,8],[7,28],[-10,19],[3,14]],[[1831,5603],[120,60],[207,103],[2,-94],[48,-17],[88,-36],[30,50],[129,-50],[6,-18],[16,-16],[-12,-11],[8,-20],[30,-13],[0,-14],[-13,-11],[1,-17],[18,-9]],[[2509,5490],[-59,-127],[-81,-167],[59,-27],[-61,-124]],[[2367,5045],[-28,10],[-34,4],[-36,21],[-32,-90],[-15,-55],[-314,-150]],[[1908,4785],[-1,20]],[[1907,4805],[-61,113],[-165,298],[-17,35]],[[1664,5251],[-13,44],[-39,200]],[[1277,4774],[188,8]],[[1465,4782],[2,-28],[15,1],[6,-65],[8,-40],[-11,-1],[6,-61],[18,1],[1,-32],[-16,-1],[2,-30],[16,1],[39,-22]],[[1551,4505],[20,-32],[-2,-21],[23,-18],[14,-26],[29,2],[2,-104]],[[1637,4306],[-94,-5]],[[1543,4301],[-164,-2],[-49,230],[-19,88]],[[1311,4617],[-22,108],[-12,49]],[[1625,4789],[282,16]],[[1908,4785],[5,-72],[16,-391]],[[1929,4322],[-86,-6],[-206,-10]],[[1551,4505],[33,1],[16,19],[-6,16],[-17,-13],[-10,7],[-2,24],[-9,22],[28,-1],[0,36],[4,27],[31,0],[-6,46],[21,1],[13,13],[-3,47],[-21,12],[2,27]],[[1667,4461],[-25,2],[-8,-14],[38,-22],[42,-44],[168,37],[-3,73]],[[1879,4493],[7,0],[-3,49],[-5,20],[-36,-4],[-1,22],[-9,12],[-61,-4]],[[1771,4588],[-9,22],[-27,-7],[-84,-1],[4,-107],[-11,-21],[23,-13]],[[1465,4782],[-6,18],[-17,92],[30,13],[21,3],[1,13],[32,1],[3,-57],[-2,-25],[18,-2],[7,-29],[-8,-23],[81,3]],[[288,5231],[450,51],[149,19],[-48,359],[242,12]],[[1081,5672],[93,-445]],[[1174,5227],[33,-147],[33,-135],[23,-107]],[[1263,4838],[-347,18],[-147,3],[-6,-66]],[[520,4572],[-20,22],[-11,-20],[-25,13],[-30,4],[-12,-8],[-17,6],[-41,-3],[-32,-21],[-9,18],[-46,-13],[-26,1],[10,-20],[-24,-36],[14,-34],[-2,-11],[-41,-35],[7,-20],[-20,-12],[17,-26],[-10,-12],[9,-21],[-6,-19],[-21,-4],[-8,-24],[-24,-9],[-28,16],[-44,33],[-13,19],[-32,13],[-8,15],[2,18],[33,64],[-8,47],[23,42],[-2,14],[-37,57],[6,42],[31,29],[12,26],[0,17],[27,64],[3,24],[15,51],[-7,22],[12,24],[22,15],[18,38],[24,42],[29,31],[28,38],[-1,53],[3,42],[28,47]],[[1174,5227],[196,10],[10,23],[27,-10],[11,-19],[34,-10],[9,21],[203,9]],[[1277,4774],[-14,64]],[[905,8993],[20,-10],[54,-1],[3,-18],[20,-4]],[[1002,8960],[-15,-19]],[[987,8941],[-37,-43]],[[950,8898],[-11,50],[-12,-7],[-29,-1]],[[898,8940],[-9,0]],[[889,8940],[0,21]],[[889,8961],[-1,20],[17,12]],[[860,8891],[22,-31],[0,-9]],[[882,8851],[24,-4],[11,-40]],[[917,8807],[-39,3]],[[878,8810],[-21,1]],[[857,8811],[-4,80],[7,0]],[[869,8916],[21,1]],[[890,8917],[2,-34],[-10,-32]],[[860,8891],[9,25]],[[769,8802],[31,30]],[[800,8832],[19,-18],[38,-3]],[[878,8810],[-3,-47],[-84,5],[-22,34]],[[801,10174],[257,-127],[220,-108]],[[1278,9939],[-11,-16],[-3,-49],[-10,-45],[-13,2],[-4,-21]],[[1237,9810],[-14,-14],[-23,-43],[-13,2],[-10,-22],[-40,6],[-6,28],[-10,10],[-36,-23],[-14,9],[-44,-43],[-12,-17],[-18,-53],[-2,-25],[-43,-2],[-30,-14],[-5,-22]],[[917,9587],[-21,-22],[-30,9],[-21,0],[-29,18],[-19,20],[-22,4],[-15,-11],[-58,-3]],[[702,9602],[-6,97],[5,27],[14,34],[52,22],[15,13],[3,15],[-2,103],[19,85],[0,76],[-4,51],[3,49]],[[1307,9043],[58,-17],[-11,-20],[-3,-34],[-16,-32]],[[1335,8940],[-11,0],[-23,-42],[-14,0],[-3,19],[-35,34],[-14,-8]],[[1235,8943],[16,47],[42,34],[14,19]],[[5851,9787],[178,-124],[82,-60],[-98,-123],[-88,-108],[-69,-89],[131,-170],[69,-94],[-178,-211],[-115,-70]],[[5763,8738],[-13,39],[-83,217]],[[5667,8994],[18,72],[68,301],[16,80],[-73,13],[-119,25]],[[5577,9485],[-69,13]],[[5508,9498],[36,168],[59,254],[7,34],[14,-12],[113,-76],[114,-79]],[[5187,9091],[246,-49]],[[5433,9042],[71,-14]],[[5504,9028],[1,-15],[-15,-35],[-22,-20],[-12,-20],[6,-13],[-8,-23],[-2,-48],[-10,-45],[3,-31],[-6,-20],[12,-22],[-8,-10],[-5,-35],[16,-34],[13,-9],[-10,-15],[2,-22],[-6,-29],[-11,-22],[-5,-24],[-23,-10],[5,-24]],[[5334,8523],[-10,30],[-25,100],[-81,328],[-18,57],[-13,53]],[[4500,9255],[5,6],[134,241],[75,131],[85,166],[134,248],[15,34]],[[4948,10081],[217,-99],[-87,298],[-9,32]],[[5069,10312],[394,-260],[46,62],[32,40],[199,258]],[[5740,10412],[142,-99],[171,-118]],[[6053,10195],[78,-54]],[[6131,10141],[-127,-162],[-153,-192]],[[5508,9498],[-222,42],[-77,-349],[-22,-100]],[[5187,9091],[-207,42],[-101,-182],[-178,-322],[-51,26]],[[4650,8655],[-145,76],[-214,109],[-15,11]],[[4276,8851],[106,187],[118,217]],[[3844,9069],[22,33],[209,365]],[[4075,9467],[28,-17],[243,-117],[154,-78]],[[4276,8851],[-17,6],[-239,122],[-176,90]],[[5577,9485],[-7,-31],[-22,-68],[-2,-22],[-46,-63],[-4,-24],[11,-8],[-4,-19],[-18,-39],[11,-6],[10,-28],[-3,-33],[-23,-27],[-47,-75]],[[5356,7285],[-10,3]],[[5346,7288],[10,-3]],[[4635,8513],[42,-15],[188,-44],[-13,-71],[294,-73]],[[5280,7794],[18,-41],[19,-22],[6,-29],[-18,-52],[-4,-24],[5,-26],[-11,-26],[-17,-15],[8,-20],[-10,-31],[-15,-11],[-6,-42],[22,-28],[32,-89],[20,-26],[17,1],[-6,-23]],[[5340,7290],[-487,178]],[[4338,7423],[-244,106]],[[4094,7529],[123,216],[7,6],[70,126],[0,136],[179,212],[162,288]],[[4635,8513],[41,73],[-19,15],[7,35],[-14,19]],[[5667,8994],[-163,34]],[[940,9066],[38,-15]],[[978,9051],[-15,-53]],[[963,8998],[-58,-5]],[[905,8993],[-3,6]],[[902,8999],[38,67]],[[3762,7169],[47,-23],[23,114]],[[3832,7260],[51,264],[19,91]],[[3902,7615],[192,-86]],[[3480,4109],[144,-18],[158,-23]],[[3782,4068],[-1,-21],[-6,-192],[-3,-141],[-7,-104]],[[3765,3610],[-174,18],[-115,25]],[[2977,3722],[6,77],[13,102],[21,199],[20,146],[26,-9]],[[3418,3152],[-4,-53]],[[3414,3099],[0,-95],[-6,-161],[-3,-145],[-1,-104]],[[3404,2594],[-24,-3]],[[3380,2591],[-182,-23],[-281,-34],[-35,-7]],[[2882,2527],[15,509]],[[2815,6028],[188,-71],[190,-68],[117,-46]],[[3038,5420],[-91,34],[-393,141],[-45,-105]],[[2243,3310],[116,-3],[0,25],[147,-85],[96,-54]],[[2882,2527],[-172,54]],[[2710,2581],[-101,33],[-241,83]],[[2180,2924],[14,245],[40,3],[9,138]],[[2827,4882],[22,44],[33,-8],[233,-88],[145,-50],[-5,-11],[43,-17]],[[2733,3779],[-180,54]],[[2553,3833],[8,64],[-79,16],[31,252],[32,183],[7,57],[52,-19],[25,54],[80,167],[12,28],[106,247]],[[1657,3903],[68,-5],[1,23],[92,-5],[17,-10],[13,-17],[-1,-31],[103,-11]],[[1950,3847],[0,-19],[141,3],[81,6],[62,10],[104,6],[127,5],[88,-25]],[[2243,3310],[-5,88],[-392,18],[-162,3],[-90,8]],[[1594,3427],[28,234],[28,15],[7,227]],[[1214,3446],[92,-4],[172,-6],[116,-9]],[[1770,2873],[-63,1],[18,73],[-36,1],[-191,9],[-175,0],[-116,8]],[[1207,2965],[2,275],[5,206]],[[716,3475],[211,-9],[78,-5],[209,-9]],[[1214,3452],[0,-6]],[[1207,2965],[-174,14],[-202,9],[-129,7]],[[702,2995],[6,220],[8,260]],[[3414,3099],[24,10],[23,-3],[20,8],[32,-7],[37,-51],[43,-74],[29,-38],[25,-11],[13,-14],[9,-27],[25,-16],[13,-50],[42,-49],[39,-8],[24,-22],[19,-5],[15,9],[19,-8],[5,-21]],[[3870,2722],[-21,-9],[-16,-16],[-9,-53],[5,-30],[14,-33]],[[3843,2581],[-214,7],[-225,6]],[[3418,3152],[294,-21],[95,-4],[138,-10],[6,-3]],[[3951,3114],[-16,-34],[4,-14],[30,-45],[17,-13],[7,-16],[-28,-66],[-25,-102],[-26,-55],[-23,-36],[-21,-11]],[[4207,5523],[-13,-25],[-304,-404]],[[3890,5094],[-16,-22]],[[3874,5072],[-81,-171],[-27,-59],[-92,-192]],[[2827,4882],[-460,163]],[[3765,3610],[17,-3],[171,-22],[37,-8]],[[3990,3577],[-15,-69],[0,-33],[-13,-87],[-27,-27],[-18,-31],[-3,-27],[3,-46],[10,-18],[36,-23],[40,1],[11,-10],[-17,-25],[-25,-26],[-21,-42]],[[3721,4609],[321,-76],[109,-28]],[[4249,4480],[0,-25],[-19,-9],[-37,-37],[-25,-21],[-27,-7],[-65,-37],[-25,-30],[1,-31],[-12,-19],[9,-68],[1,-45],[-15,-37],[-23,-33],[-15,-1],[-8,-39]],[[3989,4041],[-207,27]],[[2681,7576],[208,-142]],[[2889,7434],[142,-49]],[[3031,7385],[-13,-5],[-26,-45],[-1,-21],[11,-48],[-18,-11],[-29,-45],[-8,-29],[13,-7],[-5,-26],[6,-25],[-25,-33],[-45,-16],[-13,-19],[-20,-2],[-12,10],[-32,5],[-7,16],[-41,7],[-48,-15],[-162,59]],[[2556,7135],[-48,19]],[[2508,7154],[73,99],[-27,20],[83,117],[-20,19],[53,85],[-29,21],[40,61]],[[2371,6754],[171,350],[14,31]],[[3031,7385],[230,-79]],[[1879,4493],[-35,-3],[1,-13],[-43,-12],[-17,17]],[[1785,4482],[-8,57]],[[1777,4539],[-6,49]],[[1785,4482],[-26,-4],[-7,12]],[[1752,4490],[-8,19],[-17,-2],[-4,24],[14,4],[-3,26],[15,5],[4,-25],[24,-2]],[[692,10475],[44,90],[33,52],[50,43],[51,20],[12,18],[2,19],[15,22],[-3,33],[-14,31],[2,29],[14,51],[0,21],[27,48],[1,28],[9,30]],[[935,11010],[261,-126],[444,-209],[49,-26]],[[1689,10649],[82,-41],[-92,-38],[-327,-140]],[[1352,10430],[-152,72],[-94,47],[-56,-69],[-8,-23],[-21,-22],[-31,-19],[-22,-18],[-73,-81],[-28,-35],[-66,-108]],[[801,10174],[-82,140],[-30,68],[-3,53],[6,40]],[[1316,10541],[26,33],[15,4],[31,-5],[18,44],[-1,25],[11,20],[-27,10],[0,18],[-23,-5]],[[1366,10685],[-8,-7],[-26,13],[-15,-27],[-14,2],[-13,-40],[-1,-16],[26,-13],[-6,-11],[19,-14],[-12,-31]],[[941,11655],[83,3]],[[1024,11658],[12,-32],[43,-21],[23,-37],[-5,-43],[-12,-33],[-26,-21],[-26,-28],[9,-36],[-1,-30],[13,-34],[28,-28],[39,-15],[19,-16],[325,-152]],[[1465,11132],[73,-121],[134,-24]],[[1672,10987],[-27,-157],[74,-135],[-30,-46]],[[935,11010],[7,29],[2,67],[-15,25],[-40,3],[-69,34],[-9,9],[-26,64],[-5,25],[-14,18],[-12,43],[7,22],[36,31],[19,28],[30,62],[38,64],[24,47],[33,74]],[[2293,10855],[22,89],[72,231],[-29,7],[-10,212],[-10,117],[-18,160]],[[2320,11671],[322,-4],[54,1],[123,-1]],[[2819,11667],[98,-445],[15,-35],[41,-415],[-64,-4]],[[2909,10768],[-10,-6],[-32,5],[-195,-12],[-148,11],[-232,-4],[19,89],[-18,4]],[[2819,11667],[257,-5],[117,-8],[75,-8],[118,-18]],[[3386,11628],[18,-111],[48,-307],[-18,0],[16,-260],[15,-209]],[[3465,10741],[-176,-271]],[[3289,10470],[-58,48],[-14,-16],[-72,44],[12,24],[-248,10]],[[2909,10580],[0,188]],[[1366,10685],[-11,-80],[-39,-64]],[[917,9587],[231,-112]],[[1148,9475],[-43,-28],[-34,-26],[12,-30],[-9,-14],[-40,25],[-20,-6],[-19,9],[-7,-49],[-19,-40]],[[969,9316],[-44,5],[-20,19],[-6,17],[-23,0]],[[876,9357],[-2,19],[-25,16],[-39,35],[-44,27],[-74,25],[-51,31]],[[641,9510],[33,25],[18,27],[10,40]],[[643,1545],[143,-5],[170,-10],[139,-4],[44,-2]],[[1139,1524],[-6,-132],[-15,-352]],[[625,1058],[2,74],[16,413]],[[1094,559],[58,-5],[-19,-436],[-2,-33]],[[1131,85],[-513,12],[-55,285],[17,32],[11,29],[-13,32],[6,71],[26,-3],[1,20]],[[4096,9512],[155,283],[47,84],[218,403]],[[4516,10282],[432,-201]],[[4075,9467],[21,45]],[[1672,10987],[169,-37],[87,-16],[198,-39],[167,-40]],[[2909,10580],[-194,8],[-68,-71],[4,-72],[-36,5],[-13,-68],[-39,7],[-22,-111],[-19,3],[-16,-78]],[[2506,10203],[-21,-2],[-294,57],[-155,32],[-209,40],[-168,37],[-307,63]],[[2506,10203],[-20,-99],[-17,-94]],[[2469,10010],[-220,105],[-158,-283],[-34,-30],[-8,-18],[-51,-2],[-25,22],[-17,-23],[13,-19],[0,-45]],[[1969,9717],[-437,92]],[[1532,9809],[-72,241],[-108,380]],[[1667,4461],[9,7],[33,-8],[14,24],[29,6]],[[1929,4322],[9,-160],[12,-284],[0,-31]],[[1657,3903],[-174,8],[60,390]],[[1229,4375],[16,117],[7,123],[59,2]],[[1214,3452],[7,161],[-231,154],[4,155],[38,-2],[134,150],[-7,42],[58,-1],[0,52],[14,204],[-2,8]],[[1229,4375],[-11,-2],[-96,2],[-216,8],[-161,4]],[[1532,9809],[-254,130]],[[1002,8960],[21,23]],[[1023,8983],[15,-12],[15,15],[17,0]],[[1070,8986],[17,-9],[40,11],[-16,20],[25,32],[15,2]],[[1151,9042],[-10,-16],[1,-37],[-13,-13],[-7,-36],[14,-12],[16,-1],[5,-16]],[[1157,8911],[-10,-30],[11,-37],[-5,-31],[-8,-16],[-1,-26],[15,-26]],[[1159,8745],[-16,-35]],[[1143,8710],[-16,10],[-51,-8],[-6,46],[3,15]],[[1073,8773],[-3,15],[-42,33],[-12,86],[-29,34]],[[1023,8939],[30,-29],[14,-4],[20,-57],[34,0],[23,-17],[12,14],[-11,10],[-8,31],[9,22],[-34,13],[-8,9],[-25,-1],[-38,28],[-18,-19]],[[956,8783],[30,2],[21,-6],[39,-1],[27,-5]],[[1143,8710],[-9,-6],[-17,-36],[6,-10],[-7,-28],[8,-39],[-30,-11],[-9,-25]],[[1085,8555],[-161,59]],[[924,8614],[18,90],[16,60],[-2,19]],[[1703,11662],[47,-254],[311,-154],[-382,-76],[-214,-46]],[[1024,11658],[305,7],[98,3],[276,-6]],[[1703,11662],[101,-3],[223,8],[236,5],[57,-1]],[[716,3475],[10,316],[6,238],[-4,30],[17,23],[7,25],[-16,35]],[[5604,10502],[174,217],[36,37],[83,112],[78,101]],[[5975,10969],[167,-120],[262,-184],[-170,-201],[12,-28],[-106,-123],[-87,-118]],[[5740,10412],[-136,90]],[[5893,11627],[361,13],[195,5],[219,0],[116,2],[207,5],[153,-1],[274,5],[138,1],[-4,-9],[-39,-13],[-16,-36],[-30,-8],[-29,20],[-10,-4],[-24,22],[-16,-2],[-20,-18],[-38,-11],[-25,-15],[-21,-22],[-10,-39],[6,-34],[16,-3],[4,-19],[35,-33],[-1,-30],[26,3],[5,-30],[-12,-66],[12,-10],[-8,-23],[4,-38],[14,-29],[34,-40],[28,-53],[0,-21],[-17,5],[-27,-27],[-3,-14],[-20,-10],[11,-23],[-30,-27],[-13,-23],[-25,-13],[-3,-24],[-22,-21],[-19,-2],[-23,-13],[-13,-20],[8,-30],[-31,-34],[0,-14],[15,-20],[1,-30],[-22,-14],[-16,-51],[-15,-1],[-31,-16],[-14,-29],[32,-42],[-17,-39],[7,-25],[-9,-20],[-20,-26],[-17,-1],[-36,-13],[-13,-22],[3,-15],[-18,-10],[-25,-34],[-18,-6],[-7,-33],[-19,-17],[-46,-11],[-5,-26],[16,-8],[7,-21],[-4,-73],[13,-6],[22,5],[-6,-31],[23,-15],[0,-13],[16,-14],[17,-33],[21,-22],[-10,-19],[25,-12],[-13,-27],[15,-40],[-10,-26],[58,-33],[-24,-16],[11,-29],[-11,-12],[12,-22],[28,-4],[11,-10],[-10,-18],[31,-2],[7,16],[17,-5],[3,-26],[16,-27],[-20,-28],[18,-11],[17,-20],[-10,-63],[9,-42],[-7,-31],[-22,-3],[1,-14],[27,-14],[4,-23],[30,19],[-8,-26],[15,-2],[32,-22],[-8,-19],[-32,-27],[-15,2],[-9,-16],[16,-20],[-7,-10],[-27,6]],[[7205,9398],[-94,70],[-166,116],[-30,24],[-102,68],[-129,93],[-245,167],[-308,205]],[[5975,10969],[-162,116],[29,205],[51,337]],[[5340,7290],[6,-2]],[[5356,7285],[-13,-31],[3,-65],[18,-19],[14,-6],[-13,-37],[-31,-2],[-30,-26],[-1,-26],[-8,-18],[10,-48],[19,-25],[18,3],[3,21],[16,11],[20,-9],[9,-15],[-5,-30],[-13,-19],[-35,-3],[0,-13],[46,-26],[1,-14],[-26,-7],[-18,12],[-31,-11],[-2,-14],[15,-20],[-21,-33],[-13,-28],[-32,0],[-14,-19],[23,-12],[-11,-17],[-38,-20],[-13,-18],[18,-46],[-17,-14]],[[5204,6641],[-40,16],[-165,59],[-226,87]],[[4615,6451],[249,-91],[264,-88]],[[5128,6272],[-19,-31],[-15,-13],[-35,-6],[-9,-19],[9,-51],[-5,-54],[-15,-26],[-39,-24],[-14,-21],[-54,-35],[-14,-17],[-18,-32],[-3,-24],[-19,-9],[-24,-1],[-10,-16],[1,-28],[15,-30]],[[4860,5835],[-393,144]],[[4860,5835],[4,-12],[-29,-15],[-34,-9],[-14,-48],[19,-53],[2,-54],[-4,-19],[-20,-39],[7,-33],[14,-31],[-9,-32],[-22,-21],[-18,-45],[-36,-33],[6,-26],[-5,-41]],[[4721,5324],[-314,121],[-200,78]],[[5204,6641],[-8,-7],[-3,-28],[-12,-9],[-21,16],[-13,-4],[-7,-24],[-15,-17],[-21,-12],[6,-48],[-21,-17],[-30,-39],[19,-30],[-3,-57],[-7,-29],[17,-13],[11,11],[33,-4],[25,-8],[-35,-29],[9,-21]],[[889,8940],[-21,-1]],[[868,8939],[-30,-1],[-12,20]],[[826,8958],[63,3]],[[3890,5094],[430,-166],[19,-7]],[[4339,4921],[-4,-45]],[[4240,4733],[-36,23],[-27,6],[-16,15],[-45,19],[-57,8],[-40,34],[-8,14],[-22,18],[-17,33],[-25,66],[-34,14],[-2,26],[-17,57],[-20,6]],[[1079,5686],[192,10],[52,1],[156,8],[84,3]],[[1081,5672],[-2,14]],[[5311,11619],[404,10],[122,-3],[56,1]],[[5604,10502],[-107,76],[-123,84],[-70,50],[-254,184]],[[5050,10896],[199,254],[-115,82],[121,3],[20,145],[36,239]],[[4578,11611],[134,3],[217,4],[34,-1]],[[4963,11617],[28,-40],[4,-21],[18,-22],[18,-39],[-4,-51],[2,-39],[-20,-48],[-19,-53],[-44,-66],[-11,-23],[-1,-60],[-10,-32],[5,-17],[7,-95],[-13,-24]],[[4923,10987],[-118,85],[-18,10]],[[4787,11082],[15,19],[-48,36],[-7,61],[11,15],[6,30],[50,-3],[23,21],[-8,9],[8,24],[16,1],[5,29],[-41,-11],[1,24],[-45,0],[-9,14],[4,48]],[[4768,11399],[-7,8],[-24,-6],[-74,-35],[-23,-15]],[[4640,11351],[-21,163],[-41,97]],[[3465,10741],[495,6],[-2,30],[278,5],[89,168]],[[4325,10950],[43,-23],[217,-107],[176,-83],[-21,-40]],[[4740,10697],[-224,-415]],[[4096,9512],[-10,2],[-335,162],[-93,46]],[[3658,9722],[23,41]],[[3681,9763],[221,400],[-14,20],[-299,143],[-75,37],[-225,107]],[[4787,11082],[-99,71]],[[4688,11153],[-7,38],[20,24],[-9,12],[26,19],[-1,17],[10,36],[41,100]],[[4688,11153],[-112,80]],[[4576,11233],[15,20],[-17,11],[20,37],[-15,21],[4,19],[28,-6],[29,16]],[[4963,11617],[121,-1],[227,3]],[[5050,10896],[-127,91]],[[5069,10312],[18,26],[104,136],[-113,57],[-212,104],[-126,62]],[[4325,10950],[118,220],[62,114],[71,-51]],[[3386,11628],[88,-1],[199,5],[109,-1],[239,-12],[74,0],[133,-6],[84,-7],[72,3],[88,-1],[106,3]],[[2673,9911],[127,241],[188,-91],[158,-73],[75,-36]],[[3221,9952],[-204,-384]],[[3017,9568],[-12,-23],[-35,16],[-69,-121],[-9,-12],[-102,22],[-76,35],[-7,-12],[-71,33]],[[2636,9506],[89,166],[-143,66],[91,173]],[[2559,9361],[75,137],[2,8]],[[3017,9568],[49,-17],[2,-14],[21,-19],[13,-31],[14,-9],[48,16],[168,-81],[34,55],[90,-48],[38,-12]],[[3494,9408],[-54,-97],[-102,-170],[-118,-208]],[[3220,8933],[-343,184],[-80,41],[58,110],[-153,38],[-75,32],[-5,-8],[-63,31]],[[3221,9952],[14,27],[341,-166],[105,-50]],[[3658,9722],[-164,-314]],[[969,9316],[-16,-25],[-29,-33],[-10,-23],[3,-18],[12,-24],[8,-35]],[[937,9158],[-12,-8],[-17,12],[0,-28],[-8,-12],[18,-46],[22,-10]],[[902,8999],[3,23],[-6,22],[-35,22],[-8,19],[-14,4],[-24,-20],[-10,6],[-3,26],[33,13],[-21,10],[-33,-17],[-20,15],[4,32],[-12,28]],[[756,9182],[-7,20],[16,21],[-3,44],[24,41],[-5,15],[22,34],[73,0]],[[937,9158],[22,7],[25,-9],[41,-7],[16,-15],[31,-12],[4,-15],[23,-20],[29,0]],[[1128,9087],[-58,-101]],[[1023,8983],[-1,21]],[[1022,9004],[18,29],[-16,12],[-8,-13],[-38,19]],[[1159,8745],[23,-8],[161,-20],[80,-15],[81,-4],[30,-15],[14,-21]],[[1548,8662],[-33,-21],[-36,14],[-114,-278]],[[1365,8377],[-30,-4],[-104,130],[-96,34]],[[1135,8537],[-50,18]],[[287,9366],[93,31],[42,12],[94,36],[53,25],[72,40]],[[756,9182],[-31,-8],[-8,-20],[-18,11]],[[699,9165],[-26,-7],[-19,26],[10,23],[-4,33],[-23,0],[-10,-12],[14,-21],[-10,-12]],[[631,9195],[-9,-6]],[[622,9189],[-175,-75]],[[447,9114],[-2,49],[-6,11],[-23,12],[-12,41],[-24,30],[0,26],[-16,20],[-53,31],[-24,32]],[[1148,9475],[38,-19]],[[1186,9456],[116,-58]],[[1302,9398],[-109,-196],[-65,-115]],[[963,8998],[59,6]],[[898,8940],[-8,-23]],[[869,8916],[-1,23]],[[116,6597],[73,5],[322,42],[186,25],[-3,-118],[253,35]],[[1049,6247],[-11,-37],[0,-27],[-8,-27],[-23,-18],[8,-26],[-10,-72],[-9,-5],[-22,-63],[-20,-19],[9,-22],[23,-7],[25,-33],[-12,-72],[24,-29],[21,-2],[15,9],[20,-111]],[[288,5231],[44,85],[1,13],[-17,29],[-8,38],[-18,23],[-56,47],[-11,51],[-9,15],[-34,32],[-7,22],[13,43],[17,21],[27,17],[20,34],[-4,11],[-25,23],[-8,26],[12,41],[19,52],[-1,8],[-35,73],[-48,61],[-24,85],[-18,42],[-7,33],[13,69],[-1,40],[-5,62],[-19,48],[-2,24],[13,70],[1,24],[11,55],[-6,49]],[[1312,6766],[-64,458],[-125,26],[-19,140]],[[116,6597],[-11,28],[-14,14],[-28,13],[-21,25],[-34,26],[-8,17],[21,87],[8,49],[4,40],[54,110],[5,33],[10,30],[-3,30],[-16,65],[16,28],[15,11],[20,26],[0,28],[8,11]],[[622,9189],[8,-8],[15,-40],[2,-21],[-17,-22],[-14,-28],[18,-26],[-6,-20],[141,-222]],[[917,8807],[32,-1]],[[949,8806],[7,-23]],[[924,8614],[-59,21]],[[865,8635],[-24,8],[-66,17],[-6,63],[-20,34],[-28,4],[-49,-9],[-27,-19],[-62,-17],[-33,-4]],[[550,8712],[1,34],[-24,66],[6,45],[-4,62],[-17,41],[-10,80],[-23,35],[-26,26],[-6,13]],[[865,8635],[-36,-149],[-16,-28],[-31,-111],[-19,-56]],[[763,8291],[-338,-51]],[[425,8240],[-30,69],[-1,38],[5,40],[13,19],[36,34],[23,30],[10,32],[7,40],[55,131],[7,39]],[[1237,9810],[-6,-26],[12,-30],[-2,-23],[-41,-151],[-24,-70],[1,-23],[9,-31]],[[1157,8911],[44,8],[34,24]],[[1335,8940],[22,-9],[14,15],[24,3],[20,-18]],[[1415,8931],[28,-3],[14,-25],[22,14],[9,-20],[14,-8],[37,1],[16,-13]],[[1555,8877],[17,-4],[4,-22],[19,-16],[-13,-22],[22,-24],[-2,-39],[-7,-8],[-28,2],[-16,-12],[9,-14],[35,-20]],[[1595,8698],[-47,-36]],[[1135,8537],[31,-189],[-94,-13],[-28,1]],[[1044,8336],[-281,-45]],[[1532,9809],[-57,-103],[-173,-308]],[[949,8806],[-14,100],[15,-8]],[[1555,8877],[141,254],[91,164]],[[1787,9295],[143,-182],[26,-35],[149,-191],[-108,-191],[-9,-19]],[[1988,8677],[-86,4],[-304,19],[-3,-2]],[[1365,8377],[177,24],[10,-64]],[[1552,8337],[47,-299]],[[1121,7883],[-19,123],[-22,128],[-36,202]],[[1552,8337],[309,-87]],[[1861,8250],[274,-79]],[[2135,8171],[-98,-251],[42,-13]],[[2079,7907],[-86,-233],[-133,-362]],[[1969,9717],[53,-10],[118,-155],[79,-107],[121,-148],[65,-21]],[[2405,9276],[-80,-154],[104,-52],[-133,-239],[129,-38]],[[2425,8793],[-99,-186],[-35,-61],[143,-76],[-90,-150]],[[2344,8320],[-24,-2],[-45,18],[-21,4],[-45,20],[-74,-189]],[[1861,8250],[61,153],[39,141],[27,133]],[[1787,9295],[-149,30],[-170,37]],[[1468,9362],[-166,36]],[[2710,2581],[10,-35],[-25,-15],[-15,-41],[-1,-19],[9,-16],[-70,-97],[-21,-14],[-21,-30],[5,-28],[-12,-5],[7,-24],[-19,-21],[-5,-44],[-7,-24],[8,-54]],[[2553,2114],[-358,125]],[[2913,880],[61,-2],[234,-7]],[[3208,871],[12,-15],[28,-90],[-5,-22],[-15,-22],[28,-52],[16,-42]],[[3272,628],[1,-59],[-23,-70]],[[3250,499],[-237,11],[-113,2]],[[2900,512],[7,171],[6,197]],[[2917,996],[95,-4],[13,30],[14,52],[19,98],[15,63]],[[3073,1235],[105,-4]],[[3178,1231],[144,-7],[187,-6],[4,-22]],[[3513,1196],[-43,-34],[-10,-28],[24,-22],[7,-50],[-3,-35],[11,-48],[-1,-21],[-16,-10],[-11,-30],[1,-45],[-6,-12]],[[3466,861],[-78,5],[-180,5]],[[2913,880],[4,116]],[[2618,1324],[-20,-96],[-25,-90],[-23,-93],[-17,-37]],[[2533,1008],[-2,-12],[-79,0]],[[2452,996],[-66,5],[-312,18],[-105,3]],[[1969,1022],[14,333],[89,-6],[238,-11],[308,-14]],[[3466,861],[-28,-32],[-47,-23],[-10,-49],[-2,-39],[5,-37],[-8,-26]],[[3376,655],[-38,-16],[-66,-11]],[[3380,2591],[-5,-76],[-5,-472],[5,0]],[[3375,2043],[-62,-290],[-15,1],[-34,-244]],[[3264,1510],[-10,2],[-14,-74],[-10,-18],[-19,-77],[-24,2],[-6,-22],[-3,-92]],[[3073,1235],[-44,2],[3,39],[10,10],[36,10],[10,10],[-12,39],[8,14],[-26,17],[0,37],[-7,18],[-36,32],[9,8],[-9,19],[-188,7],[-167,8]],[[2660,1505],[36,144]],[[2696,1649],[80,310],[18,74],[-79,25],[-162,56]],[[3375,2043],[61,-7],[123,0],[142,-3]],[[3701,2033],[74,-1],[55,-3]],[[3830,2029],[19,-22],[3,-24],[-6,-28],[-29,-23],[-6,-28],[15,-30],[0,-14],[17,-26],[-4,-30],[-40,-53],[-15,-8],[-19,-30],[-31,-24],[-17,-23],[7,-37],[17,-16],[0,-46],[-6,-44],[13,-27]],[[3748,1496],[-46,0],[-201,8],[-237,6]],[[2696,1649],[-437,14],[-93,2],[8,167],[8,141]],[[3843,2581],[-2,-19],[-16,-31],[-7,-27],[1,-23],[10,-37],[-3,-26],[-44,-44],[3,-19],[21,-32],[-3,-23],[-28,-22]],[[3775,2278],[-30,47],[-12,-18],[4,-61],[-3,-17],[-14,-22],[-20,-18],[-12,-30],[0,-29],[-9,-38],[2,-23],[20,-36]],[[1665,1501],[10,11],[0,79],[-5,184],[14,109],[3,96]],[[2660,1505],[-23,-93],[-19,-88]],[[1969,1022],[-115,5],[-203,12],[-5,-1],[14,347],[5,116]],[[2917,996],[-384,12]],[[2431,508],[21,488]],[[2900,512],[-9,-114],[1,-40],[-3,-93],[-1,-91],[-7,-142]],[[2881,32],[-464,17]],[[2417,49],[3,132],[11,327]],[[3250,499],[138,-4],[27,1]],[[3415,496],[15,-45],[3,-42],[94,-95],[30,-41],[2,-21],[-27,-31],[-3,-12],[12,-19],[21,2],[32,22],[2,16],[14,8],[18,-4],[27,-40],[16,-8],[15,-35],[7,-50],[23,-27],[28,-48],[7,-26],[-223,8],[-314,12],[-333,12]],[[3775,2278],[1,-105],[-17,-19],[-3,-15],[16,-36],[20,-12],[27,-3],[-6,-37],[17,-22]],[[3748,1496],[8,-14],[20,-11],[32,-28],[-2,-25],[-23,-26],[-35,3],[-20,-35],[-3,-23],[13,-25],[-2,-13],[-41,-47],[-14,-4],[-19,11],[-21,-12],[-19,-20],[-45,-9],[-9,-7],[-46,-7],[-9,-8]],[[3376,655],[-3,-11],[18,-38],[12,-13],[9,-24],[3,-73]],[[2431,508],[-141,5],[-276,10],[-59,2]],[[1955,525],[5,135],[8,199],[3,100],[-2,63]],[[2417,49],[-472,14]],[[1945,63],[1,61],[12,368],[-3,33]],[[685,2497],[36,0],[271,-11],[187,-5]],[[1179,2481],[-19,-475],[489,-19]],[[1665,1501],[-371,16],[-155,7]],[[643,1545],[17,336],[6,149],[19,467]],[[1945,63],[-291,7],[-523,15]],[[1420,2476],[251,-9]],[[1666,2346],[-28,-34],[-20,-11],[-23,-21],[-39,1],[-37,-11],[-28,5],[-34,16],[-2,44],[18,66],[-19,14],[-10,29],[-24,32]],[[1420,2476],[-222,8],[-19,-3]],[[685,2497],[1,70],[9,151],[7,277]],[[477,7836],[9,52],[-5,29],[-17,39],[-21,71],[-7,43],[-2,47],[2,74],[-11,49]],[[3989,4041],[-10,-36],[9,-21],[44,-40],[19,-43],[-5,-62],[-6,-25],[-36,-42],[8,-64],[-3,-31],[-18,-56],[-1,-44]],[[3617,8651],[1,9],[31,56],[2,12],[67,113],[93,167],[33,61]],[[4276,8851],[-224,-402],[-12,-18],[-217,-389]],[[3823,8042],[-325,161],[-100,47]],[[3398,8250],[219,401]],[[2425,8793],[150,-46],[119,-61],[109,-58],[198,-108]],[[3001,8520],[-64,-114],[30,-16],[-20,-34],[31,-13],[-44,-82],[-24,11],[-39,-72],[-27,-57],[-38,20],[-44,-78]],[[2762,8085],[-31,10],[-7,18],[-26,20],[-27,5],[-6,15],[-19,12],[-27,-1],[-36,30],[2,48],[-37,-1],[-11,35],[-18,9],[-24,1],[-46,15],[-17,24],[-27,-9],[-13,10],[-20,-13],[-28,7]],[[2762,8085],[24,7],[37,-4],[20,-16],[-3,-33],[2,-27],[25,-9],[32,-27],[23,0],[18,-11],[3,-16],[30,-21],[10,-36],[28,2],[48,-18]],[[3059,7876],[-24,-68],[-19,-44],[-127,-330]],[[2681,7576],[-163,113],[-35,22]],[[2483,7711],[-122,53],[-270,127],[-12,16]],[[2483,7711],[-158,-231],[-145,-201]],[[2180,7279],[-89,31],[-5,21],[-44,-1],[-112,-10]],[[3363,7320],[6,17],[77,197]],[[3446,7534],[22,-8],[-6,-22],[47,-21],[-4,-13],[37,-13],[-5,-14],[38,-13],[-1,-12],[33,-10],[9,22],[25,-8],[10,10]],[[3651,7432],[16,-23],[41,-13],[14,-23],[42,-32],[18,-29],[20,-16],[1,-15],[17,-20],[12,-1]],[[3309,8087],[8,-4]],[[3317,8083],[-11,-9],[-16,-38],[0,-45],[11,-13],[0,-16],[19,-24],[2,-25],[-5,-24],[14,-37],[-12,-23]],[[3319,7829],[-23,-24]],[[3296,7805],[-33,19],[-22,-12],[-7,-17],[-29,2]],[[3205,7797],[-8,8],[-36,3]],[[3161,7808],[68,126],[80,153]],[[3902,7615],[-36,15],[-198,52]],[[3668,7682],[115,201],[80,139],[-40,20]],[[3317,8083],[29,-14],[-29,-52],[38,-19],[-17,-33],[20,-10],[-17,-33],[33,-17],[6,-17],[-7,-26],[81,-40],[-17,-30],[59,-32],[-26,-46]],[[3470,7714],[-38,12],[-28,-12]],[[3404,7714],[-7,19],[5,25],[-21,9],[-42,-4],[-18,10]],[[3321,7773],[43,44],[-45,12]],[[3296,7805],[25,-32]],[[3404,7714],[-16,-27],[-142,45],[9,25],[-38,10],[-16,14],[4,16]],[[3668,7682],[-147,38],[-5,-2]],[[3516,7718],[-18,-16],[-28,12]],[[3309,8087],[4,9],[85,154]],[[3651,7432],[2,0]],[[3653,7432],[-11,24],[16,50],[-19,5],[-6,19],[-26,8],[15,42],[-38,12],[-4,-25],[-40,12],[-3,-9],[-69,21]],[[3468,7591],[48,127]],[[3464,7581],[4,10]],[[3653,7432],[-10,19],[-56,44],[-42,47],[-13,21],[-23,12],[-45,6]],[[3446,7534],[18,47]],[[2180,7279],[55,-22],[273,-103]],[[2673,9911],[-204,99]],[[2559,9361],[-56,-113],[-98,28]],[[3617,8651],[-258,182],[-139,100]],[[3220,8933],[-31,-62],[-188,-351]],[[4721,5324],[-22,-19],[-23,-7],[-70,-107],[-44,-14],[-24,-18],[-48,-26],[-21,0],[-16,-32],[-21,-17],[-23,-36],[-31,-42],[-17,-12],[-10,-35],[-13,-23],[1,-15]],[[329,10369],[27,-35],[12,-4],[39,0],[57,-11],[12,6],[16,26],[32,15],[42,28],[19,33],[86,34],[21,14]],[[287,9366],[-17,17],[-11,22],[-18,20],[-3,32],[-23,37],[15,23],[4,29],[-18,39],[-3,21],[-29,30],[15,66],[-5,27],[32,28],[-18,26],[20,31],[-3,23],[35,48],[-10,11],[6,28],[-3,16],[18,8],[-11,33],[16,11],[17,38],[-18,15],[3,30],[-1,81],[2,74],[-3,37],[8,22],[36,51],[9,29]],[[329,10369],[19,61],[15,21],[26,22],[10,19],[2,22],[-7,75],[-22,21],[-16,24],[-20,17],[-13,20],[-46,31],[-22,22],[-15,29],[-16,8],[-7,61],[7,13],[-2,23],[31,28],[11,21],[33,156],[16,37],[32,35],[26,17],[9,24],[-4,122],[7,88],[-1,21],[-46,59],[-10,22],[-7,35],[14,29],[30,90],[271,7],[307,6]],[[3161,7808],[-10,2],[-51,31],[-13,20],[-28,15]],[[7205,9398],[-6,-25],[-12,-12],[-26,-3],[-28,11],[-60,2],[-21,-27],[-5,-28],[47,-40],[35,-22],[16,-18],[-4,-29],[-21,-35],[-13,-13],[-45,-9],[9,-22],[19,-13],[15,-35],[19,-15],[-7,-19],[-24,-8],[-33,0],[-1,-28],[-20,-44],[-36,-8],[-29,9],[-9,-8],[-20,-47],[-21,-7],[-18,21],[32,12],[-8,21],[-15,-2],[-5,-15],[-48,-37],[3,-25],[22,-13],[-4,-21],[-13,-10],[-31,2],[-17,-37],[-1,-25],[-7,-30],[-26,-30],[-45,-6],[-8,-6],[13,-28],[-4,-11],[-23,1],[-7,-19],[-34,-19],[-36,-32],[-43,-19],[-43,7],[-37,-4],[-13,-13],[-12,-28],[-22,-5],[-29,25],[-26,5],[-21,-6],[-40,-30],[-46,2],[-15,-4],[-32,-30],[-6,-15],[15,-23],[-13,-15],[-17,3],[-26,-10],[-5,-35],[12,-12],[-14,-31],[14,-41],[-2,-14],[-21,-14],[-17,-1],[-41,-14],[-16,-11]],[[631,9195],[19,-16],[15,-32],[105,-103],[24,6]],[[794,9050],[2,-9],[28,-48],[-15,-14],[13,-27]],[[822,8952],[-33,-8],[18,-42],[2,-60],[-9,-10]],[[1468,9362],[1,-51],[-9,-65],[-10,-15],[-25,-104],[32,-35],[-48,-25],[-7,-26],[4,-22],[12,-9],[17,-40],[-20,-39]],[[1307,9043],[-61,34],[-28,-17],[-9,-13],[-17,8],[-15,-9],[-14,9],[-12,-13]],[[699,9165],[3,-12],[39,-12],[36,-32],[5,-40],[12,-19]],[[826,8958],[-4,-6]]],"transform":{"scale":[0.000261097803070407,0.0001961724640164494],"translate":[-73.437905,42.726933]},"objects":{"Tract_50_2025":{"type":"GeometryCollection","geometries":[{"arcs":[[0,1,2,3,4,5]],"type":"Polygon","properties":{"id":"14000US50017959102"}},{"arcs":[[6,7,8,9,10]],"type":"Polygon","properties":{"id":"14000US50003971100"}},{"arcs":[[11,12,13,-11,14,15]],"type":"Polygon","properties":{"id":"14000US50003971000"}},{"arcs":[[16,17,-8,18,-13]],"type":"Polygon","properties":{"id":"14000US50003970900"}},{"arcs":[[19,20,21,22,23,24,25,26,27]],"type":"Polygon","properties":{"id":"14000US50003970500"}},{"arcs":[[28,29,30,31,32,33,34,35,36,37,38]],"type":"Polygon","properties":{"id":"14000US50001960600"}},{"arcs":[[39,40]],"type":"Polygon","properties":{"id":"14000US50001960300"}},{"arcs":[[41,42,43,-41,44,45]],"type":"Polygon","properties":{"id":"14000US50001960200"}},{"arcs":[[46,47,48,-30,49,50,-43]],"type":"Polygon","properties":{"id":"14000US50001960100"}},{"arcs":[[51,52,53,54]],"type":"Polygon","properties":{"id":"14000US50001960800"}},{"arcs":[[55,56,57,58,59,60]],"type":"Polygon","properties":{"id":"14000US50005957900"}},{"arcs":[[61,62,-39,63,-53]],"type":"Polygon","properties":{"id":"14000US50001960700"}},{"arcs":[[64,65,66,67,68,69]],"type":"Polygon","properties":{"id":"14000US50017959200"}},{"arcs":[[-34,70,-70,71,72,73]],"type":"Polygon","properties":{"id":"14000US50017959300"}},{"arcs":[[-72,-69,74,-5,75,76,77,78,79]],"type":"Polygon","properties":{"id":"14000US50017959500"}},{"arcs":[[80,-79,81,82]],"type":"Polygon","properties":{"id":"14000US50027965100"}},{"arcs":[[83,84,85,86]],"type":"Polygon","properties":{"id":"14000US50027965600"}},{"arcs":[[87,88,89,90,91]],"type":"Polygon","properties":{"id":"14000US50027965800"}},{"arcs":[[92,93,94,95,96]],"type":"Polygon","properties":{"id":"14000US50027966200"}},{"arcs":[[97,-97,98,99,100]],"type":"Polygon","properties":{"id":"14000US50027966300"}},{"arcs":[[101,102,103,104]],"type":"Polygon","properties":{"id":"14000US50021963700"}},{"arcs":[[105,106,107,108,109,110,-36]],"type":"Polygon","properties":{"id":"14000US50021962100"}},{"arcs":[[111,112,113,114,115,116]],"type":"Polygon","properties":{"id":"14000US50021962600"}},{"arcs":[[117,-109,118,119,-114,120],[121,122,123]],"type":"Polygon","properties":{"id":"14000US50021962700"}},{"arcs":[[-121,-113,124]],"type":"Polygon","properties":{"id":"14000US50021962500"}},{"arcs":[[125,126,127,128,-102,129]],"type":"Polygon","properties":{"id":"14000US50021962300"}},{"arcs":[[130,-110,-118,-125,-112,131,-128]],"type":"Polygon","properties":{"id":"14000US50021962400"}},{"arcs":[[132,133,134,135,136,137,138]],"type":"Polygon","properties":{"id":"14000US50007000600"}},{"arcs":[[139,140,141,142,143]],"type":"Polygon","properties":{"id":"14000US50007000800"}},{"arcs":[[144,145,-140,146]],"type":"Polygon","properties":{"id":"14000US50007000900"}},{"arcs":[[147,148,-143,149]],"type":"Polygon","properties":{"id":"14000US50007001100"}},{"arcs":[[150,151,152,153,154]],"type":"Polygon","properties":{"id":"14000US50007002101"}},{"arcs":[[155,156,157]],"type":"Polygon","properties":{"id":"14000US50007002602"}},{"arcs":[[158,159,160,161,162]],"type":"Polygon","properties":{"id":"14000US50005957100"}},{"arcs":[[163,164,165,-57,166]],"type":"Polygon","properties":{"id":"14000US50005957400"}},{"arcs":[[167,168,169,170,171,172,-163,173,174,175,176]],"type":"Polygon","properties":{"id":"14000US50005957000"}},{"arcs":[[177,178,-177,179]],"type":"Polygon","properties":{"id":"14000US50005957700"}},{"arcs":[[-162,180,-164,-174]],"type":"Polygon","properties":{"id":"14000US50005957300"}},{"arcs":[[183,-61,184,185,-1,186,187]],"type":"Polygon","properties":{"id":"14000US50005957800"}},{"arcs":[[-175,-167,-56,-184,188]],"type":"Polygon","properties":{"id":"14000US50005957600"}},{"arcs":[[-161,189,-165,-181]],"type":"Polygon","properties":{"id":"14000US50005957200"}},{"arcs":[[-190,-160,-58,-166]],"type":"Polygon","properties":{"id":"14000US50005957500"}},{"arcs":[[190,191,192,193,194]],"type":"Polygon","properties":{"id":"14000US50007002400"}},{"arcs":[[195,196,197,-187,-6,-75,-68]],"type":"Polygon","properties":{"id":"14000US50017959101"}},{"arcs":[[-91,198,199,200,-94,201]],"type":"Polygon","properties":{"id":"14000US50027965902"}},{"arcs":[[-99,-96,202,203,204,205,206]],"type":"Polygon","properties":{"id":"14000US50027966501"}},{"arcs":[[-74,207,-83,208,-106,-35]],"type":"Polygon","properties":{"id":"14000US50027966800"}},{"arcs":[[209,-100,-207,210,211,-23,212]],"type":"Polygon","properties":{"id":"14000US50027966502"}},{"arcs":[[213,-92,-202,-93,-98,214,215]],"type":"Polygon","properties":{"id":"14000US50027965901"}},{"arcs":[[216,217,-215,-101,-210,218,219]],"type":"Polygon","properties":{"id":"14000US50021964000"}},{"arcs":[[220,-219,-213,-22,221,222]],"type":"Polygon","properties":{"id":"14000US50021964200"}},{"arcs":[[223,224,-223,225,226]],"type":"Polygon","properties":{"id":"14000US50021964300"}},{"arcs":[[227,228,229,-204]],"type":"Polygon","properties":{"id":"14000US50027966600"}},{"arcs":[[230,231,-228,-203]],"type":"Polygon","properties":{"id":"14000US50027966700"}},{"arcs":[[-107,-209,-82,-78,232,233,234,-88,-214,235]],"type":"Polygon","properties":{"id":"14000US50027965400"}},{"arcs":[[-201,236,237,-231,-95]],"type":"Polygon","properties":{"id":"14000US50027966100"}},{"arcs":[[238,-86,239,240,-199,-90]],"type":"Polygon","properties":{"id":"14000US50027965700"}},{"arcs":[[241,242,243,244,245]],"type":"Polygon","properties":{"id":"14000US50023955501"}},{"arcs":[[246,-244,247,-65,-71,-33]],"type":"Polygon","properties":{"id":"14000US50023955502"}},{"arcs":[[-19,-7,-14]],"type":"Polygon","properties":{"id":"14000US50003971200"}},{"arcs":[[-123,248,249,250]],"type":"Polygon","properties":{"id":"14000US50021963000"}},{"arcs":[[-250,251,252]],"type":"Polygon","properties":{"id":"14000US50021963100"}},{"arcs":[[253,254,255,256,257],[258,259]],"type":"Polygon","properties":{"id":"14000US50011010600"}},{"arcs":[[260,261,262,263,-255,264]],"type":"Polygon","properties":{"id":"14000US50011010500"}},{"arcs":[[265,266,267,268]],"type":"Polygon","properties":{"id":"14000US50011010200"}},{"arcs":[[269,270,271,272,273,-268]],"type":"Polygon","properties":{"id":"14000US50011010300"}},{"arcs":[[274,-260]],"type":"Polygon","properties":{"id":"14000US50011010700"}},{"arcs":[[-154,275,276,277,278,279]],"type":"Polygon","properties":{"id":"14000US50007002301"}},{"arcs":[[280,281,-17,-12,282]],"type":"Polygon","properties":{"id":"14000US50003970800"}},{"arcs":[[-15,-10,283,284]],"type":"Polygon","properties":{"id":"14000US50003971300"}},{"arcs":[[285,286,-168,-179,287]],"type":"Polygon","properties":{"id":"14000US50019952000"}},{"arcs":[[-256,-264,288,-269,-274,289,290]],"type":"Polygon","properties":{"id":"14000US50011010400"}},{"arcs":[[291,292,293,294,-291]],"type":"Polygon","properties":{"id":"14000US50011011000"}},{"arcs":[[295,-252,-249,-122]],"type":"Polygon","properties":{"id":"14000US50021963300"}},{"arcs":[[-115,-120,296,-217,297]],"type":"Polygon","properties":{"id":"14000US50021963400"}},{"arcs":[[298,-116,-298,-220,-221,-225,299]],"type":"Polygon","properties":{"id":"14000US50021963500"}},{"arcs":[[-129,-132,-117,-299,300,-103]],"type":"Polygon","properties":{"id":"14000US50021963600"}},{"arcs":[[-275,-259]],"type":"Polygon","properties":{"id":"14000US50011010800"}},{"arcs":[[-295,301,-151,-257]],"type":"Polygon","properties":{"id":"14000US50011010900"}},{"arcs":[[302,303,304,305,306,307,308,309,-134],[310]],"type":"Polygon","properties":{"id":"14000US50007004002"}},{"arcs":[[311,-309,312,313,314]],"type":"Polygon","properties":{"id":"14000US50007003301"}},{"arcs":[[315,-262,316]],"type":"Polygon","properties":{"id":"14000US50011010101"}},{"arcs":[[317,-266,-289,-263,-316]],"type":"Polygon","properties":{"id":"14000US50011010102"}},{"arcs":[[-108,-236,-216,-218,-297,-119]],"type":"Polygon","properties":{"id":"14000US50021962800"}},{"arcs":[[-251,-253,-296,-124]],"type":"Polygon","properties":{"id":"14000US50021963200"}},{"arcs":[[-104,-301,-300,-224,318]],"type":"Polygon","properties":{"id":"14000US50021963800"}},{"arcs":[[319,320,-171,321]],"type":"Polygon","properties":{"id":"14000US50009950200"}},{"arcs":[[322,323,-172,-321,324]],"type":"Polygon","properties":{"id":"14000US50009950100"}},{"arcs":[[-186,325,-182,326,327,-2]],"type":"Polygon","properties":{"id":"14000US50017959000"}},{"arcs":[[-80,-81,-208,-73]],"type":"Polygon","properties":{"id":"14000US50017959400"}},{"arcs":[[-4,328,329,330,-76]],"type":"Polygon","properties":{"id":"14000US50017959700"}},{"arcs":[[-331,331,332,-77]],"type":"Polygon","properties":{"id":"14000US50017959600"}},{"arcs":[[-328,333,-329,-3]],"type":"Polygon","properties":{"id":"14000US50017959800"}},{"arcs":[[-138,334,335,336]],"type":"Polygon","properties":{"id":"14000US50007004200"}},{"arcs":[[337,338,-84,339,-234]],"type":"Polygon","properties":{"id":"14000US50027965502"}},{"arcs":[[-340,-87,-239,-89,-235]],"type":"Polygon","properties":{"id":"14000US50027965501"}},{"arcs":[[340,-37,-111,-131,-127,341]],"type":"Polygon","properties":{"id":"14000US50021962200"}},{"arcs":[[342,-325,-320,343,344]],"type":"Polygon","properties":{"id":"14000US50019951100"}},{"arcs":[[345,346,347,348,349,350]],"type":"Polygon","properties":{"id":"14000US50019951300"}},{"arcs":[[351,352,353,-286,354,355,356,-272]],"type":"Polygon","properties":{"id":"14000US50019951700"}},{"arcs":[[-349,357,358]],"type":"Polygon","properties":{"id":"14000US50019951400"}},{"arcs":[[-350,-359,359,360]],"type":"Polygon","properties":{"id":"14000US50019951500"}},{"arcs":[[361,-345,362,-347]],"type":"Polygon","properties":{"id":"14000US50019951200"}},{"arcs":[[-360,-358,-348,-363,-344,-322,-170,363,-353,364]],"type":"Polygon","properties":{"id":"14000US50019951900"}},{"arcs":[[365,-351,-361,-365,-352,-271]],"type":"Polygon","properties":{"id":"14000US50019951600"}},{"arcs":[[-364,-169,-287,-354]],"type":"Polygon","properties":{"id":"14000US50019951800"}},{"arcs":[[366,367,368,369]],"type":"Polygon","properties":{"id":"14000US50015953200"}},{"arcs":[[370,-369,371,372,373]],"type":"Polygon","properties":{"id":"14000US50015953500"}},{"arcs":[[374,-356,375,-372,-368]],"type":"Polygon","properties":{"id":"14000US50015953300"}},{"arcs":[[-278,376,377,-195,378,379]],"type":"Polygon","properties":{"id":"14000US50007002304"}},{"arcs":[[380,381,-304,382,383,-191,-378]],"type":"Polygon","properties":{"id":"14000US50007002201"}},{"arcs":[[-308,384,385,386,387,-313]],"type":"Polygon","properties":{"id":"14000US50007003102"}},{"arcs":[[388,-279,-380,389,390,391,392,393]],"type":"Polygon","properties":{"id":"14000US50007002303"}},{"arcs":[[-277,394,395,396,-381,-377]],"type":"Polygon","properties":{"id":"14000US50007002202"}},{"arcs":[[-193,397,-383,-303,-133]],"type":"Polygon","properties":{"id":"14000US50007002502"}},{"arcs":[[-384,-398,-192]],"type":"Polygon","properties":{"id":"14000US50007002501"}},{"arcs":[[-335,-137,398,-145,399]],"type":"Polygon","properties":{"id":"14000US50007004100"}},{"arcs":[[400,-55,401,-342,-126,402]],"type":"Polygon","properties":{"id":"14000US50001960900"}},{"arcs":[[-50,-29,-63,403]],"type":"Polygon","properties":{"id":"14000US50001960500"}},{"arcs":[[-54,-64,-38,-341,-402]],"type":"Polygon","properties":{"id":"14000US50001961000"}},{"arcs":[[-45,-40,-44,-51,-404,-62,-52,-401,404]],"type":"Polygon","properties":{"id":"14000US50001960400"}},{"arcs":[[-393,405,-150,-142,406,407,-315,408,409,410]],"type":"Polygon","properties":{"id":"14000US50007003304"}},{"arcs":[[-410,411,412,413]],"type":"Polygon","properties":{"id":"14000US50007003402"}},{"arcs":[[414,-395,-276,-153]],"type":"Polygon","properties":{"id":"14000US50007002104"}},{"arcs":[[415,-157,416,417,418,419,-385,-307]],"type":"Polygon","properties":{"id":"14000US50007003101"}},{"arcs":[[-409,-314,-388,420,421,-412]],"type":"Polygon","properties":{"id":"14000US50007003401"}},{"arcs":[[-152,-302,422,-396,-415]],"type":"Polygon","properties":{"id":"14000US50007002103"}},{"arcs":[[-135,-310,-312,-408,423]],"type":"Polygon","properties":{"id":"14000US50007003600"}},{"arcs":[[-146,-399,-136,-424,-407,-141]],"type":"Polygon","properties":{"id":"14000US50007003900"}},{"arcs":[[424,425,426,-419]],"type":"Polygon","properties":{"id":"14000US50007002800"}},{"arcs":[[-421,-387,427,428,-48,429]],"type":"Polygon","properties":{"id":"14000US50007003502"}},{"arcs":[[430,431,432,433,-49,-429]],"type":"Polygon","properties":{"id":"14000US50007003503"}},{"arcs":[[-294,434,435,436,437,-432,438,-426,439,440,-423]],"type":"Polygon","properties":{"id":"14000US50007002900"}},{"arcs":[[-212,441,442,-24]],"type":"Polygon","properties":{"id":"14000US50025967300"}},{"arcs":[[443,444,445,446,447]],"type":"Polygon","properties":{"id":"14000US50025968400"}},{"arcs":[[448,449,450,451,452,-444,453]],"type":"Polygon","properties":{"id":"14000US50025968300"}},{"arcs":[[454,455,456,457]],"type":"Polygon","properties":{"id":"14000US50025967900"}},{"arcs":[[-453,458,459,-445]],"type":"Polygon","properties":{"id":"14000US50025968600"}},{"arcs":[[-211,-206,460,461,462,-450,463,464,465,-442]],"type":"Polygon","properties":{"id":"14000US50025967200"}},{"arcs":[[-462,466,467,468,469]],"type":"Polygon","properties":{"id":"14000US50025967600"}},{"arcs":[[-25,-443,-466,470]],"type":"Polygon","properties":{"id":"14000US50025967400"}},{"arcs":[[-205,-230,471,472,-467,-461]],"type":"Polygon","properties":{"id":"14000US50025967100"}},{"arcs":[[473,-26,-471,-465,474,-458,475]],"type":"Polygon","properties":{"id":"14000US50025967500"}},{"arcs":[[-475,-464,-449,476,-455]],"type":"Polygon","properties":{"id":"14000US50025967800"}},{"arcs":[[477,-456,-477,-454,-448,478,479,480]],"type":"Polygon","properties":{"id":"14000US50025968200"}},{"arcs":[[-447,481,482,-479]],"type":"Polygon","properties":{"id":"14000US50025968700"}},{"arcs":[[483,-468,-473]],"type":"Polygon","properties":{"id":"14000US50025967000"}},{"arcs":[[-470,484,-451,-463]],"type":"Polygon","properties":{"id":"14000US50025967700"}},{"arcs":[[-460,485,-482,-446]],"type":"Polygon","properties":{"id":"14000US50025968500"}},{"arcs":[[-457,-478,486,487]],"type":"Polygon","properties":{"id":"14000US50025968000"}},{"arcs":[[-487,-481,488,489]],"type":"Polygon","properties":{"id":"14000US50025968100"}},{"arcs":[[490,491,-27,-474,492,-281,493]],"type":"Polygon","properties":{"id":"14000US50003971600"}},{"arcs":[[-18,-282,-493,-476,-488,-490,494,-284,-9]],"type":"Polygon","properties":{"id":"14000US50003970601"}},{"arcs":[[495,-20,496]],"type":"Polygon","properties":{"id":"14000US50003970402"}},{"arcs":[[-226,-222,-21,-496,497,-491,498]],"type":"Polygon","properties":{"id":"14000US50003971400"}},{"arcs":[[-498,-497,-28,-492]],"type":"Polygon","properties":{"id":"14000US50003970401"}},{"arcs":[[-420,-427,-439,-431,-428,-386]],"type":"Polygon","properties":{"id":"14000US50007003000"}},{"arcs":[[-413,-422,-430,-47,-42,499]],"type":"Polygon","properties":{"id":"14000US50007003501"}},{"arcs":[[-241,500,-237,-200]],"type":"Polygon","properties":{"id":"14000US50027966000"}},{"arcs":[[501,-180,502,503,504]],"type":"Polygon","properties":{"id":"14000US50023954100"}},{"arcs":[[505,506,507,-437]],"type":"Polygon","properties":{"id":"14000US50023954300"}},{"arcs":[[-438,-508,508,509,-242,510,511,-433]],"type":"Polygon","properties":{"id":"14000US50023954400"}},{"arcs":[[-512,512,513,-31,-434]],"type":"Polygon","properties":{"id":"14000US50023955800"}},{"arcs":[[514,515,516,-196,-67]],"type":"Polygon","properties":{"id":"14000US50023955400"}},{"arcs":[[517,518,519,520,521,522]],"type":"Polygon","properties":{"id":"14000US50023954600"}},{"arcs":[[-503,-176,-189,-188,-198,523,524]],"type":"Polygon","properties":{"id":"14000US50023954000"}},{"arcs":[[525,526,527,528,-519]],"type":"Polygon","properties":{"id":"14000US50023954700"}},{"arcs":[[-521,529,-528,530]],"type":"Polygon","properties":{"id":"14000US50023954900"}},{"arcs":[[-504,-525,531,532,-526,-518,533]],"type":"Polygon","properties":{"id":"14000US50023955000"}},{"arcs":[[-532,-524,-197,-517,534,535,536]],"type":"Polygon","properties":{"id":"14000US50023955300"}},{"arcs":[[537,-536,538]],"type":"Polygon","properties":{"id":"14000US50023955100"}},{"arcs":[[-539,-535,-516,539]],"type":"Polygon","properties":{"id":"14000US50023955200"}},{"arcs":[[-514,540,-245,-247,-32]],"type":"Polygon","properties":{"id":"14000US50023955600"}},{"arcs":[[-290,-273,-357,-375,-367,541,-292]],"type":"Polygon","properties":{"id":"14000US50015953000"}},{"arcs":[[-542,-370,-371,542,-435,-293]],"type":"Polygon","properties":{"id":"14000US50015953100"}},{"arcs":[[-373,-376,-355,-288,-178,-502,543]],"type":"Polygon","properties":{"id":"14000US50015953400"}},{"arcs":[[-543,-374,544,-506,-436]],"type":"Polygon","properties":{"id":"14000US50015953600"}},{"arcs":[[-333,545,-338,-233]],"type":"Polygon","properties":{"id":"14000US50027965000"}},{"arcs":[[546,-258,-155,-280,-389,547]],"type":"Polygon","properties":{"id":"14000US50013020200"}},{"arcs":[[-265,-254,-547,548]],"type":"Polygon","properties":{"id":"14000US50013020100"}},{"arcs":[[-513,-511,-246,-541]],"type":"Polygon","properties":{"id":"14000US50023955700"}},{"arcs":[[-507,-545,-544,-505,-534,-523,549,-509]],"type":"Polygon","properties":{"id":"14000US50023954200"}},{"arcs":[[-529,-530,-520]],"type":"Polygon","properties":{"id":"14000US50023954800"}},{"arcs":[[-510,-550,-522,-531,-527,-533,-537,-538,-540,-515,-66,-248,-243]],"type":"Polygon","properties":{"id":"14000US50023954500"}},{"arcs":[[-173,-324,550,-59,-159]],"type":"Polygon","properties":{"id":"14000US50009950500"}},{"arcs":[[-392,551,552,553,-148,-406]],"type":"Polygon","properties":{"id":"14000US50007000200"}},{"arcs":[[-311]],"type":"Polygon","properties":{"id":"14000US50007980000"}},{"arcs":[[-382,-397,-441,554,-417,-156,555,-305]],"type":"Polygon","properties":{"id":"14000US50007002701"}},{"arcs":[[-440,-425,-418,-555]],"type":"Polygon","properties":{"id":"14000US50007002702"}},{"arcs":[[556,-552,-391]],"type":"Polygon","properties":{"id":"14000US50007000100"}},{"arcs":[[-390,-379,-194,-139,-337,557,-553,-557]],"type":"Polygon","properties":{"id":"14000US50007000300"}},{"arcs":[[-556,-158,-416,-306]],"type":"Polygon","properties":{"id":"14000US50007002601"}},{"arcs":[[-558,-336,-400,-147,-144,-149,-554]],"type":"Polygon","properties":{"id":"14000US50007001000"}}]}}}