{"type":"Topology","arcs":[[[3380,5728],[155,-148]],[[3535,5580],[-150,1],[-29,-7],[-19,-15],[-41,-44],[-55,49]],[[3241,5564],[29,62],[24,40],[24,29],[62,33]],[[3054,5498],[164,42],[23,24]],[[3535,5580],[162,-155]],[[3697,5425],[-10,-1],[-63,21],[-24,-28]],[[3600,5417],[-133,-2],[-52,-12],[-71,-3],[-36,-9],[-22,-18],[-37,-1],[41,-124]],[[3290,5248],[-75,-36],[15,54],[-8,36],[-14,23],[-10,43],[-28,27],[-31,10],[-51,-8],[0,19],[-32,1]],[[3056,5417],[-2,81]],[[3600,5417],[-6,-15],[-1,-109],[17,-83]],[[3610,5210],[-307,0]],[[3303,5210],[-13,38]],[[3211,3841],[24,80]],[[3235,3921],[258,-135]],[[3493,3786],[-50,-40],[0,-88]],[[3443,3658],[-96,0]],[[3347,3658],[-141,0]],[[3206,3658],[0,78],[-24,0],[29,105]],[[403,4234],[52,37],[22,47],[32,12],[15,-11],[27,8],[33,37],[-23,31],[18,9],[42,70],[20,47],[29,40],[-6,70],[-20,30],[8,22],[29,37],[50,30]],[[731,4750],[70,26],[69,64],[14,17]],[[884,4857],[31,-32],[72,-153],[94,-2]],[[1081,4670],[-30,-134]],[[1051,4536],[-25,-160]],[[1026,4376],[0,-74]],[[1026,4302],[-95,-5],[-76,0],[2,-92],[-77,0],[-46,-10],[-42,-17],[-45,-37],[-1,-14],[-39,-24],[-50,-48],[-36,-26]],[[521,4029],[-19,12],[-41,40],[-12,24],[-1,29],[-20,61],[-25,39]],[[2075,4599],[32,-5],[43,-26],[17,-1]],[[2167,4567],[-11,-57],[15,-10],[-72,-59],[9,-7]],[[2108,4434],[-108,1],[-36,3]],[[1964,4438],[-4,38],[-20,37],[-12,72],[26,10],[52,-44],[24,-25],[35,21],[10,52]],[[2167,4567],[69,0],[31,-8],[24,6]],[[2291,4565],[6,-20]],[[2297,4545],[-87,-63],[-84,-67]],[[2126,4415],[-18,19]],[[3555,1372],[39,37],[-66,53],[-38,59],[-7,24]],[[3483,1545],[55,20],[77,17],[26,-53],[76,-105]],[[3717,1424],[-168,-160]],[[3549,1264],[-104,2]],[[3445,1266],[110,106]],[[3198,1326],[43,79],[29,20],[18,1]],[[3288,1426],[23,10],[55,40],[16,25],[34,27],[33,16],[34,1]],[[3555,1372],[-13,12],[-36,-22],[-22,-3],[-156,0],[-35,-23],[-5,-11]],[[3288,1325],[-40,0]],[[3248,1325],[-50,1]],[[2298,4830],[0,82]],[[2298,4912],[58,0],[45,-11]],[[2401,4901],[0,-176]],[[2401,4725],[-103,48]],[[2298,4773],[0,57]],[[2291,4565],[6,1],[1,152]],[[2298,4718],[0,55]],[[2401,4725],[2,-51]],[[2403,4674],[7,-127]],[[2410,4547],[-113,-10]],[[2297,4537],[0,8]],[[3188,1643],[32,52],[26,22],[50,14],[78,5],[89,18]],[[3463,1754],[17,-116],[3,-93]],[[3288,1426],[-5,62],[5,48],[0,157],[-33,-11],[-36,-43],[-31,4]],[[2792,6292],[110,-102],[34,-36],[67,-62],[66,-69]],[[3069,6023],[-14,-17],[-1,-147],[4,-26],[-18,-28]],[[3040,5805],[-49,50],[-44,54],[-50,99],[-142,-1]],[[2755,6007],[-152,1]],[[2603,6008],[70,120],[17,22],[63,106],[39,36]],[[2570,6499],[95,-90],[23,-15],[104,-102]],[[2603,6008],[-51,0]],[[2552,6008],[1,78],[-171,0]],[[2382,6086],[-81,1]],[[2301,6087],[0,87],[93,106],[181,-1],[-5,220]],[[2552,6008],[-21,-294]],[[2531,5714],[-14,4]],[[2517,5718],[-135,24]],[[2382,5742],[0,344]],[[2755,6007],[0,-377]],[[2755,5630],[-35,0],[-189,77]],[[2531,5707],[0,7]],[[3040,5805],[-32,-52],[24,-35],[17,-39]],[[3049,5679],[-85,1],[-30,-50],[-179,0]],[[5369,3643],[43,143]],[[5412,3786],[281,-269]],[[5693,3517],[-7,-7],[-291,0],[-25,3],[-32,24]],[[5338,3537],[31,106]],[[4881,3720],[183,176],[87,81],[36,25]],[[5187,4002],[225,-216]],[[5412,3786],[-97,-17],[-70,1],[-73,-19],[-115,-6],[-59,-1],[-69,6],[-41,-34]],[[4888,3716],[-7,4]],[[5693,3517],[111,-107],[-109,-103]],[[5695,3307],[-403,1]],[[5292,3308],[2,78],[44,151]],[[198,5007],[13,-34],[3,-41],[-3,-37],[5,-25],[55,-93],[71,-78],[18,-45],[74,-81],[60,33],[131,142]],[[625,4748],[59,-6],[47,8]],[[403,4234],[-16,34],[-38,63],[-53,58],[-43,38],[-23,28],[-34,27],[-21,26],[-41,66],[-29,26],[-14,50],[-91,159],[25,34],[53,47],[120,117]],[[1327,6070],[136,129],[342,327],[71,65]],[[1876,6591],[0,-10],[76,-44],[39,-9],[51,-41],[39,-10],[54,4],[21,-26],[35,-13],[13,-22],[-14,-38],[-41,-33],[-14,-2],[-33,22],[-29,-23],[14,-15],[10,-42],[27,-9],[45,-35],[35,-20],[6,-25],[-9,-27],[15,-30],[-13,-37]],[[2203,6106],[-8,-31],[-25,-23],[-24,-8],[-42,10],[-32,-18],[-16,-59],[-41,-43],[-5,-42],[-19,-49],[8,-26],[29,-40],[46,-30],[29,-28]],[[2103,5719],[-56,-30],[-40,-3],[-40,8],[-64,43],[-30,1],[-37,-17],[-47,-12],[-36,-2]],[[1753,5707],[1,87],[-5,11],[-69,60],[-10,4],[-78,0]],[[1592,5869],[-175,0],[-48,131],[-42,70]],[[4656,3500],[45,-10],[84,-44],[108,-35],[80,-40],[24,-17],[29,-44]],[[5026,3310],[-8,0]],[[5018,3310],[-83,-1],[-334,-1]],[[4601,3308],[-103,1]],[[4498,3309],[98,121],[60,70]],[[1712,4433],[2,100],[137,-21],[-84,176]],[[1767,4688],[31,5],[-11,22],[11,38],[45,29],[32,10],[36,-21]],[[1911,4771],[-10,-14],[18,-20],[20,-1],[58,-19],[45,-62],[29,-34],[4,-22]],[[1964,4438],[-1,-26],[-43,-45]],[[1920,4367],[-23,-44],[-24,-12],[-41,17],[-34,-5],[-16,-25],[-32,-20],[-25,-7],[-28,-23]],[[1697,4248],[-23,20]],[[1674,4268],[39,32],[31,9],[-9,19],[41,14],[37,23],[-17,29],[-30,16],[-9,26],[-45,-3]],[[2910,4159],[146,62]],[[3056,4221],[-1,-206]],[[3055,4015],[-140,72]],[[2915,4087],[-5,72]],[[3443,3658],[301,1]],[[3744,3659],[18,-2]],[[3762,3657],[4,0]],[[3766,3657],[-9,-5]],[[3757,3652],[-184,-91]],[[3573,3561],[-130,-65]],[[3443,3496],[0,162]],[[4464,3859],[28,-19],[19,-2],[69,37],[11,21],[27,24],[39,7],[21,-13],[30,-42],[25,-43],[77,-87],[10,-28],[38,-16]],[[4858,3698],[-202,-198]],[[4656,3500],[-105,22],[-151,28],[-47,5]],[[4353,3555],[-6,79],[6,23],[38,52],[34,57],[39,93]],[[1026,4302],[0,-22],[43,-82],[13,-40],[33,-33],[14,-32],[-5,-14]],[[1124,4079],[-6,-25],[42,-76],[4,-36],[-9,-16],[-1,-49],[-11,-22]],[[1143,3855],[0,-9],[-43,-13],[-1,-17],[19,-82]],[[1118,3734],[-26,-5],[-67,-1],[-63,17],[-47,8],[-54,23],[-66,34],[-26,21],[-46,20],[-202,178]],[[1389,5482],[15,47],[23,45],[55,53],[78,-21],[84,-9],[34,-10],[24,-25],[19,3],[15,38],[23,34],[-6,70]],[[2103,5719],[2,1]],[[2105,5720],[35,-34]],[[2140,5686],[39,-16],[6,-16],[-25,-38],[-19,-15],[-5,-58],[4,-52],[-54,-58],[-19,-30],[-4,-25],[-20,-25],[-37,-29],[5,-48],[28,-14],[21,8],[9,19],[18,-6],[-1,-21],[-17,-18],[-25,-52],[-16,-9],[-23,8],[-25,-5],[-12,-24],[-34,-35]],[[1934,5127],[-5,14],[-42,55],[-9,34],[7,42],[-6,26],[-32,-2],[-70,-27],[-36,-4],[-249,0]],[[1492,5265],[-103,217]],[[2517,5718],[-28,-36],[-17,-13],[-173,-247]],[[2299,5422],[1,123],[-59,-5],[-29,19],[-6,26],[8,54],[24,22],[-29,13],[-17,16],[-39,8],[-13,-12]],[[2105,5720],[68,46],[26,11],[40,0],[105,-28],[38,-7]],[[4315,3310],[183,-1]],[[4601,3308],[-25,-39],[-99,-169]],[[4477,3100],[-38,-65]],[[4439,3035],[-42,-7],[-75,17],[-33,-28],[-32,6],[-48,-4],[-14,8],[-112,-42]],[[4083,2985],[60,82],[77,87],[95,156]],[[1281,5707],[194,1],[8,5],[109,156]],[[1389,5482],[-108,225]],[[2699,3736],[226,0]],[[2925,3736],[129,0]],[[3054,3736],[0,-167]],[[3054,3569],[0,-3]],[[3054,3566],[-91,46],[-79,31],[-102,46]],[[2782,3689],[-83,33]],[[2699,3722],[0,14]],[[3910,2872],[84,-49],[101,-51]],[[4095,2772],[11,-25],[0,-148],[7,-18]],[[4113,2581],[-292,0],[-85,-54]],[[3736,2527],[-118,26],[-24,32]],[[3594,2585],[31,26],[-48,75]],[[3577,2686],[23,20],[147,100],[163,66]],[[3768,2520],[118,-26],[31,-11],[87,-52],[35,-17]],[[4039,2414],[-65,-83],[58,-46],[-44,-52],[25,-18],[-25,-29]],[[3988,2186],[-6,-7]],[[3982,2179],[-35,28],[-18,6],[-91,-1],[-62,-13],[-39,26],[-103,85]],[[3634,2310],[13,11],[108,0],[22,29],[4,72],[15,61],[-35,8],[7,29]],[[634,5196],[102,-90]],[[736,5106],[189,-169],[16,2]],[[941,4939],[2,-19]],[[943,4920],[-17,-2],[-42,-61]],[[625,4748],[-61,30],[-26,39],[-22,19],[18,18],[42,9],[80,1],[-22,85],[0,247]],[[787,5554],[152,145]],[[939,5699],[136,-325],[16,-75],[36,-81]],[[1127,5218],[11,-23]],[[1138,5195],[-18,0],[-179,-256]],[[736,5106],[123,0],[0,383],[-7,9],[-65,56]],[[1393,3671],[15,15],[77,3],[86,-2],[2,42],[-3,137],[-2,8],[-105,243],[-33,71],[-23,35]],[[1407,4223],[37,22],[3,34],[104,-7],[123,-4]],[[1697,4248],[-10,-22],[-6,-44],[41,-40],[51,-40],[8,-13],[74,-34],[36,-41]],[[1891,4014],[-23,-5],[-140,-2],[3,-179],[44,0]],[[1775,3828],[-15,-23]],[[1760,3805],[-47,-68]],[[1713,3737],[-24,-35],[0,-16],[32,-31],[-1,-25],[21,-28],[0,-29]],[[1741,3573],[-1,-79],[5,-32],[16,-44],[-9,-4],[-193,-40],[-40,3]],[[1519,3377],[-13,59],[-56,119],[-15,81],[-42,35]],[[2297,4417],[0,18]],[[2297,4435],[33,6],[88,7]],[[2418,4448],[8,-97],[-3,-24]],[[2423,4327],[-54,-14],[-14,-15],[-58,-2]],[[2297,4296],[0,121]],[[2299,4940],[0,122]],[[2299,5062],[185,0]],[[2484,5062],[0,-188]],[[2484,4874],[-83,27]],[[2298,4912],[1,28]],[[1891,4014],[31,-38]],[[1922,3976],[-4,-15],[-37,-15],[-38,1],[-17,-11],[-25,-41],[-26,-67]],[[1081,4670],[19,62],[-7,55]],[[1093,4787],[10,-9]],[[1103,4778],[76,-68],[-1,-176]],[[1178,4534],[-59,0],[-22,-8],[-46,10]],[[2298,4718],[-61,29],[-57,-6],[-66,0],[-29,14]],[[2085,4755],[0,48],[148,0],[27,57],[25,-13],[13,-17]],[[2423,4327],[86,21],[49,3]],[[2558,4351],[33,-11],[23,-34],[29,-56],[0,-26]],[[2643,4224],[-221,0]],[[2422,4224],[1,103]],[[528,5308],[259,246]],[[634,5196],[-106,95],[0,17]],[[2297,4537],[0,-102]],[[2297,4417],[-116,-83],[-1,-14],[-27,-6]],[[2153,4314],[-27,101]],[[2410,4547],[8,-99]],[[2296,4026],[1,100]],[[2297,4126],[125,0]],[[2422,4126],[0,-150]],[[2422,3976],[-71,0],[-1,-104]],[[2350,3872],[-44,20]],[[2306,3892],[-10,11],[0,123]],[[943,4920],[150,-133]],[[2297,4296],[-100,-36],[-21,-30],[-21,-13]],[[2155,4217],[-2,97]],[[1922,3976],[36,0]],[[1958,3976],[-1,-81]],[[1957,3895],[-71,0],[-1,-143]],[[1885,3752],[-125,53]],[[2782,3689],[0,-213],[-27,-13],[0,-56]],[[2755,3407],[-56,18]],[[2699,3425],[0,297]],[[2154,4040],[66,86]],[[2220,4126],[77,0]],[[2296,4026],[-142,0],[0,14]],[[2643,4224],[57,-25]],[[2700,4199],[-1,-73]],[[2699,4126],[-141,0]],[[2558,4126],[-136,0]],[[2422,4126],[0,98]],[[2224,942],[322,13],[47,4],[158,20],[54,4],[19,45],[1,49]],[[2825,1077],[15,8],[114,-27],[17,-39],[14,32],[-9,25],[96,1],[66,16]],[[3138,1093],[34,-29],[72,-42]],[[3244,1022],[26,-24]],[[3270,998],[-149,-145],[-893,-853],[0,68],[-5,230],[15,101],[16,84],[21,153],[-2,133],[-2,16],[-27,39],[-18,92],[-2,26]],[[3051,1615],[4,16],[18,168],[9,163],[71,146],[42,114],[26,99]],[[3221,2321],[1,-14],[295,-224]],[[3517,2083],[200,-152],[-62,-77],[-30,-5],[-20,-65]],[[3605,1784],[-142,-30]],[[3188,1643],[-98,-159]],[[3090,1484],[-37,104],[-2,27]],[[5234,3308],[58,0]],[[5695,3307],[-144,-137]],[[5551,3170],[-52,15],[-71,9],[-35,11],[-67,51],[-24,13]],[[5302,3269],[-62,24],[-6,15]],[[5179,3308],[55,0]],[[5302,3269],[-48,-269]],[[5254,3000],[-30,-3],[-27,9],[-16,19],[-29,3]],[[5152,3028],[-52,79],[-28,72]],[[5072,3179],[82,-9],[25,138]],[[5551,3170],[-151,-145]],[[5400,3025],[-12,-6],[-134,-19]],[[5026,3310],[75,-2]],[[5101,3308],[78,0]],[[5072,3179],[-7,19],[-121,0]],[[4944,3198],[9,38],[22,33],[43,41]],[[3049,5679],[5,-19],[0,-162]],[[3056,5417],[-295,-11]],[[2761,5406],[-8,206],[2,18]],[[2547,5399],[214,7]],[[2761,5406],[7,-193]],[[2768,5213],[-198,-7]],[[2570,5206],[-23,193]],[[3056,5417],[8,-143],[1,-50],[-15,-33],[-47,-36]],[[3003,5155],[-17,-10]],[[2986,5145],[-30,2],[-25,17],[-59,28],[-11,24],[-93,-3]],[[2986,5145],[-17,-17],[-20,-44],[-36,-41],[-30,-52],[-53,-58],[-51,-22]],[[2779,4911],[1,9],[-6,166],[-20,15],[18,22],[-4,90]],[[2908,2709],[19,0],[13,46],[-34,20],[0,28],[16,55]],[[2922,2858],[131,0]],[[3053,2858],[1,-172],[10,-31],[14,-18],[75,-40]],[[3153,2597],[-75,-143],[-26,-29],[-172,-120]],[[2880,2305],[2,177],[-1,141],[27,86]],[[3054,3107],[0,41],[87,0],[0,33],[66,0],[0,53],[41,-1]],[[3248,3233],[0,-13],[162,-81]],[[3410,3139],[-1,-35],[-62,-17],[0,-18],[-56,0],[-43,-14],[-1,-61]],[[3247,2994],[-37,9],[-64,3]],[[3146,3006],[-30,3],[-63,20]],[[3053,3029],[1,78]],[[3207,3308],[236,0]],[[3443,3308],[0,-176]],[[3443,3132],[-33,7]],[[3248,3233],[0,53],[-41,0],[0,22]],[[3443,3308],[95,0]],[[3538,3308],[-1,-20],[89,1],[0,18],[129,1]],[[3755,3308],[0,-92]],[[3755,3216],[-30,-6],[-244,-79],[-5,1]],[[3476,3132],[-33,0]],[[3755,3216],[176,-85]],[[3931,3131],[0,-30],[-96,-48],[0,-101],[-23,-14]],[[3812,2938],[-57,29]],[[3755,2967],[0,249]],[[3969,2089],[35,46],[-35,30],[13,14]],[[3988,2186],[50,-39],[45,52],[50,-36],[-3,-105],[25,-36],[20,-11],[42,-1],[19,-28],[25,9],[-10,23],[0,33],[60,-57]],[[4311,1990],[-54,-53]],[[4257,1937],[-32,-2],[-60,7],[-40,15],[-37,21],[-32,29]],[[4056,2007],[-60,63],[-27,19]],[[4225,1908],[-178,-169]],[[4047,1739],[-39,-13],[-14,-15],[-38,2],[-42,-23],[-26,9],[-50,113]],[[3838,1812],[92,34],[63,9],[35,11],[53,27],[84,18],[60,-3]],[[5369,3643],[-73,0],[-32,8],[-44,0],[-38,-9],[-50,0],[0,-25],[-50,10],[-44,15],[-56,28]],[[4982,3670],[-94,46]],[[3960,3616],[161,-35]],[[4121,3581],[26,-5]],[[4147,3576],[-42,-60],[-18,-12],[-55,-18],[-37,-31],[-5,-30]],[[3990,3425],[-58,1]],[[3932,3426],[0,96],[21,89],[7,5]],[[3757,3652],[-2,-39],[0,-181]],[[3755,3432],[-16,3],[-166,0]],[[3573,3435],[0,126]],[[2804,4145],[111,-58]],[[3055,4015],[1,-120]],[[3056,3895],[-161,-61]],[[2895,3834],[-30,106]],[[2865,3940],[-61,205]],[[2700,4199],[104,-54]],[[2865,3940],[-166,0]],[[2699,3940],[0,186]],[[2895,3834],[-11,-9],[-156,-65],[-29,-10]],[[2699,3750],[0,190]],[[2558,3940],[141,0]],[[2699,3750],[-55,0]],[[2644,3750],[-86,34]],[[2558,3784],[0,156]],[[3594,2585],[-17,-17],[-42,-65],[-30,-36],[35,-30],[6,-22]],[[3546,2415],[-51,-34],[-34,-56],[18,-40],[2,-33]],[[3481,2252],[-2,-86],[16,-43],[30,-30]],[[3525,2093],[-8,-10]],[[3221,2321],[-3,17],[29,58],[9,63],[-3,33],[-15,37],[0,26],[-85,42]],[[3153,2597],[57,73],[219,-27],[83,2],[65,41]],[[4257,1937],[-32,-29]],[[3838,1812],[-19,40]],[[3819,1852],[37,14],[46,39],[35,52],[43,30],[44,15],[32,5]],[[3443,3372],[0,124]],[[3573,3435],[0,-108],[-35,0],[0,-19]],[[3443,3308],[0,64]],[[3207,3490],[81,-38],[0,-34],[59,0]],[[3347,3418],[96,-46]],[[3207,3308],[0,71],[-23,0],[-15,-18],[-28,-14],[1,89],[65,-1],[0,55]],[[3347,3418],[0,240]],[[3493,3786],[207,-107],[44,-20]],[[3056,4221],[51,19],[100,42]],[[3207,4282],[0,-206],[-24,0],[-26,-114]],[[3157,3962],[-102,53]],[[3755,3432],[15,-5],[162,-1]],[[3990,3425],[23,-23],[8,-20],[5,-48],[-15,-16],[-52,0],[-27,-11]],[[3932,3307],[-177,1]],[[3207,4282],[81,35]],[[3288,4317],[126,55]],[[3414,4372],[-158,-384]],[[3256,3988],[-21,-67]],[[3235,3921],[-78,41]],[[2126,4415],[-17,-22],[-31,-81],[-45,-87],[-6,-35]],[[2027,4190],[-34,78],[-37,23],[-36,76]],[[2155,4217],[-123,-79]],[[2032,4138],[-5,52]],[[2410,4547],[10,5],[138,1]],[[2558,4553],[0,-202]],[[2297,4296],[0,-170]],[[2220,4126],[-65,0],[0,91]],[[2154,4040],[-36,-47]],[[2118,3993],[-22,2],[-46,99],[-18,44]],[[3546,2415],[88,-105]],[[3969,2089],[-53,19],[-56,3],[-37,-7],[-59,-24]],[[3764,2080],[-10,10],[-41,14],[-25,18],[-24,44],[-6,43],[-14,27],[-26,14],[-137,2]],[[198,5007],[178,166],[35,30],[65,63],[52,42]],[[1306,4780],[-6,-55]],[[1300,4725],[-14,-103],[-1,-88]],[[1285,4534],[-19,0],[-21,-15],[-67,0],[0,15]],[[1103,4778],[8,2],[195,0]],[[1882,4988],[-15,-51],[3,-15],[46,-18],[39,5],[23,-5],[7,-49],[-14,-31]],[[1971,4824],[-28,-33],[-32,-20]],[[1767,4688],[-29,61]],[[1738,4749],[-135,283]],[[1603,5032],[150,-2],[33,-9],[60,5],[36,-38]],[[1934,5127],[-35,-55],[-12,-31],[4,-30],[-9,-23]],[[1603,5032],[-111,233]],[[1971,4824],[80,36],[113,10],[74,35],[61,35]],[[2085,4755],[-34,15],[-39,-20],[-57,0],[-44,21]],[[2484,5062],[116,0]],[[2600,5062],[24,-111],[10,-77]],[[2634,4874],[-26,-39]],[[2608,4835],[-124,39]],[[1885,3752],[36,-34]],[[1921,3718],[0,-81]],[[1921,3637],[-83,0],[-5,38],[-40,5],[1,55],[-81,2]],[[1957,3895],[87,0]],[[2044,3895],[-112,-144],[4,-26]],[[1936,3725],[-15,-7]],[[1921,3637],[0,-120]],[[1921,3517],[-34,-4],[-32,7],[-12,14],[3,54],[-21,-26],[-49,0],[-35,11]],[[1958,3976],[1,60],[35,43],[17,36],[21,23]],[[2118,3993],[7,-25]],[[2125,3968],[-32,-9],[-49,-64]],[[2306,3892],[-10,-4]],[[2296,3888],[-9,11],[-162,69]],[[2820,3232],[0,-279]],[[2820,2953],[-121,1],[-22,-23],[44,-44]],[[2721,2887],[-21,-28],[-52,-3]],[[2648,2856],[-171,148],[-75,61],[14,29],[5,31],[1,98],[8,9],[390,0]],[[1921,3517],[58,0],[69,-44],[57,-40],[77,-48],[33,0],[0,226]],[[2215,3611],[42,-2],[0,49],[38,0]],[[2295,3658],[40,0],[0,-48],[41,0]],[[2376,3610],[0,-80],[46,-10],[0,-20],[57,0],[220,-75]],[[2755,3407],[97,-33],[32,11],[56,0],[70,62],[-8,29],[40,0],[12,10],[0,80]],[[3054,3569],[39,-24],[9,-20],[22,-10],[37,12],[11,35],[35,0]],[[3207,3562],[0,-72]],[[3054,3107],[-77,66],[-47,46],[-7,13],[-103,0]],[[2648,2856],[69,-142],[27,-73],[3,-36],[1,-392]],[[2748,2213],[-70,-48],[-262,-175]],[[2416,1990],[-2,55],[-16,91],[-71,160],[-57,47],[-19,73],[-45,-4],[-16,-29],[-36,29],[-13,18],[48,-2],[59,11],[15,25],[-5,50],[-10,40],[-36,83],[-18,34],[-42,57],[-42,49],[-16,7],[-56,46],[-26,-10],[-6,-27],[18,-19],[-4,-27],[8,-24],[-21,-22],[-68,-15],[-30,21],[-28,54],[-4,36],[8,47],[-3,18],[-46,63],[-27,45],[-18,13],[-41,8],[-44,-5],[-22,8],[-13,17],[-70,137],[-68,127],[-6,24],[17,22],[-6,27],[-19,29]],[[3146,3006],[42,-147]],[[3188,2859],[-135,-1]],[[3053,2858],[0,171]],[[2422,3976],[0,-123],[12,-16]],[[2434,3837],[-84,35]],[[2422,3976],[45,1]],[[2467,3977],[20,-19],[0,-144]],[[2487,3814],[-53,23]],[[2895,3834],[30,-98]],[[2699,3736],[0,14]],[[2467,3977],[19,18],[43,-19],[29,0]],[[2558,3976],[0,-36]],[[2558,3784],[-71,30]],[[3188,2859],[318,0],[31,0]],[[3537,2859],[2,-63],[5,-45],[33,-65]],[[2376,3610],[3,2],[258,110],[7,28]],[[3056,3895],[-2,-53]],[[3054,3842],[0,-106]],[[2820,2953],[65,0],[-1,-95]],[[2884,2858],[-65,0]],[[2819,2858],[-64,0],[-34,29]],[[3054,3842],[157,-1]],[[3206,3658],[1,-96]],[[2819,2858],[1,-147],[88,-2]],[[2880,2305],[-132,-92]],[[2884,2858],[38,0]],[[3247,2994],[129,-44],[122,-34],[40,-14]],[[3538,2902],[-1,-43]],[[3303,5210],[66,-186]],[[3369,5024],[-191,0],[-25,9],[-42,34],[-29,12]],[[3082,5079],[-48,36],[-31,40]],[[3369,5024],[42,-120],[36,-116]],[[3447,4788],[-170,-85]],[[3277,4703],[-9,20],[-23,147],[-62,22],[-54,-8],[-15,44],[-39,92],[-1,34],[8,25]],[[3917,5214],[107,-101],[289,-276]],[[4313,4837],[-66,-37],[-367,-215]],[[3880,4585],[-3,15],[-15,233]],[[3862,4833],[-17,275],[54,86],[18,20]],[[3697,5425],[220,-211]],[[3862,4833],[-250,-15]],[[3612,4818],[0,22],[14,99],[1,198],[-17,73]],[[3612,4818],[-114,-7],[-51,-23]],[[3069,6023],[55,-51],[256,-244]],[[4800,3007],[62,29],[36,33],[29,46],[15,46],[2,37]],[[5152,3028],[-86,-43],[-107,-1],[-50,11],[-26,-4],[-34,-31],[-24,-13]],[[4825,2947],[-25,60]],[[2299,5278],[131,-1],[56,-71],[84,0]],[[2570,5206],[30,-144]],[[2299,5062],[0,216]],[[3932,3307],[-1,-176]],[[3256,3988],[46,16],[258,109],[6,6],[268,111],[72,4]],[[3906,4234],[-6,-10],[-288,-311]],[[3612,3913],[-119,-127]],[[3906,4234],[9,-24],[70,-82],[-28,-51],[-28,-103],[-41,-78]],[[3888,3896],[-58,-110]],[[3830,3786],[-43,21],[6,12],[-181,94]],[[3888,3896],[100,-43],[1,-12],[137,0],[-62,-35]],[[4064,3806],[-266,-132],[-25,1]],[[3773,3675],[57,111]],[[4064,3806],[25,-38],[36,-1],[0,-160],[-4,-26]],[[3960,3616],[-194,41]],[[3762,3657],[11,18]],[[3092,1340],[106,-14]],[[3248,1325],[-1,-76],[-9,-37],[2,-26],[24,-59],[0,-26],[-14,-27],[-6,-52]],[[3138,1093],[-34,62],[-12,46],[0,139]],[[1936,3725],[36,-11],[243,-103]],[[2296,3888],[-1,-230]],[[4315,3310],[23,115],[18,68],[-3,62]],[[1124,4079],[163,-4]],[[1287,4075],[1,-35],[107,2],[3,-97],[-71,-5],[4,-117],[-69,15],[-56,0],[-63,17]],[[1026,4376],[49,6],[2,29],[215,0]],[[1292,4411],[40,-79],[58,-83]],[[1390,4249],[-2,-5],[6,-166],[-107,-3]],[[1300,4725],[172,-13]],[[1472,4712],[0,-133],[87,0],[153,-146]],[[1407,4223],[-17,26]],[[1292,4411],[-7,18],[0,105]],[[1472,4712],[52,-16],[61,-29],[60,6],[44,33],[4,25],[14,23],[31,-5]],[[3445,1266],[-157,0],[0,59]],[[3092,1340],[-18,48],[-2,27],[18,69]],[[2531,5707],[-5,-119],[21,-189]],[[2299,5278],[0,144]],[[3051,1615],[-13,-27],[-121,-200],[-31,-48],[-44,-51],[-13,-32],[-4,-53],[0,-127]],[[2224,942],[-16,10],[-9,25],[17,28],[-8,12],[-32,14],[-5,34],[38,19],[25,22],[3,41],[25,119],[-3,45],[-37,55],[-69,49],[-24,-10],[17,-59],[-12,-12],[-24,9],[-16,57],[-16,21],[-15,50],[-13,95],[-29,60],[14,14],[-41,12],[-15,20],[33,1],[28,-8],[29,-28],[24,-1],[23,-13],[35,-10],[20,3],[30,-11],[88,4],[60,22],[12,30],[7,58],[23,63],[16,78],[6,56],[3,74]],[[1876,6591],[36,31],[109,107],[109,99],[46,53],[112,-106],[51,-54],[106,-101],[125,-121]],[[2301,6087],[-31,-10],[-14,9],[10,33],[-63,-13]],[[2558,4553],[97,11],[15,5]],[[2670,4569],[29,-247],[1,-123]],[[3237,4514],[219,-1]],[[3456,4513],[-17,-67],[-25,-74]],[[3288,4317],[0,124],[-82,0],[15,61],[16,12]],[[3605,1784],[110,32],[104,36]],[[4047,1739],[-330,-315]],[[2403,4674],[121,50]],[[2524,4724],[34,-171]],[[2608,4835],[-61,-100],[-23,-11]],[[2634,4874],[36,-305]],[[2634,4874],[78,25],[67,12]],[[2779,4911],[-6,-22],[2,-86],[34,-172],[4,-38]],[[2813,4593],[-62,-2],[-11,-12],[-70,-10]],[[2813,4593],[29,-14],[44,-31],[36,-12],[47,1]],[[2969,4537],[0,-168],[-77,-21],[18,-189]],[[4182,2267],[41,37],[122,54],[90,10],[44,12],[22,19],[24,36],[21,13],[101,44]],[[4647,2492],[125,-64]],[[4772,2428],[-246,-234],[-173,-163]],[[4353,2031],[-29,9],[-60,69],[-40,60],[-29,54],[-13,44]],[[1193,5074],[211,0],[30,-49],[38,-8],[57,0],[74,15]],[[1306,4780],[-3,42],[-26,66],[-84,186]],[[3525,2093],[76,-27],[79,-6],[42,4],[42,16]],[[2558,4126],[0,-150]],[[3447,4788],[18,-118],[0,-94]],[[3465,4576],[-9,-63]],[[3237,4514],[-38,2],[-46,18],[-23,27]],[[3130,4561],[15,10],[47,68],[20,21],[65,43]],[[3057,4550],[73,11]],[[3056,4221],[1,329]],[[3880,4585],[-113,-67],[-66,-37]],[[3701,4481],[-10,108],[-226,-13]],[[3701,4481],[-126,-51],[-161,-58]],[[4039,2414],[95,-52],[32,-36]],[[4166,2326],[17,-15],[-1,-44]],[[4353,2031],[-42,-41]],[[3736,2527],[32,-7]],[[939,5699],[229,220]],[[1168,5919],[22,-20],[91,-192]],[[1389,5482],[-12,-36],[0,-39],[-107,2],[-126,-180],[-17,-11]],[[1193,5074],[-55,121]],[[1168,5919],[159,151]],[[4313,4837],[157,-150]],[[4470,4687],[-103,-83],[-102,-102],[237,-195],[44,-38],[-41,-24],[355,-21]],[[4860,4224],[-65,-59],[-36,-9],[-130,-2],[-25,-4],[-19,-14],[-7,-71],[-17,-44],[-65,-105],[-32,-57]],[[4353,3555],[-206,21]],[[3906,4234],[-7,58],[-15,35],[0,249],[-4,9]],[[4470,4687],[381,-356],[55,-53]],[[4906,4278],[-27,-40],[-19,-14]],[[3549,1264],[-279,-266]],[[4800,3007],[-25,66],[-38,1],[-139,25],[-121,1]],[[5400,3025],[-303,-287]],[[5097,2738],[-135,87],[-40,30],[-45,23],[-30,34],[-22,35]],[[3910,2872],[68,24],[63,27],[17,20],[25,42]],[[4439,3035],[-66,-112],[-19,-18],[-82,-50],[4,-6],[0,-172]],[[4276,2677],[-139,69],[-42,26]],[[4858,3698],[23,22]],[[4982,3670],[0,-74],[71,-1],[0,-28],[39,-24],[9,-29],[0,-206]],[[5097,2738],[-325,-310]],[[4647,2492],[-46,23]],[[4601,2515],[11,16],[54,20],[30,31],[6,45],[23,57],[-3,61],[15,46],[-25,70],[-6,45],[12,35],[15,21],[40,31],[27,14]],[[4906,4278],[135,-127],[75,-83],[71,-66]],[[1393,3671],[-36,20],[-78,-2],[-99,33],[-62,12]],[[3910,2872],[-55,34],[-18,21],[-25,11]],[[4601,2515],[-325,162]],[[2969,4537],[88,13]],[[4166,2326],[-14,36],[-41,79],[-2,21],[18,64],[-14,55]],[[3755,2967],[-217,108]],[[3538,3075],[-62,30],[0,27]],[[3538,3075],[0,-173]]],"transform":{"scale":[0.00003624362508614738,0.000029675919197791043],"translate":[-77.119751,38.791645]},"objects":{"Tract_11_2025":{"type":"GeometryCollection","geometries":[{"arcs":[[0,1,2]],"type":"Polygon","properties":{"id":"14000US11001009507"}},{"arcs":[[3,-2,4,5,6,7,8]],"type":"Polygon","properties":{"id":"14000US11001009508"}},{"arcs":[[9,10,11,-7]],"type":"Polygon","properties":{"id":"14000US11001009509"}},{"arcs":[[12,13,14,15,16,17]],"type":"Polygon","properties":{"id":"14000US11001010602"}},{"arcs":[[18,19,20,21,22,23,24,25]],"type":"Polygon","properties":{"id":"14000US11001000804"}},{"arcs":[[26,27,28,29]],"type":"Polygon","properties":{"id":"14000US11001003902"}},{"arcs":[[30,31,32,33,-28]],"type":"Polygon","properties":{"id":"14000US11001003901"}},{"arcs":[[34,35,36,37,38]],"type":"Polygon","properties":{"id":"14000US11001009700"}},{"arcs":[[39,40,-35,41,42,43]],"type":"Polygon","properties":{"id":"14000US11001009801"}},{"arcs":[[44,45,46,47,48]],"type":"Polygon","properties":{"id":"14000US11001002801"}},{"arcs":[[49,50,-48,51,52,53,54,-32]],"type":"Polygon","properties":{"id":"14000US11001002802"}},{"arcs":[[55,56,-41,57]],"type":"Polygon","properties":{"id":"14000US11001009804"}},{"arcs":[[58,59,60,61,62]],"type":"Polygon","properties":{"id":"14000US11001001702"}},{"arcs":[[63,-63,64,65,66,67]],"type":"Polygon","properties":{"id":"14000US11001010300"}},{"arcs":[[-66,68,69,70,71]],"type":"Polygon","properties":{"id":"14000US11001001804"}},{"arcs":[[-69,-65,-62,72,73,74]],"type":"Polygon","properties":{"id":"14000US11001001901"}},{"arcs":[[-61,75,76,-73]],"type":"Polygon","properties":{"id":"14000US11001001902"}},{"arcs":[[77,78,79,80]],"type":"Polygon","properties":{"id":"14000US11001007807"}},{"arcs":[[81,82,83,84]],"type":"Polygon","properties":{"id":"14000US11001007806"}},{"arcs":[[-80,85,86,87]],"type":"Polygon","properties":{"id":"14000US11001007808"}},{"arcs":[[88,89,-19,90]],"type":"Polygon","properties":{"id":"14000US11001000902"}},{"arcs":[[91,92,93,94,95,96]],"type":"Polygon","properties":{"id":"14000US11001001500"}},{"arcs":[[97,98,99,100,101]],"type":"Polygon","properties":{"id":"14000US11001009603"}},{"arcs":[[102,103,104,-30,105,106,107,108]],"type":"Polygon","properties":{"id":"14000US11001000501"}},{"arcs":[[109,110,111,112]],"type":"Polygon","properties":{"id":"14000US11001003302"}},{"arcs":[[113,114,115,116,117,118,119]],"type":"Polygon","properties":{"id":"14000US11001008402"}},{"arcs":[[120,121,122,123]],"type":"Polygon","properties":{"id":"14000US11001009602"}},{"arcs":[[-25,124,125,126,127]],"type":"Polygon","properties":{"id":"14000US11001000802"}},{"arcs":[[128,-95,129,130,131,132,133]],"type":"Polygon","properties":{"id":"14000US11001001301"}},{"arcs":[[-71,134,135,-131,136]],"type":"Polygon","properties":{"id":"14000US11001002001"}},{"arcs":[[137,-101,138,139,140,141]],"type":"Polygon","properties":{"id":"14000US11001007708"}},{"arcs":[[142,-96,-129,143]],"type":"Polygon","properties":{"id":"14000US11001001402"}},{"arcs":[[144,145,146,147,148,149,150]],"type":"Polygon","properties":{"id":"14000US11001004702"}},{"arcs":[[151,152,153,154,155,156]],"type":"Polygon","properties":{"id":"14000US11001007601"}},{"arcs":[[157,158,159,160,161]],"type":"Polygon","properties":{"id":"14000US11001007504"}},{"arcs":[[162,163,164,165,-20,-90,166]],"type":"Polygon","properties":{"id":"14000US11001000903"}},{"arcs":[[167,168,169,170,-164,171]],"type":"Polygon","properties":{"id":"14000US11001001004"}},{"arcs":[[172,173,-108,174,175,176,177,178,179,180]],"type":"Polygon","properties":{"id":"14000US11001000102"}},{"arcs":[[181,182,183,184,185]],"type":"Polygon","properties":{"id":"14000US11001003701"}},{"arcs":[[186,187,188,189,-46,190]],"type":"Polygon","properties":{"id":"14000US11001002504"}},{"arcs":[[191,192,-176]],"type":"Polygon","properties":{"id":"14000US11001000101"}},{"arcs":[[-22,193,194,195,196]],"type":"Polygon","properties":{"id":"14000US11001000703"}},{"arcs":[[-49,-51,197,198]],"type":"Polygon","properties":{"id":"14000US11001002703"}},{"arcs":[[199,200,201,202]],"type":"Polygon","properties":{"id":"14000US11001004401"}},{"arcs":[[203,-172,-163,204]],"type":"Polygon","properties":{"id":"14000US11001001003"}},{"arcs":[[-33,-55,205,-182,206,207]],"type":"Polygon","properties":{"id":"14000US11001003802"}},{"arcs":[[-54,208,-183,-206]],"type":"Polygon","properties":{"id":"14000US11001003702"}},{"arcs":[[209,210,211,212,213,214]],"type":"Polygon","properties":{"id":"14000US11001005202"}},{"arcs":[[-166,215,-194,-21]],"type":"Polygon","properties":{"id":"14000US11001000803"}},{"arcs":[[-207,-186,216,217]],"type":"Polygon","properties":{"id":"14000US11001003801"}},{"arcs":[[-177,-193,218,219,220,221]],"type":"Polygon","properties":{"id":"14000US11001005503"}},{"arcs":[[-150,222,223,224]],"type":"Polygon","properties":{"id":"14000US11001005801"}},{"arcs":[[225,226,-210,227]],"type":"Polygon","properties":{"id":"14000US11001005302"}},{"arcs":[[-202,228,229,230,231,232]],"type":"Polygon","properties":{"id":"14000US11001004402"}},{"arcs":[[233,234,235,236,237]],"type":"Polygon","properties":{"id":"14000US11001010900"}},{"arcs":[[238,239,240,241,-56,242,243]],"type":"Polygon","properties":{"id":"14000US11001010400"}},{"arcs":[[244,-87,245,246,247]],"type":"Polygon","properties":{"id":"14000US11001009903"}},{"arcs":[[248,-248,249,250,251,252]],"type":"Polygon","properties":{"id":"14000US11001009904"}},{"arcs":[[-247,253,254,-250]],"type":"Polygon","properties":{"id":"14000US11001009905"}},{"arcs":[[-99,255,256,-253,257,258]],"type":"Polygon","properties":{"id":"14000US11001009906"}},{"arcs":[[-77,259,-9,260,261]],"type":"Polygon","properties":{"id":"14000US11001002102"}},{"arcs":[[262,263,264,265]],"type":"Polygon","properties":{"id":"14000US11001002201"}},{"arcs":[[-261,266,267,268,-264]],"type":"Polygon","properties":{"id":"14000US11001002202"}},{"arcs":[[-269,269,270]],"type":"Polygon","properties":{"id":"14000US11001002301"}},{"arcs":[[271,272,273,274,275]],"type":"Polygon","properties":{"id":"14000US11001006400"}},{"arcs":[[276,277,278,279,280,281]],"type":"Polygon","properties":{"id":"14000US11001006500"}},{"arcs":[[282,283,284,-278,285]],"type":"Polygon","properties":{"id":"14000US11001006600"}},{"arcs":[[286,287,288,289,290,-284]],"type":"Polygon","properties":{"id":"14000US11001006700"}},{"arcs":[[291,292,293,294]],"type":"Polygon","properties":{"id":"14000US11001006802"}},{"arcs":[[295,-160,296,297,298,299]],"type":"Polygon","properties":{"id":"14000US11001007408"}},{"arcs":[[300,301,302]],"type":"Polygon","properties":{"id":"14000US11001007409"}},{"arcs":[[-78,303,304,-84]],"type":"Polygon","properties":{"id":"14000US11001007809"}},{"arcs":[[305,306,307,308,309]],"type":"Polygon","properties":{"id":"14000US11001007903"}},{"arcs":[[-118,310,311,312]],"type":"Polygon","properties":{"id":"14000US11001008001"}},{"arcs":[[313,-112,314,315,316,317]],"type":"Polygon","properties":{"id":"14000US11001004600"}},{"arcs":[[-230,318,-318,319,320]],"type":"Polygon","properties":{"id":"14000US11001004801"}},{"arcs":[[-320,-317,321,322]],"type":"Polygon","properties":{"id":"14000US11001004802"}},{"arcs":[[323,-323,324,325,326]],"type":"Polygon","properties":{"id":"14000US11001004902"}},{"arcs":[[-156,327,328,329,330,-240,331,332]],"type":"Polygon","properties":{"id":"14000US11001007401"}},{"arcs":[[-299,333,-303,334,335]],"type":"Polygon","properties":{"id":"14000US11001007403"}},{"arcs":[[336,-119,-313,337,-287,338]],"type":"Polygon","properties":{"id":"14000US11001008100"}},{"arcs":[[339,340,-339,-283,341]],"type":"Polygon","properties":{"id":"14000US11001008200"}},{"arcs":[[-16,-120,-337,-341,342]],"type":"Polygon","properties":{"id":"14000US11001008302"}},{"arcs":[[343,-114,-15]],"type":"Polygon","properties":{"id":"14000US11001008410"}},{"arcs":[[344,345,346,-111]],"type":"Polygon","properties":{"id":"14000US11001008701"}},{"arcs":[[-338,-312,347,-309,348,349,-288]],"type":"Polygon","properties":{"id":"14000US11001008002"}},{"arcs":[[350,351,352,353,354,-346]],"type":"Polygon","properties":{"id":"14000US11001008702"}},{"arcs":[[-106,-29,-34,355,356]],"type":"Polygon","properties":{"id":"14000US11001004001"}},{"arcs":[[-208,-218,357,358,-356]],"type":"Polygon","properties":{"id":"14000US11001004002"}},{"arcs":[[359,360,-200,-184,-209]],"type":"Polygon","properties":{"id":"14000US11001003600"}},{"arcs":[[-217,361,-227,362]],"type":"Polygon","properties":{"id":"14000US11001004201"}},{"arcs":[[-363,-226,363,364,-358]],"type":"Polygon","properties":{"id":"14000US11001004202"}},{"arcs":[[365,-161,-296,366,367,-329]],"type":"Polygon","properties":{"id":"14000US11001007407"}},{"arcs":[[368,-205,-167,-89]],"type":"Polygon","properties":{"id":"14000US11001000904"}},{"arcs":[[369,370,371,-196,372]],"type":"Polygon","properties":{"id":"14000US11001000704"}},{"arcs":[[373,374,-104,375,376,377]],"type":"Polygon","properties":{"id":"14000US11001001304"}},{"arcs":[[-133,378,-378,379]],"type":"Polygon","properties":{"id":"14000US11001001303"}},{"arcs":[[380,-191,-45,-199,381,-375]],"type":"Polygon","properties":{"id":"14000US11001002704"}},{"arcs":[[382,383,384,385,-189]],"type":"Polygon","properties":{"id":"14000US11001002503"}},{"arcs":[[-222,386,387,388,-178]],"type":"Polygon","properties":{"id":"14000US11001005601"}},{"arcs":[[389,390,391,-387,-221]],"type":"Polygon","properties":{"id":"14000US11001005501"}},{"arcs":[[-389,392,393,-179]],"type":"Polygon","properties":{"id":"14000US11001005602"}},{"arcs":[[394,-365,395,396,-390,-220]],"type":"Polygon","properties":{"id":"14000US11001005502"}},{"arcs":[[-364,-228,-215,397,398,-396]],"type":"Polygon","properties":{"id":"14000US11001005303"}},{"arcs":[[399,400,401,402]],"type":"Polygon","properties":{"id":"14000US11001010202"}},{"arcs":[[-180,-394,403,404,405,406,-224,407,-148,408,409,-342,-286,-277,410,-403,411,412,413]],"type":"Polygon","properties":{"id":"14000US11001980000"}},{"arcs":[[-281,414,415,416]],"type":"Polygon","properties":{"id":"14000US11001007202"}},{"arcs":[[417,418,-213]],"type":"Polygon","properties":{"id":"14000US11001005203"}},{"arcs":[[419,420,421,-418]],"type":"Polygon","properties":{"id":"14000US11001005003"}},{"arcs":[[-322,422,-145,423]],"type":"Polygon","properties":{"id":"14000US11001004703"}},{"arcs":[[424,425,-327,426,-421]],"type":"Polygon","properties":{"id":"14000US11001005004"}},{"arcs":[[-416,427,428,-333,-274]],"type":"Polygon","properties":{"id":"14000US11001007201"}},{"arcs":[[429,-325,-424,-151,-225,-407]],"type":"Polygon","properties":{"id":"14000US11001005802"}},{"arcs":[[-316,430,431,-146,-423]],"type":"Polygon","properties":{"id":"14000US11001004704"}},{"arcs":[[432,433,434,-401]],"type":"Polygon","properties":{"id":"14000US11001010201"}},{"arcs":[[-432,435,-18,436,-409,-147]],"type":"Polygon","properties":{"id":"14000US11001010603"}},{"arcs":[[-315,-347,-355,-13,-436,-431]],"type":"Polygon","properties":{"id":"14000US11001010601"}},{"arcs":[[-402,-435,437,-276,438,-412]],"type":"Polygon","properties":{"id":"14000US11001011002"}},{"arcs":[[-434,439,-272,-438]],"type":"Polygon","properties":{"id":"14000US11001011001"}},{"arcs":[[-411,-282,-417,-273,-440,-433,-400]],"type":"Polygon","properties":{"id":"14000US11001010500"}},{"arcs":[[-280,440,441,-428,-415]],"type":"Polygon","properties":{"id":"14000US11001007203"}},{"arcs":[[-8,-12,442,443,444,-267]],"type":"Polygon","properties":{"id":"14000US11001009510"}},{"arcs":[[-444,445,446,447]],"type":"Polygon","properties":{"id":"14000US11001009511"}},{"arcs":[[448,449,450,451]],"type":"Polygon","properties":{"id":"14000US11001009400"}},{"arcs":[[-6,452,-452,453,454,-10]],"type":"Polygon","properties":{"id":"14000US11001009503"}},{"arcs":[[-455,455,-446,-443,-11]],"type":"Polygon","properties":{"id":"14000US11001009504"}},{"arcs":[[-60,456,-3,-4,-260,-76]],"type":"Polygon","properties":{"id":"14000US11001009505"}},{"arcs":[[457,-258,-252,458,459]],"type":"Polygon","properties":{"id":"14000US11001009907"}},{"arcs":[[460,461,-383,-188,462]],"type":"Polygon","properties":{"id":"14000US11001002501"}},{"arcs":[[-350,463,-292,-289]],"type":"Polygon","properties":{"id":"14000US11001006801"}},{"arcs":[[464,465,466,-14,-354]],"type":"Polygon","properties":{"id":"14000US11001008803"}},{"arcs":[[-466,467,468,469]],"type":"Polygon","properties":{"id":"14000US11001008804"}},{"arcs":[[-469,470,471,472]],"type":"Polygon","properties":{"id":"14000US11001008903"}},{"arcs":[[-472,473,-306,474,-116,475]],"type":"Polygon","properties":{"id":"14000US11001008904"}},{"arcs":[[-467,-470,-473,-476,-115,-344]],"type":"Polygon","properties":{"id":"14000US11001008802"}},{"arcs":[[476,-44,477,-236,478]],"type":"Polygon","properties":{"id":"14000US11001009810"}},{"arcs":[[-388,-392,479,-404,-393]],"type":"Polygon","properties":{"id":"14000US11001010800"}},{"arcs":[[-397,-399,480,-405,-480,-391]],"type":"Polygon","properties":{"id":"14000US11001010700"}},{"arcs":[[-123,-102,-138,481]],"type":"Polygon","properties":{"id":"14000US11001009604"}},{"arcs":[[482,483,-126]],"type":"Polygon","properties":{"id":"14000US11001000201"}},{"arcs":[[484,485,486,-483,-125,-24]],"type":"Polygon","properties":{"id":"14000US11001000300"}},{"arcs":[[487,488,-109,-174,489,-486,490,-371]],"type":"Polygon","properties":{"id":"14000US11001000400"}},{"arcs":[[491,-376,-103,-489]],"type":"Polygon","properties":{"id":"14000US11001000502"}},{"arcs":[[-42,-39,492]],"type":"Polygon","properties":{"id":"14000US11001009802"}},{"arcs":[[-243,-58,-40,-477,493]],"type":"Polygon","properties":{"id":"14000US11001009803"}},{"arcs":[[-135,-70,-75,494,-266,-461,495]],"type":"Polygon","properties":{"id":"14000US11001002002"}},{"arcs":[[-74,-262,-263,-495]],"type":"Polygon","properties":{"id":"14000US11001002101"}},{"arcs":[[-413,-439,-275,-332,-239,496,-234,497]],"type":"Polygon","properties":{"id":"14000US11001007301"}},{"arcs":[[-382,-198,-50,-31,-27,-105]],"type":"Polygon","properties":{"id":"14000US11001002702"}},{"arcs":[[-17,-343,-340,-410,-437]],"type":"Polygon","properties":{"id":"14000US11001008301"}},{"arcs":[[498,-68,499,-93]],"type":"Polygon","properties":{"id":"14000US11001001600"}},{"arcs":[[500,501,-229,-201,-361]],"type":"Polygon","properties":{"id":"14000US11001003500"}},{"arcs":[[502,503,-352,504]],"type":"Polygon","properties":{"id":"14000US11001009204"}},{"arcs":[[-242,505,-335,-302,506,-36,-57]],"type":"Polygon","properties":{"id":"14000US11001007304"}},{"arcs":[[507,508,-360,-53]],"type":"Polygon","properties":{"id":"14000US11001003000"}},{"arcs":[[-190,-386,509,-508,-52,-47]],"type":"Polygon","properties":{"id":"14000US11001002900"}},{"arcs":[[-510,-385,510,-501,-509]],"type":"Polygon","properties":{"id":"14000US11001003100"}},{"arcs":[[511,512,513,-511]],"type":"Polygon","properties":{"id":"14000US11001003200"}},{"arcs":[[-514,514,515,-113,-314,-319,-502]],"type":"Polygon","properties":{"id":"14000US11001003400"}},{"arcs":[[516,517,518,519]],"type":"Polygon","properties":{"id":"14000US11001007603"}},{"arcs":[[520,-377,-492,-488,-370,521]],"type":"Polygon","properties":{"id":"14000US11001000600"}},{"arcs":[[-197,-372,-491,-485,-23]],"type":"Polygon","properties":{"id":"14000US11001000702"}},{"arcs":[[522,-367,-300,-336,-506,-241,-331]],"type":"Polygon","properties":{"id":"14000US11001007404"}},{"arcs":[[-232,523,-425,-420,-212]],"type":"Polygon","properties":{"id":"14000US11001005001"}},{"arcs":[[-447,524,525,-503,526,527]],"type":"Polygon","properties":{"id":"14000US11001009201"}},{"arcs":[[528,-527,-505,-351,-345,529]],"type":"Polygon","properties":{"id":"14000US11001009203"}},{"arcs":[[-456,-454,-451,530,531,-525]],"type":"Polygon","properties":{"id":"14000US11001009301"}},{"arcs":[[-504,-526,-532,532]],"type":"Polygon","properties":{"id":"14000US11001009302"}},{"arcs":[[-244,-494,-479,-235,-497]],"type":"Polygon","properties":{"id":"14000US11001009807"}},{"arcs":[[533,534,-520,535,-297,-159]],"type":"Polygon","properties":{"id":"14000US11001007502"}},{"arcs":[[-155,536,-162,-366,-328]],"type":"Polygon","properties":{"id":"14000US11001007503"}},{"arcs":[[537,538,-144,539,-169]],"type":"Polygon","properties":{"id":"14000US11001001100"}},{"arcs":[[-134,-380,-521,540,-170,-540]],"type":"Polygon","properties":{"id":"14000US11001001200"}},{"arcs":[[541,-97,-143,-539]],"type":"Polygon","properties":{"id":"14000US11001001401"}},{"arcs":[[-450,542,543,544,-124,545,-307,-474,-471,-468,546]],"type":"Polygon","properties":{"id":"14000US11001011100"}},{"arcs":[[547,548,-544]],"type":"Polygon","properties":{"id":"14000US11001009000"}},{"arcs":[[-533,-531,-547,-465,-353]],"type":"Polygon","properties":{"id":"14000US11001009102"}},{"arcs":[[-43,-493,-38,549,-237,-478]],"type":"Polygon","properties":{"id":"14000US11001009811"}},{"arcs":[[-171,-541,-522,-373,-195,-216,-165]],"type":"Polygon","properties":{"id":"14000US11001001002"}},{"arcs":[[-100,-259,-458,550,-139]],"type":"Polygon","properties":{"id":"14000US11001007703"}},{"arcs":[[-459,-251,-255,551,552]],"type":"Polygon","properties":{"id":"14000US11001007707"}},{"arcs":[[553,-141,554,555,-152]],"type":"Polygon","properties":{"id":"14000US11001007709"}},{"arcs":[[556,-85,-305,557,-256,-98,-122]],"type":"Polygon","properties":{"id":"14000US11001007803"}},{"arcs":[[-304,-81,-88,-245,-249,-257,-558]],"type":"Polygon","properties":{"id":"14000US11001007804"}},{"arcs":[[-460,-553,558,-518,559,560]],"type":"Polygon","properties":{"id":"14000US11001009902"}},{"arcs":[[-379,-132,-136,-496,-463,-187,-381,-374]],"type":"Polygon","properties":{"id":"14000US11001002600"}},{"arcs":[[-549,561,-82,-557,-121,-545]],"type":"Polygon","properties":{"id":"14000US11001009601"}},{"arcs":[[-484,-487,-490,-173,562,-127]],"type":"Polygon","properties":{"id":"14000US11001000202"}},{"arcs":[[-185,-203,-233,-211,-362]],"type":"Polygon","properties":{"id":"14000US11001004300"}},{"arcs":[[-464,-349,-308,-546,-482,-142,-554,563,-293]],"type":"Polygon","properties":{"id":"14000US11001006804"}},{"arcs":[[-107,-357,-359,-395,-219,-192,-175]],"type":"Polygon","properties":{"id":"14000US11001004100"}},{"arcs":[[-398,-214,-419,-422,-427,-326,-430,-406,-481]],"type":"Polygon","properties":{"id":"14000US11001010100"}},{"arcs":[[-231,-321,-324,-426,-524]],"type":"Polygon","properties":{"id":"14000US11001004901"}},{"arcs":[[-149,-408,-223]],"type":"Polygon","properties":{"id":"14000US11001005900"}},{"arcs":[[-140,-551,-561,564,-555]],"type":"Polygon","properties":{"id":"14000US11001009901"}},{"arcs":[[-117,-475,-310,-348,-311]],"type":"Polygon","properties":{"id":"14000US11001007901"}},{"arcs":[[-500,-67,-72,-137,-130,-94]],"type":"Polygon","properties":{"id":"14000US11001001803"}},{"arcs":[[-368,-523,-330]],"type":"Polygon","properties":{"id":"14000US11001007406"}},{"arcs":[[565,-530,-110,-516]],"type":"Polygon","properties":{"id":"14000US11001003301"}},{"arcs":[[-556,-565,-560,-517,-535,566,-153]],"type":"Polygon","properties":{"id":"14000US11001007604"}},{"arcs":[[-567,-534,-158,-537,-154]],"type":"Polygon","properties":{"id":"14000US11001007605"}},{"arcs":[[-290,-295,567,568]],"type":"Polygon","properties":{"id":"14000US11001006900"}},{"arcs":[[-270,-268,-445,-448,-528,-529,-566,-515,-513]],"type":"Polygon","properties":{"id":"14000US11001002302"}},{"arcs":[[-265,-271,-512,-384,-462]],"type":"Polygon","properties":{"id":"14000US11001002400"}},{"arcs":[[-285,-291,-569,569,-441,-279]],"type":"Polygon","properties":{"id":"14000US11001007000"}},{"arcs":[[-570,-568,-294,-564,-157,-429,-442]],"type":"Polygon","properties":{"id":"14000US11001007100"}}]}}}