{"type":"Topology","arcs":[[[22999,12216],[0,14]],[[22999,12230],[95,11],[0,-14]],[[23094,12227],[-17,-18],[6,-34],[-6,-36],[-24,-24]],[[23053,12115],[-55,0]],[[22998,12115],[1,101]],[[8432,3697],[105,62],[61,31]],[[8598,3790],[97,51]],[[8695,3841],[24,29],[61,126],[14,15],[30,17]],[[8824,4028],[1,-45],[-8,-26],[29,-31]],[[8846,3926],[-8,-7],[-1,-43],[-21,-34],[-21,-16],[22,-13],[-29,-34],[-35,-3],[-25,-17],[-42,-15],[-37,-3],[-34,-18],[-33,-27],[-72,-21],[-31,-35],[-16,-9]],[[8463,3631],[-31,66]],[[8892,3906],[12,19],[27,21],[51,-17],[4,-20],[26,-8],[44,20],[59,20],[45,-22],[39,26],[27,6],[9,29],[44,18],[33,-1]],[[9312,3997],[15,-14],[36,-47],[8,-20],[-3,-70],[46,-231],[-2,-68],[-74,-6],[-37,13],[-32,46]],[[9269,3600],[-18,26],[-42,43]],[[9209,3669],[-36,37],[-26,16],[-48,17],[-52,39],[-89,42],[-25,3],[-19,41],[-18,24],[-4,18]],[[29993,783],[58,15],[72,1],[71,13]],[[30194,812],[0,-105]],[[30194,707],[-94,0]],[[30100,707],[-40,-25],[-65,6],[-2,95]],[[30029,1137],[3,0]],[[30032,1137],[27,-11],[43,-37]],[[30102,1089],[47,-54],[2,-42]],[[30151,993],[-90,1],[-17,5]],[[30044,999],[5,7],[0,74],[-64,1],[0,31],[32,0],[12,25]],[[29757,16455],[118,1],[366,6],[238,3],[81,4],[664,2],[380,-2],[79,2],[659,1],[31,-1],[464,3],[61,1],[342,1],[580,2],[23,2]],[[33843,16480],[0,-571],[1,-570],[3,-216],[0,-340],[2,-790],[1,-56],[0,-551],[1,-115],[0,-472],[0,-447],[0,-78],[1,-713],[-1,-86],[2,-532],[-1,-74],[0,-246]],[[33852,10623],[-309,1],[-312,0],[-297,0],[-190,-2],[-377,-3],[-75,-4],[-264,-3],[-113,-5],[-103,2],[-663,-6],[-66,3],[-145,2]],[[30938,10608],[-525,5],[-75,-3],[-238,1],[-213,-1],[-94,-6]],[[29793,10604],[1,105],[-1,428],[-2,43],[-2,179],[1,237],[-2,150],[-24,2],[1,90],[-6,51],[4,46],[-4,76],[3,184],[6,149],[-3,8],[1,160],[0,661],[1,35],[0,460],[-4,279],[7,91],[1,92],[-5,666],[-1,19],[-2,417],[4,270],[-1,92],[-3,42],[-1,212],[-2,465],[-3,142]],[[17816,23420],[114,0],[240,-5]],[[18170,23415],[221,-2],[605,-2],[2,2],[349,-2]],[[19347,23411],[96,-1],[0,6],[157,-2],[20,1],[584,-8],[311,0],[294,-3],[193,1],[98,0],[129,-4],[159,4],[25,-2],[169,-3],[197,1],[239,-1],[346,0],[0,33],[258,2],[604,1],[346,-1],[-2,11],[327,-1],[253,1],[1,-4],[240,5]],[[24391,23447],[6,-281],[-29,-1],[0,-138],[-10,-821],[-1,-463]],[[24357,21743],[1,-298],[0,-588],[25,0],[0,-294],[9,-272],[-2,-348]],[[24390,19943],[-1,-201],[1,-421],[3,-751],[-40,0],[0,-145],[-3,-295],[0,-102],[-3,-749],[4,-36],[2,-290],[3,-287],[-2,-241]],[[24354,16425],[-294,-4]],[[24060,16421],[-338,-4],[-193,1],[-190,-4],[-717,-2],[-138,-2],[-289,0],[-177,-3],[-80,-3],[-281,2],[-95,-4],[-386,3],[-95,0]],[[21081,16405],[-272,0],[-399,0],[-206,2],[-402,-1],[-202,3],[-533,-1],[1,52]],[[19068,16460],[-1,363],[-13,1],[-1,373],[2,296],[-1,382],[2,92],[-4,36],[1,129],[1,402],[-68,-1],[-2,379],[-2,190],[3,93],[-1,129],[-5,418],[1,41],[2,377],[-1,379],[3,131],[-3,161],[-88,0]],[[18893,20831],[4,453],[5,587],[-28,3],[-23,-14],[-19,18],[0,32],[13,12],[-18,18],[-38,8],[-20,-4],[-18,20],[1,29],[-18,23],[-25,2],[-20,12],[2,34],[18,36],[57,10],[47,50],[-10,39],[-38,7],[-15,11],[12,36],[6,46],[17,29],[-48,64],[-33,-9],[-12,-22],[-50,4],[-5,67],[-10,46],[8,34],[-18,24],[-2,25],[18,33],[-15,11],[17,41],[-9,28],[-40,-8],[-23,11],[-59,-34],[-55,-9],[-18,-12],[-61,22],[-16,29],[-46,23],[-23,-5],[-30,13],[19,35],[-17,19],[-36,-3],[-15,8],[-56,-5],[-13,37],[17,76],[-27,46],[33,9],[7,42],[-7,34],[21,30],[-35,37],[-46,16],[-21,46],[-49,39],[-9,13],[22,36],[-8,26],[-28,19],[-1,51],[-22,-22],[-91,11],[-9,20],[-24,12],[2,22],[-26,31],[-29,12],[9,19]],[[20895,21861],[-28,-13],[-10,-16],[-32,-7],[-16,-21],[-15,-35],[11,-47],[25,1],[17,-13],[13,-29],[50,23],[33,57],[8,-4],[-5,-47],[11,-15],[16,30],[52,47],[28,18],[12,-7],[76,-2],[1,20],[42,19],[-2,14],[26,38],[-3,24],[6,60],[-33,25],[14,17],[-21,31],[3,27],[30,13]],[[21204,22069],[14,8],[15,28],[-45,19],[-54,44],[-21,24],[-103,77],[-13,14],[-73,121],[-60,-1],[-52,24],[-98,2],[-7,-68],[8,-31],[39,-26],[24,-25],[11,-50],[42,-30],[4,-30],[35,-12],[24,-22],[-130,-55],[-20,-2],[-35,13],[-58,-56],[-1,-32],[39,-6],[43,25],[21,-28],[-4,-26],[-63,-15],[4,-28],[44,7],[31,-24],[18,-4],[10,-25],[45,-3],[57,-15]],[[7678,3444],[31,39],[24,-19],[25,-3],[21,15],[27,0],[52,26],[27,3],[56,-5],[61,11],[39,20],[29,6],[30,-5],[32,4],[128,70],[75,34],[97,57]],[[8463,3631],[8,-36],[25,-39],[10,-25],[-3,-35],[-48,-152]],[[8455,3344],[2,-24],[-19,-54],[-38,-17],[-53,-36],[-43,-6],[-10,-25],[-1,-33],[-33,9],[-42,3],[-26,-10],[-17,13],[-35,-12],[-2,17],[-32,-16],[-30,-3],[-14,-14],[9,-44],[-8,-32]],[[8063,3060],[-20,24],[-28,11],[-25,0],[-39,-35],[-25,-8],[-25,4],[-33,22],[-23,-6],[-16,7],[-11,22],[-28,18],[-4,15],[21,36],[-63,5],[-7,17],[17,37],[-34,30]],[[7720,3259],[47,22],[10,26],[-35,22],[-4,11],[-48,1]],[[7690,3341],[1,34],[-32,-5],[-18,14],[17,40],[20,20]],[[22433,12140],[49,1],[46,12],[29,14],[30,25],[49,-22],[72,-13],[4,-6]],[[22712,12151],[-19,-40],[-18,-11],[-20,10]],[[22655,12110],[-40,17],[-15,-17],[9,-23],[52,-21],[-2,-34],[-41,-33],[-23,-4],[-37,7],[-65,72],[-13,-5],[-14,-24],[-34,-7]],[[22432,12038],[10,39],[-9,63]],[[26908,21123],[15,-6],[34,5],[49,-34],[8,-20],[44,3],[22,-6],[10,12],[30,0],[-17,38],[-44,127],[32,5],[138,-1],[47,21],[30,4],[134,2],[19,-11],[28,-30],[18,-5],[87,-1],[1,71],[24,5],[29,-7],[37,-18],[40,1],[17,15],[24,5],[0,45],[19,38],[34,40],[6,42],[10,169],[24,20],[11,23]],[[27868,21675],[46,-5],[25,23],[89,-3],[89,-24],[411,3],[40,-9],[58,-30],[46,-11],[120,-3],[75,2]],[[28867,21618],[1,-141],[-3,-190],[-1,-121],[11,-266],[14,0]],[[28889,20900],[0,-176],[-4,-295],[-2,-118],[1,-57],[0,-354],[1,-51],[-2,-135],[-3,-579],[0,-332],[-1,-198],[13,1],[-9,-506],[-1,-320],[-3,-501],[-2,-216],[2,-279],[3,-98],[1,-212],[4,-26]],[[28887,16448],[-279,-3],[-505,1],[-47,-1],[-585,-5],[-359,-4]],[[27112,16436],[-6,99],[-15,62],[-12,97],[-43,208],[-69,205],[-9,44],[5,45],[41,114],[6,32],[-7,286],[-15,105],[-15,443],[-5,147],[2,13],[34,138],[20,231],[38,155],[27,176],[21,215],[8,133],[-69,0],[-14,-7],[-73,-15],[-26,-16],[-137,-25],[-29,-11],[-20,1],[-52,17],[-22,-17],[-69,-7],[-34,12],[1,37],[-64,5],[-36,-4],[-25,8],[-39,0],[-36,16],[-31,-26],[-24,-1],[-38,20],[-61,-2],[-30,5],[-56,0],[-68,11],[-26,-7],[-24,25],[-2,52],[-9,59],[-54,36],[-14,-5],[-27,20],[-53,7],[-38,30],[-22,8],[-25,26]],[[25772,19636],[-4,61],[3,50],[21,109],[-10,57],[12,64],[1,52],[-12,103],[2,73],[18,66],[24,57],[6,31],[0,146],[-2,60],[14,28],[71,63],[163,132],[95,73],[50,43],[63,62],[52,43],[26,37],[1,-75],[16,-35],[59,-59],[50,-2],[45,-29],[35,-62],[5,-21],[31,-25],[55,-21],[21,0],[15,-15],[63,-22],[5,10],[80,9],[48,-7],[24,32],[37,61],[21,6],[-6,53],[-25,55],[-22,20],[10,25],[-9,23],[3,26],[48,-5],[16,-8],[12,45],[-43,27],[-28,30],[-24,41]],[[24390,19943],[33,8],[26,-15],[31,-1],[33,-38],[20,2],[35,-31],[78,-17],[28,-16],[57,-10],[22,-20],[64,-20],[36,-20],[43,-2],[30,18],[51,-49],[68,0],[25,11],[39,-16],[43,-49],[46,-36],[17,-31],[24,-28],[32,-20],[12,-18],[54,-39],[32,-9],[17,-14],[51,-57],[5,-21],[24,-18],[54,61],[52,48],[47,61],[29,25],[9,19],[43,23],[31,10],[41,2]],[[27112,16436],[-237,1],[-22,-2],[-278,1],[-327,-3],[-512,-4],[-92,1],[-562,-2],[-42,-2],[-605,-2],[-81,1]],[[24318,26269],[467,0],[73,44],[321,1],[386,0],[486,1],[684,-2],[743,0]],[[27478,26313],[2,-31],[34,-120],[5,-27],[-4,-106],[-16,-162],[-39,-221],[-2,-20],[1,-140],[18,-88],[0,-227],[-15,-49],[-79,-116],[-14,-33],[-65,10],[-90,4],[-56,26],[-62,6],[-19,-14],[-90,0],[-28,17],[-50,7],[-20,-12],[-27,-37],[-16,-8],[-67,0],[-46,-16],[-13,-30],[1,-28],[11,-26],[-5,-27],[-14,-25],[-4,-65],[32,-42],[15,-64],[-36,-86],[-43,-39],[-54,-26],[-23,-41],[4,-19],[49,-46],[-57,-61],[-16,-32],[-48,-28],[-12,-42],[10,-25],[6,-36],[36,-66],[-2,-18],[-27,-47],[-8,-25],[2,-34],[-38,-44],[-9,-40],[-29,-23],[-12,-23],[0,-44],[13,-39],[0,-29],[11,-37],[-9,-33],[-41,-7],[-25,-14],[-27,1],[-57,-38],[-17,-38],[-13,-9],[-18,-48],[-8,-70],[-29,0],[9,-23],[-8,-15],[-44,-12],[-55,7],[-8,-5],[-43,11],[-27,-5],[46,-74],[41,-95],[151,-210],[162,-242],[73,-183],[33,-56],[28,17],[12,36],[31,-6],[11,20],[48,-13],[14,26],[18,-15],[21,8],[39,-26],[75,-13],[18,23],[-13,28],[22,7],[6,47],[9,25],[28,10],[15,23],[-2,23],[19,21],[31,-5],[24,-12],[18,-27],[2,-41],[12,-16],[-2,-32],[9,-30],[16,-14],[9,-61],[-16,-28],[-45,-58],[-10,-25],[44,-73],[-71,-38],[-20,-26],[8,-76],[-19,-49],[-5,-28],[0,-130],[-34,-158],[-1,-54]],[[26908,21801],[-36,18],[1,32],[-16,0],[-14,28],[-26,19],[-105,-4],[-6,-67],[2,-40],[-101,-3],[-56,22],[-118,61],[14,-37],[41,-61],[0,-87]],[[26488,21682],[-50,-2],[-29,-18],[-50,-87],[-45,-53],[-57,-82],[-25,-24],[-74,-42],[-79,-23]],[[26079,21351],[24,15],[2,18],[-30,64],[-5,21],[-71,92],[-17,34],[-24,-5],[-93,7],[-35,17],[-34,1],[-27,-11],[-28,11],[-58,4],[-28,-11],[-39,-3],[-39,6],[-70,-22],[-41,40],[-39,-3],[-48,4],[-143,-3],[-29,23],[-40,3],[-67,23],[-88,21],[-18,-14],[-60,-5],[-52,11],[-31,-36],[-53,-1],[-16,-15],[-2,-51],[-46,47],[-32,11],[-35,-5],[-78,-34],[-24,-1],[-5,-17],[-40,27],[-7,33],[-39,23],[-10,28],[-20,-9],[-47,19],[-10,22],[-30,13]],[[24391,23447],[-4,401],[-1,448],[-20,92],[0,281],[2,662],[1,47],[-16,72],[-27,0],[-9,709],[1,110]],[[27478,26313],[238,0],[781,0],[293,0],[112,-2]],[[28902,26311],[0,-78],[1,-299],[-1,-469],[9,0],[-4,-85],[-6,-325],[0,-148],[-41,4],[-1,-116],[0,-320],[0,-627],[1,-227],[-2,-82],[1,-237],[-3,-93],[17,-1],[-2,-181],[1,-128],[-1,-184],[-4,-208],[-3,-301],[0,-214],[-3,-120],[6,-254]],[[27868,21675],[-31,-4],[-24,7],[-26,-15],[-21,3],[-40,-15],[-82,-8],[-40,-16],[-32,11],[-94,-4],[-25,-10]],[[27453,21624],[2,32],[21,15],[-77,13],[-88,1],[-177,-4],[-36,1],[1,-47],[-143,22]],[[26956,21657],[-47,7]],[[26909,21664],[-1,137]],[[26079,21351],[20,1],[168,4],[20,23],[75,0],[27,10],[23,-8],[93,2],[2,34],[32,9],[83,5],[24,13],[26,-8],[48,22],[89,12]],[[26809,21470],[0,-106],[32,-47],[34,-31],[11,26],[31,-43],[3,-15],[-26,-32],[16,-51],[-2,-48]],[[29993,809],[51,31],[42,15],[105,54]],[[30191,909],[32,12],[41,-17]],[[30264,904],[49,-16],[90,-7]],[[30403,881],[-4,-31]],[[30399,850],[-35,-4],[-148,-29]],[[30216,817],[-22,-5]],[[29993,783],[0,26]],[[9654,26309],[7,-34],[-31,-57],[14,-15],[-9,-22],[11,-16],[6,-38],[-2,-36],[18,-5],[17,-33],[28,-26],[-13,-25],[35,-3],[23,-28],[22,-4],[25,-38],[21,-18],[8,-21],[-15,-12],[20,-42],[-11,-23],[61,6],[41,-49],[15,-4],[50,-52],[4,-16],[23,-14],[11,-24],[-5,-38],[10,-24],[20,-11],[-10,-16],[16,-24],[-15,-31],[29,-11],[-11,-63],[42,-52],[-5,-25],[12,-47],[12,-22],[3,-40],[-11,-10],[-1,-29],[-16,-20],[-29,-16],[-20,-31],[42,-97],[35,-67],[15,-14],[90,-43],[15,-35],[-1,-32],[-18,1],[-7,-40],[-27,8],[-25,18],[-30,-11],[-27,-55],[-14,-5],[17,-32],[-33,-1],[-67,-13],[-21,-15],[-24,6],[-26,-8],[-29,12],[-29,-3],[-31,-11],[-33,-41],[-38,-7],[-27,-17],[46,-60],[6,-48],[17,-33],[-29,-19],[-6,-16],[-31,-18],[-15,-26],[5,-49],[21,-37],[-1,-25],[19,-10],[18,-45],[3,-31],[-14,-33],[32,-12],[35,-49],[50,-17],[42,1],[51,9],[40,-15],[33,-24],[26,-9],[43,7],[20,-28],[68,1],[16,-22],[2,-31],[-26,-25],[7,-22],[-16,-19],[-8,-55],[-12,-24],[4,-18],[-21,-21],[-2,-33],[13,-45],[22,-14],[2,-22],[-36,-26],[8,-67],[-47,-7],[-10,-23],[13,-14],[-9,-19]],[[10140,23555],[-51,-1],[-15,-21],[-27,-9],[-18,-26],[-28,-2],[-58,-80]],[[9943,23416],[-22,4],[-11,-19],[-39,-10],[-7,-15],[-24,1],[-7,-15],[-53,-40],[-31,11],[-32,-39],[-10,-4],[-52,6],[-4,-26],[-21,-13]],[[9630,23257],[-45,-19],[-29,-18],[-17,6],[-26,-44],[-25,9],[-11,-10],[-6,-30],[-14,-14],[-23,18],[-4,18],[-26,8],[-1,-27],[29,-14],[8,-20]],[[9440,23120],[-80,-21],[-39,14],[-88,-22],[-21,7],[-48,0],[-29,-9],[-38,-2],[-18,-7],[-32,-41],[-19,-6],[-33,3],[-35,-10],[-116,2],[-120,33],[-41,-1],[-111,-20],[-53,-28],[-23,-7],[-60,-31],[-30,-20],[-30,-9],[-44,0],[1,-57],[34,12],[57,-8],[17,-23],[3,-27],[-13,-29],[-21,-24],[2,-25],[-28,-26],[-16,-37],[-44,-26],[-10,-55],[-24,-54],[-67,-50],[-132,-113],[-180,-75],[-94,-31],[-14,6],[-96,4],[-24,-3],[-47,-24],[-70,-42],[-35,-6],[-35,17],[-120,-12],[-48,-13],[-87,-59],[-91,-54],[-59,-10],[-75,-17],[-8,-14],[-3,-55],[6,-112],[-99,-105],[-259,-189],[-24,-5],[-39,2],[-26,-14],[8,-48],[-21,-25],[-38,-25],[-102,-42],[-16,-53],[-37,-35],[-50,-27],[-28,25],[-140,-32],[-102,-26],[-22,-13],[-13,-29],[-17,-70],[-21,-61],[-22,-39],[1,-18],[-15,-34],[-11,-40],[-57,-38],[-38,-4],[-31,-21],[-40,-8],[-81,-1],[-33,-7],[-34,11],[-54,-6],[-14,-12],[-41,-11],[-51,-26],[-29,-26],[-29,-34],[-18,-76],[-31,-16],[-13,-26],[-14,-4],[-20,-25],[-4,-23],[-19,-16],[-24,-4],[-20,-26],[-48,-23],[-26,-7],[-14,-21],[-73,-35],[-26,-3],[-28,-20],[-54,-13],[-11,25],[-28,-5],[-51,-25],[-18,9],[-5,27]],[[4841,20510],[0,104],[-319,-1],[-21,53],[-13,108],[-7,14],[33,17],[4,56],[-11,32],[36,29],[32,-1],[13,40],[-44,-5],[-25,4],[53,53],[-11,39],[-21,7],[-20,-9],[-14,19],[-3,24],[33,30],[21,-7],[-11,46],[-22,-2],[-22,-14],[-26,64],[-21,16],[10,26],[-32,41],[0,14],[21,14],[-5,23],[13,36],[-26,-2],[-31,33],[-6,27],[13,10],[9,27],[-37,17],[-13,33],[40,10],[7,21],[-22,15],[3,32],[-26,42],[-22,23],[-56,46],[-14,-25],[-31,13],[12,16],[-4,23],[-46,-15],[-13,6],[-20,-15],[-39,39],[-18,-7],[-19,29],[-14,34],[17,16],[20,34],[-8,31],[-15,11],[-59,19],[-26,24],[-12,43],[10,38],[-14,26],[-7,46],[7,18],[-13,61],[5,19],[-34,54],[-26,17],[-11,18],[-52,20],[2,46],[-7,48],[-25,31],[-58,25],[-29,5],[-43,37],[-5,24],[-42,53],[3,28],[19,20],[-2,31],[18,54],[-7,58],[3,33],[-6,33],[29,15],[15,40],[-12,72],[31,57],[-9,47],[3,34],[13,32],[-12,28],[-33,42],[-24,15],[-22,-5],[-15,15],[16,32],[-1,17],[24,3],[1,31],[-34,37],[-57,39],[-31,12],[-77,-17],[-1,-31],[-38,0],[-67,23],[-34,8],[-16,17],[-103,60],[31,20],[18,1],[10,40],[-20,37],[7,18],[-429,1],[-177,-2],[-605,0],[-204,0],[3,277],[-2,272],[-377,1],[-24,2],[-366,-2],[-235,-2],[-608,-1],[-125,2],[-130,-1]],[[5,24119],[-2,394],[-1,490],[-2,698],[0,617],[524,-2],[217,0],[538,2],[414,-58],[158,1],[505,2],[291,0],[297,7],[186,38],[396,2],[196,-16],[294,-4],[197,2],[374,43],[301,0],[192,-1],[861,-1],[192,-9],[121,0],[337,3],[131,0],[323,4],[156,0],[177,3],[392,7],[195,1],[388,5],[198,0],[357,2],[526,1],[98,-41],[122,0]],[[9440,23120],[-1,-19],[8,-111],[27,-65],[-4,-23],[20,-6],[53,12],[6,20],[-21,18],[27,43],[-10,24],[4,24],[-9,23],[4,38],[34,2],[35,-20],[7,29],[43,-15],[19,-19],[35,-6],[41,-21],[9,-22],[29,-13],[16,5]],[[9812,23018],[39,24],[9,17],[0,60],[-10,33],[17,30],[23,18],[-8,23]],[[9882,23223],[-1,28],[79,45],[12,77],[-5,21],[-24,22]],[[10140,23555],[16,-19],[-4,-30],[13,-57],[21,-35],[65,-31],[52,-2],[59,16],[65,54],[9,-33],[-38,-23],[5,-10],[17,-82],[10,-24],[36,-48],[-32,-54],[-22,-6],[-40,1],[-33,-27],[-26,-14],[-26,-34],[-7,-39],[84,-23],[178,-68],[129,-34],[34,-11],[55,-30],[45,-9],[74,11],[30,0],[403,-18],[172,-26],[189,-63],[18,-33],[16,-11],[90,12],[199,20]],[[11996,22775],[-1,-438]],[[11995,22337],[-1,-268],[1,-685],[-1,-535],[112,0]],[[12106,20849],[-1,-286],[1,-143],[-1,-156]],[[12105,20264],[-505,2],[-20,-1],[-144,2],[-191,0],[-106,1],[-201,-3],[0,-523],[2,-58],[-406,0],[-194,-2],[15,-565],[-425,-1],[-29,3],[-417,-4],[0,-194],[3,-242],[-6,-135],[-191,-10],[-674,0],[0,-16],[-196,-2]],[[8420,18516],[-17,34],[-7,45],[-20,25],[3,32],[-21,25],[-18,4],[-26,22],[-29,-11],[-40,-1],[-27,10],[-55,9],[-10,40],[-19,27],[3,24],[-23,93],[13,19],[-2,24],[-30,35],[-55,0],[-33,11],[-20,26],[4,24],[-22,46],[7,20],[-29,13],[-12,34],[-65,5],[-34,27],[-21,38],[-7,36],[-13,33],[-45,-5],[-15,-13],[-66,20],[-20,10],[9,43],[-10,42],[-28,19],[-43,5],[-22,-22],[-32,-20],[-22,-23],[-44,1],[-39,24],[-14,18],[-43,26],[-12,29],[-25,21],[-13,29],[-50,-6],[-35,-39],[-34,2],[-8,-26],[-30,-33],[-16,-34],[-30,-19],[-16,3],[-35,48],[-28,22],[-23,-6],[-9,-16],[10,-39],[-5,-20],[-33,-46],[-3,-14],[-31,-11],[-27,10],[-38,-13],[-14,-17],[-26,0],[-22,-33],[-8,-31],[-30,-39],[-1,-43],[-8,-30],[15,-60],[-15,-36],[-25,-18],[-27,13],[-5,-40],[-22,-42],[14,-54],[19,-18],[-1,-75],[-30,-4],[-21,-16],[-45,10],[-16,-30],[-29,-2],[-37,11],[-18,-29],[-36,-1],[-30,7],[-12,-30],[-44,2],[-20,-40],[-28,4],[-44,-44],[-10,-24],[-21,-1],[-35,19],[-7,-25],[-27,-21],[-39,-7],[-6,-33],[-45,-25],[-43,20],[-17,17],[-33,4],[-22,29],[-59,15],[-4,50],[-40,-10],[-29,-20],[-54,34],[-21,30],[6,38],[10,12],[-16,33],[7,44],[19,6],[17,26],[31,-3],[17,12],[58,5],[31,28],[25,11],[-35,40],[-35,-4],[-15,30],[15,26],[58,35],[-4,18],[-29,25],[-35,17],[-9,35],[-22,-2],[-51,36],[-56,8],[55,44],[-11,29],[8,29],[-5,27],[-22,20],[-34,13],[-55,12],[-7,37],[26,20],[19,23],[32,17],[0,41],[15,9],[-18,50],[-59,-30],[-29,-9],[-24,-19],[-56,-13],[-87,-7],[-52,0],[-26,26],[-29,11],[-9,23],[-19,20],[-28,0],[-66,42],[-39,-21],[-25,-38],[-49,-9],[-29,-29],[-28,-2],[-28,18],[-11,21],[8,36],[-6,36],[-76,3],[-7,9],[0,73],[-25,25],[1,18],[-43,67],[7,25],[-11,17],[-51,13],[-24,28],[-21,-5]],[[4841,19795],[0,715]],[[9882,23223],[-25,-23],[-186,-2]],[[9671,23198],[-10,0],[-1,42],[-18,0],[-12,17]],[[9812,23018],[-5,85],[-61,2],[-52,12],[-22,26],[-1,55]],[[26459,2213],[26,0],[-1,-44],[93,0],[0,-28]],[[26577,2141],[-26,0],[-17,-11],[-51,-3]],[[26483,2127],[-37,9]],[[26446,2136],[3,39],[10,38]],[[26455,2243],[130,-3],[70,8],[18,-7],[-2,-99]],[[26671,2142],[-94,-1]],[[26459,2213],[-4,30]],[[13629,17354],[1,42],[22,17],[12,29],[13,-2],[1,36],[-25,0],[2,23],[71,-4],[0,-28],[32,-20],[35,-1],[-3,-40],[-8,-31],[-18,-24],[-39,9],[-24,-22],[-51,-10],[-21,26]],[[30403,881],[70,-4]],[[30473,877],[28,10],[146,101],[-81,1]],[[30566,989],[1,95]],[[30567,1084],[307,-3],[33,9],[73,46],[18,15],[22,36],[34,93],[26,32],[119,63],[20,8],[1,300],[4,64],[0,71],[-7,25],[5,18],[3,263],[-93,1],[2,225],[364,160],[655,289],[244,110],[37,28],[14,21],[10,37],[14,97],[0,37],[-38,99],[-11,115],[7,40],[56,99],[48,63],[42,76],[28,24],[96,61],[38,36]],[[32738,3742],[82,-2],[278,2],[95,-1],[280,1],[188,-2],[193,1]],[[33854,3741],[0,-539],[0,-20],[0,-399],[1,-134],[-2,-443],[1,-344],[-3,-185],[-1,-329]],[[33850,1348],[-33,4],[-12,9],[-23,-5],[-39,-54],[-40,-36],[-4,-19],[12,-49],[-18,-17],[6,-19],[-22,-40],[-60,-46],[-2,-102],[-91,1],[-1,-290],[-24,-8],[-26,4],[-9,-14],[-21,14],[-22,-2],[-11,12],[-30,0],[-42,16],[1,268],[-277,1],[-1,-89],[-29,-5],[-102,1],[-50,21],[0,174],[-374,0],[-72,-7],[-339,1],[-143,-8],[-395,11],[-230,0],[-315,3],[-75,-11],[-58,-22],[-35,-21],[-154,-108],[-88,-43],[-51,-17],[-60,-4]],[[30491,852],[-92,-2]],[[30296,706],[55,1],[19,10],[27,31],[8,-16],[39,9],[6,23],[48,25],[13,25],[26,-12],[12,10],[-58,40]],[[33850,1348],[-1,-281],[0,-341],[2,-362],[-1,-320],[-66,2],[-106,-1],[-177,1],[-179,-1],[-53,1],[-184,-1],[-407,1],[-291,-2],[-541,0],[-94,1],[-304,-1],[-365,0],[-244,-3],[-469,-8]],[[30370,33],[-58,254],[-11,32],[-42,87]],[[30259,406],[-15,51],[-4,104],[8,9],[39,88],[9,48]],[[30103,1357],[0,16],[168,0]],[[30271,1373],[-2,-34],[-12,-37],[-22,-43],[-20,-24],[-19,-57],[0,-19]],[[30196,1159],[-46,0],[0,24],[-49,0]],[[30101,1183],[2,174]],[[30032,904],[-3,35]],[[30029,939],[42,-25],[94,50]],[[30165,964],[26,-55]],[[29993,809],[3,27],[32,45],[4,23]],[[10997,24599],[0,190],[196,-1],[-1,-190],[-195,1]],[[30194,707],[0,-55],[44,-1],[-1,56]],[[30237,707],[59,-1]],[[30259,406],[-130,-24],[-23,36],[-51,163],[44,32],[1,94]],[[30056,1378],[23,-16],[24,-5]],[[30101,1183],[0,-71]],[[30101,1112],[1,-23]],[[30032,1137],[0,47],[-23,0],[0,190],[28,18],[19,-14]],[[30270,916],[18,-11],[48,0]],[[30336,905],[32,11],[24,28]],[[30392,944],[47,24],[13,22],[32,0]],[[30484,990],[-8,-30],[-3,-83]],[[30264,904],[6,12]],[[30237,707],[0,47],[-7,31],[-14,32]],[[30288,992],[93,-1]],[[30381,991],[11,0],[0,-47]],[[30336,905],[1,26],[-26,1],[0,23],[-23,1],[0,36]],[[26488,21682],[143,-5],[80,-13],[30,-19],[67,-54]],[[26808,21591],[1,-81]],[[26809,21510],[0,-40]],[[26909,21664],[-94,14],[-7,-10],[0,-77]],[[26808,21591],[32,-13],[117,2],[-1,77]],[[27453,21624],[-28,3],[-27,-14],[-1,-35],[-16,-37],[-25,-9],[-26,13],[-34,-7],[-2,-36],[-36,-6],[-22,19],[-22,0],[-28,-17],[-16,6],[-29,-23],[5,-16],[-10,-21],[-19,6],[0,26],[-27,-6],[-14,14],[-18,-25],[-41,8],[-42,22],[-33,12],[-57,-6],[0,15],[-76,0]],[[36,9236],[70,23],[24,-2],[28,-23],[46,-3],[49,7],[44,-3],[17,18],[5,49],[18,64],[6,49],[-8,91],[8,41],[113,-2],[128,1],[245,-1],[217,2],[-3,-68],[3,-474],[3,-671],[3,-476],[120,-7],[5,-19],[-17,-160],[1,-33],[45,-1],[16,9],[33,-5],[3,55],[319,4],[2,-22],[56,24],[-1,-151],[138,1],[232,-2],[2,94],[94,1],[1,-176],[277,-1],[3,276],[-187,4],[0,89],[239,-1],[-16,35],[-24,25],[21,22],[10,27],[-7,35],[5,19],[0,42],[-23,85],[2,17],[-19,13],[-15,46],[-7,46],[6,56],[22,42],[-15,42],[25,3],[0,24],[-11,50],[12,30],[14,9],[43,-22],[23,3]],[[2479,8486],[1,-59],[99,0],[96,4],[370,12],[-1,-25],[240,-1],[302,-3],[313,5],[201,1],[-2,-38],[393,3],[348,-3]],[[4839,8382],[1,-380],[0,-378],[-1,-199],[-3,-775],[38,-1],[0,-172]],[[4874,6477],[0,-694],[0,-822],[-3,-434],[-3,-387],[-1,-308]],[[4867,3832],[-72,-4],[-613,4],[-296,1],[-604,5],[-606,1],[-405,0]],[[2271,3839],[-435,-1],[-185,0],[-558,2],[-464,0],[-369,3],[-218,1]],[[42,3844],[-1,514],[0,188],[-1,95],[-1,207],[0,558],[-1,285],[1,193],[-1,104],[1,400],[-2,279],[-1,474],[1,98],[-1,210],[0,202],[-1,221],[1,248],[-1,287],[2,483],[-2,151],[1,195]],[[2067,5381],[35,-21],[46,-16],[31,-20],[54,-54],[48,-18],[3,-22],[27,-37],[8,-33],[55,-109],[21,0],[7,27],[23,23],[48,-9],[24,-15],[8,-16],[-4,-51],[13,-32],[30,-29],[25,-16],[21,6],[26,35],[10,4],[50,-9],[17,-10],[21,6],[59,30],[15,28],[-63,37],[71,40],[28,26],[16,25],[-46,-6],[-28,25],[-29,17],[13,14],[29,49],[4,60],[-14,42],[-15,24],[40,1],[-13,23],[2,90],[-12,31],[-34,35],[-10,32],[-33,28],[-1,46],[-11,38],[11,4],[10,27],[-7,19],[-35,-4],[-70,18],[-18,0],[-18,-16],[-24,9],[-23,28],[-9,22],[-32,10],[-30,22],[-92,13],[-30,-23],[-8,-59],[42,-25],[27,-35],[4,-47],[-6,-30],[-23,-3],[-57,42],[-41,25],[-30,-3],[-55,19],[-59,-18],[1,-21],[27,-13],[11,-21],[4,-34],[-11,-58],[-27,-70],[-17,-30],[-5,-34],[15,-17],[-40,-16]],[[52,12236],[27,-17],[28,-31],[41,-16],[21,-1],[32,-13],[19,-21],[2,-43],[14,-60],[34,-6],[9,16],[33,28],[18,27],[46,49],[-53,65],[9,7],[59,6],[42,-12],[19,0],[59,-26],[71,-1],[74,26],[32,26],[5,28],[38,-10],[20,-34],[4,-26],[22,-1],[3,-53],[-11,-44]],[[769,12099],[0,-3],[-136,2],[-2,-156],[1,-200],[9,-20],[9,-77],[-5,-47],[-8,-19],[21,-17],[0,-48],[-8,-31],[20,-18],[12,-25],[-1,-345],[1,-323],[50,2],[-3,-94],[50,-1],[0,-285],[87,0],[1,-289],[-146,0],[-2,336],[-47,-1],[1,48],[-185,1],[3,45],[-89,0],[2,48],[-54,0],[2,85],[-51,0],[0,100],[-100,0],[5,96],[-159,1]],[[47,10864],[6,466],[-1,708],[0,198]],[[2301,14718],[1,371],[257,0]],[[2559,15089],[-22,-37],[-20,-21],[11,-28],[34,-42],[43,-16],[21,-19],[19,-34],[4,-38],[13,-20],[32,-9],[26,-35],[52,-15],[46,25],[75,-18],[13,-8],[109,-111],[29,-27],[31,-50],[10,-28],[225,-322],[9,-6],[145,-52],[30,11],[147,8],[48,-25],[46,1],[73,-24],[57,13],[34,-3],[30,-12],[32,-46],[19,-35],[22,-2],[32,21],[45,-4],[37,-38],[36,-1],[16,-8],[17,-34],[47,-47],[21,-34],[57,-177],[0,-29],[-14,-83],[10,-32],[35,-49],[46,-71],[78,-79],[21,-33],[27,-59],[45,-47],[68,-89],[20,-50],[35,-261],[24,-114],[4,-80],[11,-61],[5,-65],[-1,-56],[7,-16],[21,-14],[271,-21],[41,-8],[50,-27],[19,-5],[48,5],[25,-3],[146,-40],[24,1],[33,-9],[46,-38],[33,-13],[125,1]],[[5613,12297],[16,-21],[3,-20],[19,-12],[29,-61],[34,-32],[35,-10],[7,-35],[13,-1],[40,-30],[-7,-17],[24,-41],[-11,-6],[8,-33],[27,-20],[41,4],[26,-30],[76,-52],[116,-59],[31,-22],[70,-41],[20,-16],[142,-129],[18,-23],[20,-46],[53,-53],[14,-39],[0,-279],[7,-26],[95,-144],[44,-97],[17,-28],[115,-168],[50,-52],[139,-259],[7,-16],[19,-82],[10,-130],[12,-81],[11,-34],[71,-147],[130,-314],[30,-68],[9,-38],[8,-148],[6,-25],[124,-283],[23,-62],[5,-37],[2,-87],[11,-39],[99,-188],[11,-24],[47,-131],[17,-39],[46,-92]],[[7642,8334],[-129,1],[-517,8],[-189,0],[-252,3],[-233,4],[-18,-1],[-539,12],[-270,5],[-87,3],[-313,7],[-6,2],[-250,4]],[[2479,8486],[-4,581],[-3,483],[-227,0],[4,338],[-3,0],[-1,189],[1,342],[0,290],[0,487],[0,73],[-162,0],[-1,261],[1,193],[173,-1],[-1,419],[-2,559],[-3,737],[4,1],[1,389],[0,175],[45,1],[0,715]],[[11150,14436],[15,-12],[48,-60],[38,-62],[15,-18],[79,-64],[25,-13],[111,-33],[123,-52],[76,-15],[76,-22],[89,-39],[86,-52],[63,-57],[232,-184],[21,-14],[131,-67],[62,-42],[13,-22],[17,-62],[16,-28],[50,-28],[38,-15],[22,-16],[39,-40],[16,-25]],[[12651,13394],[-12,-7],[-32,23],[-27,28],[-45,1],[-44,-20],[-21,20],[-25,5],[-28,-13],[-8,-45],[28,-25],[-9,-27],[48,-39],[49,10],[22,-10],[46,-8],[23,-17],[26,5],[32,-7],[37,-20],[18,10],[57,-4],[38,5]],[[12824,13259],[23,-17],[50,24],[29,-37],[26,10],[18,-23],[31,1],[38,23],[25,-15],[25,16],[-14,35],[21,3]],[[13096,13279],[20,11],[-11,32],[28,4],[10,18],[-24,24],[13,27],[6,33],[18,6],[-8,32],[-18,30],[-20,7],[1,19],[26,2],[17,24],[2,21],[-13,27],[38,15],[-1,25],[28,16],[1,19],[17,12],[16,-9],[21,11],[12,30],[-31,19],[5,23],[31,9],[-4,25],[-41,-9],[-20,4],[-27,-9],[-70,2],[-1,51],[-68,-3]],[[13049,13827],[39,38],[188,156],[65,61],[77,81],[21,27],[268,385],[32,33],[40,16],[111,-14],[14,1],[113,45]],[[14017,14656],[4,-662],[-1,-116],[0,-262],[1,-387],[5,-121],[-4,-558],[-418,0],[-99,-1],[-144,-7],[-211,7],[-198,0],[-75,5],[-529,-7],[-78,6],[-120,3],[-53,-3],[-176,1],[-42,-8],[-54,-43],[-12,-40],[-14,3],[-7,-40],[-12,-37],[-14,10],[-36,-16],[-31,-38],[-41,-25],[-21,15],[-53,3],[-22,10],[-26,-13],[6,-18],[-62,9],[-20,-5],[-5,-34],[-34,-40],[-13,-32]],[[11408,12215],[-25,5],[-17,13],[-40,9],[-29,18],[-10,22],[1,49],[-37,51],[-27,61],[-17,4],[-41,-11],[-11,8],[-101,11],[-16,-26],[5,-18],[-25,-10],[-4,-19],[-28,-2],[-30,24]],[[10956,12404],[-30,70],[0,226],[85,0],[24,9],[21,34],[37,39],[25,16],[-2,234],[9,21],[-14,61],[4,19],[2,89],[0,195],[-4,226],[61,200],[-24,593]],[[11462,16670],[521,2],[0,-193],[576,-1],[0,-189],[393,-2],[183,0],[0,-94],[421,-1],[364,1],[92,-1]],[[14012,16192],[0,-459],[-2,-93],[4,-304],[4,-490],[-1,-30],[0,-160]],[[13049,13827],[-123,-3]],[[12926,13824],[-29,-37],[-35,-3],[-15,28],[-44,-4],[1,-17],[30,-7],[12,-19],[-16,-21],[33,-23],[-8,-31],[-21,-37],[-27,8],[-15,-16],[13,-23],[-10,-18],[-42,-9],[-7,-21],[-2,-65],[-13,-28],[-38,-27],[-42,-60]],[[11150,14436],[-9,4],[-23,48],[-4,35],[-24,22],[-29,12],[-42,52],[-26,9],[7,24],[-23,80],[10,28],[23,-25],[15,-4],[27,16],[33,-2],[30,-19],[32,-2],[41,24],[31,-20],[22,-2],[6,19],[-6,22],[46,21],[55,48],[10,-1],[35,31],[0,20],[-23,12],[-33,58],[-80,97],[-43,111],[-5,21],[-11,127],[1,16],[21,83],[25,55],[7,95],[33,79],[15,173],[43,82],[33,26],[48,24],[40,50],[-7,8],[8,52],[22,48],[32,31],[30,57],[16,7],[-31,52],[-23,31],[-44,76],[-4,29],[-27,45],[-11,35],[1,19],[-50,60],[30,59],[45,19],[4,34],[13,23]],[[22998,12115],[-125,-2]],[[22873,12113],[0,33]],[[22873,12146],[7,33],[16,3],[52,24],[51,10]],[[22474,12279],[-55,-5],[1,-46],[-5,-35],[14,-18],[4,-35]],[[22432,12038],[12,-51],[-2,-41],[-23,-22],[2,-11]],[[22421,11913],[-31,-7],[-34,-17],[-23,-19]],[[22333,11870],[-27,1],[-3,-27],[-16,-17],[-27,8],[-24,54],[-19,8],[7,24],[21,33],[-2,119],[16,47],[1,36],[-17,0],[-3,261],[-5,16],[100,-51],[67,-45],[72,-58]],[[22825,12238],[31,4],[-7,39],[29,8],[52,-19],[40,20],[30,-6]],[[23000,12284],[-1,-54]],[[22873,12146],[-21,7],[-44,-21]],[[22808,12132],[2,36]],[[22810,12168],[-4,42],[19,28]],[[22594,11970],[56,28]],[[22650,11998],[39,33],[41,20],[46,15],[32,24]],[[22808,12090],[0,-68]],[[22808,12022],[-19,0],[-8,-31],[-27,-20],[-26,-31],[-13,-1],[0,-30]],[[22715,11909],[-22,2],[-16,-11],[-28,-1],[-31,20],[-24,-11],[0,62]],[[22474,12279],[28,-21],[26,13],[62,0]],[[22590,12271],[32,1],[134,24],[18,9],[17,-34],[34,-33]],[[22810,12168],[-58,-16],[-40,-1]],[[22655,12110],[13,-59],[-18,-53]],[[22594,11970],[-47,-22],[-72,-25],[-54,-10]],[[24060,16421],[0,-144],[21,1],[-1,-94],[2,-380],[1,-279],[-1,-380],[2,-329],[-3,-811],[-9,1],[8,-872],[5,-817]],[[24085,12317],[-56,-20],[-22,-19],[-26,2],[-20,-26],[-39,-13],[-13,14],[-47,-10],[-86,10],[-14,36],[-25,14],[-44,-25],[-27,2],[-41,-29],[-45,-6],[-38,-25],[-8,-54],[-20,-3],[-19,30],[-32,25],[-37,16],[-27,20],[-33,42],[-58,2],[-15,7]],[[23293,12307],[-32,0],[-24,-28],[-21,-6],[-29,4],[-28,41],[-46,23],[-51,-15],[-12,-12],[-10,-36],[-40,6]],[[22590,12271],[-18,10],[-17,24],[-15,-10],[-20,13],[-18,31],[8,10],[-18,35],[-15,6],[-5,23],[-26,-11],[-15,22],[-26,8],[-2,18],[-25,24],[11,13],[-18,28],[28,18],[-36,35],[-1,28],[-18,52],[14,15],[-6,51],[-22,15],[24,11],[-33,43],[20,6],[1,23],[-16,49],[-35,7],[-1,14],[26,17],[-20,29],[-40,35],[9,16],[-32,48],[-20,0],[-17,15],[-12,51],[-30,1],[4,35],[-24,12],[9,35],[-22,22],[-26,12],[-18,47],[-20,4],[7,25],[-31,17],[2,24],[-45,6],[-21,10],[-17,40],[2,21],[-20,60],[-42,98],[-32,30],[-91,107],[-5,3],[-123,2],[1,55],[-13,66],[3,86],[-2,143],[13,65],[-4,22],[-23,25],[-29,21],[-25,36],[-8,54],[-20,36],[1,40],[17,45],[19,64],[-2,22],[-24,50],[-8,50],[-21,57],[-26,41],[-35,24],[-13,17],[-28,54],[-55,31],[-34,36],[-25,66],[-52,26],[-18,76],[-23,77],[-16,31],[-9,35],[-3,54],[-19,72],[-4,35],[-23,11],[-16,22],[-52,51],[-16,30],[-44,50],[-19,31],[-4,28],[67,127],[3,18],[35,67],[17,45],[32,47],[-8,25],[6,29],[-8,25],[6,86],[-10,34],[4,67],[-2,63],[-15,43],[-42,45],[-7,75],[21,70]],[[22808,12022],[14,6],[30,53],[25,4]],[[22877,12085],[4,-17],[-31,-47],[-14,-71],[5,-50]],[[22841,11900],[-92,-3],[-34,12]],[[9654,26309],[448,1],[17,-2],[293,3],[834,2],[518,1]],[[11764,26314],[-4,-113],[4,-53],[-1,-203],[5,-151],[-2,-114],[2,-212],[137,-1],[-1,-137],[0,-556],[-1,-81],[2,-344],[-2,-178],[1,-173]],[[11904,23998],[-1,-215],[1,-618],[92,-1],[0,-389]],[[15018,19794],[-99,1]],[[14919,19795],[49,95],[50,-1],[0,-95]],[[18421,5567],[78,-142],[8,-49],[-18,-42],[-43,-39],[-5,-13],[4,-39],[23,7],[15,-51],[1,-49],[31,11],[2,-13]],[[18517,5148],[-32,-3],[-72,3],[-28,6],[-37,17],[-21,3],[-59,-13],[-2,54],[-41,43],[-26,44],[-49,54],[20,-2],[9,35],[71,72],[14,33],[15,-1],[18,39],[74,33],[50,2]],[[20024,9450],[270,-3],[64,-2],[99,0],[815,-9],[144,-4],[346,1],[256,1],[80,-1],[306,7],[193,3],[283,7],[397,1],[286,0],[299,-2],[209,1]],[[24071,9450],[12,0]],[[24083,9450],[4,-175],[-3,-218],[-3,-811],[-2,-118],[-2,-399],[1,-127],[-2,-168],[0,-261],[4,0],[2,-570],[2,-148],[-1,-226],[2,-52],[-2,-81],[1,-199],[0,-510],[1,-11],[-1,-465],[5,-486],[1,-285],[2,-521],[2,-420],[5,-250],[6,-188],[2,-132],[-164,0],[-112,-4],[-399,-4],[0,8],[-206,-2],[-349,3],[1,-82]],[[22878,2548],[-45,2],[-46,-11],[-7,15],[-4,59],[9,9],[-2,64],[-15,12],[-51,-1],[-35,6],[-34,22],[-19,51],[-39,-2],[-13,8],[-8,34],[-11,12],[-3,100],[-14,13],[-30,-4],[-21,-19],[-51,-5],[-1,12],[-35,40],[-20,1],[-12,44],[-20,108],[11,59],[1,38],[-38,62],[-15,12],[-45,11],[-30,29],[-29,4],[-26,25],[-19,30],[-87,79],[-65,18],[-40,8],[-46,39],[-26,33],[-18,4],[-21,29],[-6,81],[15,16],[-10,20],[6,17],[-41,48],[-20,-7],[-24,9],[-27,41],[-37,31],[-46,17],[-3,13],[-37,23],[-41,2],[-12,13],[-31,-4],[-8,-11],[-37,-10],[-11,-13],[-23,6],[-29,-6],[-21,16],[-47,0],[-12,-9],[-48,11],[-27,-7],[-30,3],[-22,19],[-20,3],[-61,37],[-22,-5],[-29,-23],[-21,3],[-8,17],[-39,5],[-35,-12],[-34,22],[-40,13],[-11,19],[-23,2],[-29,49],[-19,18],[21,50],[1,22],[18,50],[-9,24],[17,32],[34,9],[24,24],[-6,79],[7,21],[-14,44],[16,6],[-9,53],[17,32],[-16,11],[-1,25],[-18,14],[5,30],[-16,29],[-1,32],[-14,29],[-2,30],[-30,19],[-2,32],[-13,18],[-26,13],[-5,28],[-51,44],[-21,6],[-29,25],[-10,-20],[-46,15],[-21,-36],[-29,-9],[-20,-20],[-22,-52],[-23,-20],[-13,9],[-20,-19],[-19,-5],[-30,-21],[-16,-2],[-9,-37],[-34,-19],[-19,-21],[-63,-29],[-10,12],[-27,7],[-35,-4],[-35,-24],[-36,-8],[-11,6],[-34,-7]],[[20133,4592],[1,22],[-15,16],[-60,50],[-41,21],[-31,23],[-47,20],[-24,1],[-6,13],[11,31],[-26,42],[-16,4],[-18,42],[-8,46],[1,67],[14,19],[25,8],[0,40],[-16,27],[17,26],[-1,16],[-24,0],[8,37],[-26,11],[5,20],[-15,27],[-15,-16],[-29,4],[-29,21],[-4,15],[-51,22],[-10,16],[-48,27],[-42,10],[-17,21],[-5,53],[-33,18],[-25,4],[-44,18],[-8,19],[-30,-3],[-2,58],[-32,25],[-12,32],[-34,10],[9,36],[-12,19],[8,25],[-7,22],[-49,34],[-7,34],[32,35],[9,22],[-8,17],[-56,9],[-2,17],[30,12],[36,-5],[35,-14],[41,-1],[31,-26],[44,-13],[7,45],[11,3],[24,-30],[31,-1],[22,34],[29,18],[59,7],[21,-15],[15,2],[14,30],[49,31],[10,17],[33,29],[42,13],[31,1],[87,47],[34,10],[21,-6],[48,14],[46,27],[38,16],[16,19],[30,12],[24,22],[41,19],[39,-1],[35,27],[6,16],[-6,76],[31,28],[-18,50],[-32,40],[-57,43],[21,24],[39,1],[14,13],[30,76],[0,40],[-7,45],[6,34],[-22,24],[-51,-21],[-31,32],[-3,13],[21,35],[29,27],[-3,70],[-17,60],[8,16],[1,124],[-49,40],[-35,12],[-14,26],[-30,26],[1,26],[11,19],[23,-13],[25,1],[71,55],[-4,24],[19,49],[-25,49],[-56,27],[-52,3],[-41,32],[-2,16],[14,42],[2,29],[-24,45],[-29,-6],[-52,59],[-27,7],[1,32],[24,32],[41,-7],[54,53],[34,50],[10,28],[31,23],[1,19],[-20,22],[17,22],[3,21],[-12,26],[-34,30],[-10,20],[9,25],[3,38],[-9,45],[-49,53],[-35,7],[-21,52],[-19,87],[-16,21],[13,17],[5,37],[-9,44],[-24,34],[-41,22],[-25,40],[-3,20],[-21,39],[-4,31],[-13,15],[1,46],[-13,43],[16,44],[22,28],[-23,22],[-7,51],[28,7],[46,21],[40,23],[28,26],[9,34],[2,68],[-13,37],[41,34],[22,29],[16,55],[-7,60],[-28,20],[-22,40],[-71,55],[16,35],[-7,52]],[[18421,5567],[-4,15],[119,-36],[90,-51],[14,-18],[14,4],[78,-59],[32,-54],[27,-13],[-22,-37],[-9,-71],[-11,1],[-4,-41],[-7,-10],[-84,24],[-29,-6],[-81,-56],[-27,-11]],[[17076,8323],[-1,380],[1,187],[-1,177],[0,390]],[[17075,9457],[386,1],[420,1],[237,-1],[95,2],[179,-2],[604,-3],[604,-4],[217,0],[207,-1]],[[20133,4592],[-8,-32],[5,-48],[-23,-13],[-15,27],[-28,11],[-21,-17],[-17,-48],[4,-44],[17,-29],[66,13],[5,-10],[-40,-46],[-58,-3],[-53,-56],[-18,-39],[-30,-10],[-3,49],[-15,23],[-14,-3],[-4,-30],[8,-54],[28,-11],[28,-23],[-12,-26],[-30,-38],[-62,-7],[-2,-29],[22,-42],[-3,-48],[-16,-27],[-19,-1],[-14,22],[-24,11],[-32,-7],[-31,10],[-25,-7],[-17,-20],[3,-33],[24,-16],[20,8],[20,-5],[23,-60],[-16,-14],[-17,2],[-23,-23],[-20,5],[-18,-12],[-55,37],[-1,9],[-38,5],[-11,-14],[-19,2],[-27,-22],[-25,3],[-48,-52],[-60,-20],[-17,-14],[-18,12],[-28,-27],[-51,8],[-10,-11],[-34,-1],[-14,-9],[-38,-2],[-29,8],[-13,-20],[-48,-4],[4,-30],[-59,-54],[11,-63],[-28,-18],[-4,-33],[-52,-40],[-29,-47],[3,-7],[-40,-39],[-25,-12],[-43,-52],[-41,-14],[-21,-39],[-23,-30],[-26,-14],[-9,7],[-35,-17],[-9,3],[-35,-20],[27,-81],[2,-65],[-50,-137],[-12,-24],[-77,-95],[-10,-31],[-53,-57],[-9,-28],[17,-8],[16,-43],[23,-27],[2,-36],[19,-19],[-5,-40],[-4,-97],[-19,-61],[9,-37],[-4,-21],[-38,-26],[-33,-41],[-59,-59],[3,-63],[-13,-48],[-16,-85],[-2,-48],[11,-30],[15,-99],[10,-19],[0,-74],[-7,-114],[4,-108],[-2,-91],[24,-22],[5,-18],[20,-23],[14,-30],[20,-15],[17,0],[36,-24],[37,-31],[9,-44],[-11,-22],[16,-22],[2,-28],[-41,-76],[24,-35],[31,-14],[69,8],[27,-7],[16,-17],[-2,-43],[14,-36],[63,-25],[36,-25],[20,-6],[14,-32],[-9,-37],[-27,-24],[-46,-2],[-16,-26],[-20,6],[-17,16],[-32,9],[-27,-3],[-32,7],[-71,-8],[-35,1],[-40,-14],[-36,-27],[-20,-24],[-60,-49],[-11,-17],[-30,-100],[-20,-29],[-27,-13],[-50,9],[-19,-5],[-61,-46],[-15,-24],[-25,-83],[-7,-67],[-12,-20],[2,-50],[13,-36],[32,-25],[4,-36],[14,-41]],[[18138,54],[-312,1],[-537,-3],[-106,-2],[-605,-2],[-458,0],[-146,-1],[-561,0],[-250,1]],[[15163,48],[4,695],[2,803],[0,491],[1,402],[-1,213],[-62,0],[1,651],[-1,609],[0,228],[1,227],[196,-3],[66,0],[299,-3],[187,-3],[125,1],[597,-3],[561,-3],[-2,546],[22,0],[1,594],[1,78],[1,404],[1,64],[2,464],[2,487],[0,192],[-89,0],[-1,243],[-2,232],[0,589],[1,77]],[[22878,2548],[-1,-78],[2,-436],[-2,-425],[1,-366],[-2,-81],[-1,-319],[4,-409],[6,-405]],[[22885,29],[-122,3],[-193,10],[-59,0],[-198,5],[-263,1],[-32,-1],[-451,1],[-154,0],[-610,4],[-512,0],[-86,2],[-617,3],[-430,-1],[-49,-1],[-672,-2],[-299,1]],[[27959,5399],[83,30],[40,8],[50,37],[25,30],[23,19],[22,48],[10,41],[1,48],[16,52],[7,44],[23,43],[29,80],[21,25],[33,14],[47,9],[42,16],[129,23],[33,14],[36,29],[50,23],[33,23],[73,121],[45,69],[38,49],[60,35],[55,6],[0,-172],[17,-9],[14,-35],[17,2],[57,-19],[-2,28],[-32,13],[-25,30],[18,7],[1,20],[16,18],[14,-1],[29,19],[44,21],[45,-2],[48,-20],[7,-37],[21,-4],[48,41],[5,32],[35,8],[62,5],[17,12],[12,44],[55,19],[-9,103],[-21,102],[-1,82],[-12,50],[16,19],[-6,82],[27,107],[6,40],[-2,54],[-9,53],[-28,39],[-33,6],[-18,34],[-48,58],[-28,54],[-8,25],[-19,126],[-12,33],[34,7],[129,0],[63,25],[55,0]],[[29582,7454],[0,-52],[35,13],[27,27],[52,-2],[54,12],[54,-19],[7,14],[37,-15],[23,14],[21,-26],[42,3],[9,-16],[36,7],[31,13],[21,-37],[12,17],[30,-33],[53,-15],[29,0],[1,23],[64,9],[39,30],[13,-9],[33,11],[36,75],[31,28],[126,21],[60,14],[-32,38],[110,37],[21,-9],[86,88],[23,-10],[11,58],[24,-2],[-3,24],[17,26],[-8,36],[11,15],[23,-2],[12,34],[36,1],[12,-7],[-5,-33],[47,-8]],[[30943,7847],[3,-241],[0,-347],[3,-409],[0,-220],[-2,-27],[0,-134],[-1,-273],[1,-122],[0,-292],[2,-353],[0,-87],[1,-441],[-1,-577]],[[30949,4324],[-364,-2],[-106,0],[-449,5]],[[30030,4327],[-138,2],[-700,13],[-190,3],[-66,-1],[-215,3],[-173,-3],[-246,1],[-170,2],[-204,1]],[[27928,4348],[0,111],[-1,180],[-3,270],[35,0],[-1,52],[1,438]],[[27913,8060],[14,3],[74,-19],[21,15],[12,26],[-4,53],[5,107],[21,14],[29,33],[16,6],[10,26],[283,6],[491,6],[184,0],[21,6],[30,-29],[31,-21],[147,-148],[105,1],[-16,-36],[0,-29],[43,-120],[1,-94],[5,-14],[52,-87],[5,-43],[14,-35],[8,-46],[18,-69],[29,-53],[5,-36],[15,-29]],[[27959,5399],[1,369],[0,182],[-2,281],[1,281],[-8,139],[-2,536],[-35,1],[-2,236],[1,636]],[[27245,11778],[-6,-14],[24,-33],[10,-27],[32,-25],[24,-9],[34,4],[12,-21],[-15,-51],[1,-27],[14,-23],[1,-23],[-26,-30],[-16,-39],[10,-19],[28,-21],[10,-18],[-4,-45],[9,-20]],[[27387,11337],[-33,-17],[0,-65],[-81,0],[-23,15],[2,16],[-37,16],[-10,16],[-22,5],[-12,29],[-51,31],[-49,-15],[-87,-4],[7,13],[14,87],[32,31],[4,12],[0,125],[87,5],[6,35],[31,18],[-12,32],[11,27],[1,104],[54,-54],[26,-21]],[[27245,11778],[3,25],[-9,21],[-4,50],[29,6],[20,16],[35,-1],[25,8],[11,-14],[45,37],[-3,19],[12,44],[0,38],[27,17],[39,7],[29,-15],[44,-6],[43,15],[34,-3],[59,-23],[41,-4],[10,-8],[41,15],[258,2],[0,-44],[19,-9],[20,-27],[-3,-14],[12,-48],[-9,-43],[2,-35],[19,-9],[19,-25],[5,-22],[-42,1],[-27,11],[-23,-6],[0,-102],[-14,-12],[-30,0],[-27,-57],[26,-38],[55,3],[15,-42],[33,-32],[-42,3],[-12,-8],[-27,6],[-31,-49],[-6,-22],[-28,-16],[-32,8],[-19,15],[-32,2],[-67,36],[-28,-7],[-47,5],[-107,2],[16,-35],[-38,24],[-47,16],[-34,2],[-74,-7],[15,-77],[-57,-35]],[[28887,16448],[383,3],[2,2],[200,0],[90,-1],[195,3]],[[29793,10604],[-164,-3],[-171,0],[-38,2],[-150,-2],[-219,0],[-140,-2],[-104,2],[-64,-1],[-224,-10],[-89,2],[-60,-3],[-309,-7],[-173,2],[7,-134],[6,-377],[-1,-185],[2,-56],[6,-395],[-8,1]],[[27900,9438],[-235,-2],[0,-79],[-46,0],[0,-93],[-48,0],[-1,-188],[-46,0],[4,-281],[11,-94],[-97,-2],[15,-165],[0,-24],[-602,-1],[-84,-2],[-43,-6],[-2,48],[-44,-10],[-135,18],[-172,1],[0,48],[-70,-2],[-4,479],[189,-1],[0,190],[94,1],[0,159],[-167,2],[-14,2],[-155,1],[-352,-2],[-102,1],[-150,4],[-307,-2],[-289,2],[-123,5],[-203,-3],[-110,7],[-98,-1],[-431,2]],[[24071,9450],[5,94],[-2,189],[2,176],[-8,214],[3,388],[-1,153],[2,507],[10,1],[0,71],[-10,0],[0,81],[25,0],[-1,23],[-18,0],[0,103],[-8,0],[-5,264],[22,2],[-2,601]],[[24887,12221],[42,-27],[-1,-71],[34,-3],[-10,-17],[150,2],[44,-10],[149,-56],[13,-3],[43,69],[21,0],[16,27],[-30,14],[-10,23],[-12,62],[-38,9],[-21,16],[-37,10],[-31,19],[-18,39],[-26,5],[-38,-26],[-28,6],[-39,25],[-33,-1],[-24,-20],[-17,-4],[-33,18],[-20,-5],[-39,-41],[0,-48],[-7,-12]],[[30310,1037],[-21,-27],[-1,-18]],[[30288,992],[-49,1]],[[30239,993],[-45,0]],[[30194,993],[1,42],[115,2]],[[22808,12090],[0,42]],[[22873,12113],[4,-28]],[[7720,3259],[-16,11],[-13,28],[-1,43]],[[7642,8334],[475,3],[12,-1],[615,-1],[492,0],[107,-1],[378,2]],[[9721,8336],[209,1],[116,-2],[332,0],[157,2],[79,-2],[499,-4],[278,1],[835,0],[726,4],[648,-3],[230,-3],[361,-2],[605,-3],[574,-1],[604,1],[273,-3],[266,-1],[374,3],[189,-1]],[[15163,48],[-251,0],[-147,-2],[-222,2],[-284,-5],[-101,0],[-266,-6],[-331,0],[-5,-2],[-604,-1],[-604,1],[-123,-3],[-153,0],[-20,2],[-309,0],[-26,1],[-527,0],[-253,1],[-443,-1],[-563,3],[-118,-1],[-121,2],[-187,0],[-128,1],[-307,0],[-93,2],[-75,6],[-93,0],[-84,-7],[-278,-3],[-449,-4],[-535,-6],[-158,-4],[-104,0]],[[7201,24],[20,16],[-11,36],[12,18],[4,29],[-13,15],[-20,43],[4,22],[54,42],[20,35],[-1,20],[-21,49],[-41,56],[67,66],[13,21],[14,96],[29,85],[40,52],[1,38],[-11,40],[-46,63],[-60,59],[7,72],[-2,65],[15,45],[74,63],[-15,56],[-10,59],[-11,93],[-30,40],[-30,16],[-95,27],[-33,17],[-44,32],[53,114],[27,52],[40,57],[35,39],[110,92],[20,33],[-4,66],[-9,35],[-7,66],[2,43],[15,43],[22,18],[84,9],[17,-5],[58,-30],[39,12],[65,5],[20,8],[31,31],[19,39],[7,40],[2,49],[13,33],[12,5],[58,2],[16,20],[33,58],[-2,50],[-18,17],[-58,12],[-17,13],[-7,19],[-10,111],[5,37],[11,18],[28,16],[27,-4],[63,-44],[40,14],[19,34],[14,71],[-7,24],[-58,50],[-5,23],[34,24],[42,3],[39,14],[31,4],[28,15],[11,54],[-6,41]],[[8455,3344],[81,-34],[26,-21],[67,7],[18,-12],[-26,-42],[16,-26],[-5,-53],[7,-47],[0,-42],[18,-79],[19,-23],[5,-22],[-2,-45],[10,-6],[68,26],[45,9],[29,21],[58,15],[104,58],[37,-4],[14,6],[15,31],[16,76],[94,244],[1,117],[8,14],[44,25],[33,52],[14,11]],[[9312,3997],[-18,6],[-7,35],[31,15],[2,19],[32,13],[23,98],[2,76],[20,157],[19,60],[2,48],[10,70],[-9,5],[-27,87],[4,88],[12,21],[0,31],[-32,19],[-26,-11],[-39,4],[-64,-3],[-49,-7],[-21,3],[-25,16],[-73,1],[-85,-32],[-33,4]],[[8961,4820],[-58,9],[-41,-10],[-87,13],[-24,-11],[-98,-10],[-46,-1],[-35,45],[-30,20],[-103,45],[-22,3],[-86,-14],[-20,8]],[[8311,4917],[-23,21],[-23,77],[-32,74],[9,25],[53,37],[22,104],[-40,412],[-54,229],[-22,55],[-63,111],[-25,20],[-328,-1],[-91,-1],[-34,-4],[-65,3],[-54,-8],[-235,1],[-7,-5],[-52,4],[-57,-7],[-18,9],[-159,-1],[-165,2],[-52,22],[-11,23],[-53,22],[-81,58],[-55,13],[-7,12],[23,42],[-81,38],[-43,8],[-29,-7],[-40,-3],[-34,-13],[-71,-45],[-59,-62],[-20,-31],[-17,-40],[-28,-16],[-107,-34],[-59,-28],[-17,-13],[-21,-1],[-35,19],[-17,16],[-61,77],[-62,56],[-149,57],[-37,16],[-96,48],[-155,48],[-83,27],[-99,56],[-53,21],[-42,25],[-32,31],[-28,8],[-147,-54],[-16,7]],[[8756,4169],[51,-55]],[[8807,4114],[17,-86]],[[8695,3841],[-16,6],[-19,24],[-23,14],[39,48],[8,46],[18,59],[16,8],[0,20],[38,103]],[[9209,3669],[-52,-6],[-14,-18],[-109,-14],[-18,9],[-54,-3],[-21,24],[-22,6],[-30,44],[-6,22],[11,18],[-16,33],[0,56],[-20,43]],[[8858,3883],[34,23]],[[8858,3883],[-12,43]],[[8807,4114],[-1,24],[20,100],[11,98],[9,13],[0,52],[13,76],[7,69],[19,70],[21,129],[28,69],[27,6]],[[4862,3088],[43,35],[100,125],[61,65],[101,69],[311,210],[51,18],[39,0],[61,-14],[27,-2],[237,8],[749,-3],[30,1],[294,20],[41,16],[46,35],[31,16],[86,17],[85,39],[31,-2],[54,-22],[34,-5],[15,-46],[71,-29],[35,2],[23,12],[28,-3],[22,-19],[22,-38],[6,-23],[31,-49],[4,-31],[13,-18],[34,-28]],[[7201,24],[-328,-1],[-121,1],[-448,-2],[-272,-3],[-516,0],[-153,-1],[-107,0],[-392,-1]],[[4864,17],[-1,281],[0,557],[-2,89],[2,121],[-1,176],[-1,412],[3,113],[-2,102],[0,442],[-1,188],[1,178],[0,412]],[[8311,4917],[-57,9],[-38,25],[-33,4],[-14,-89],[42,-21],[14,-20],[44,3],[20,-7],[32,-25],[40,-7],[12,-18],[31,-5],[13,-14],[9,-54],[26,-103],[16,-29],[15,-51],[3,-52],[25,-58],[3,-60],[-14,-23],[4,-38],[-28,-47],[-28,-16],[-4,-32]],[[8444,4189],[23,-77],[2,-37],[-13,-59],[-29,-43],[-17,-44],[26,-11],[26,-35],[43,-14],[12,-25],[92,-6],[12,-28],[-23,-20]],[[4862,3088],[1,244],[4,500]],[[30393,1086],[6,-13],[44,-11],[14,-22],[39,-2],[0,47],[71,-1]],[[30566,989],[-82,1]],[[30381,991],[0,95],[12,0]],[[30393,1086],[1,95]],[[30394,1181],[1,189]],[[30395,1370],[175,-1],[27,-8],[11,-16],[-1,-70],[-39,-46],[-1,-145]],[[30151,993],[14,-29]],[[30029,939],[15,14],[0,46]],[[28889,20900],[198,5],[183,0],[1,2],[449,5],[893,8],[471,6],[51,-2],[743,6]],[[31878,20930],[90,0],[324,6],[36,-5],[368,-1],[635,-1],[513,-2]],[[33844,20927],[0,-258],[-1,-540],[0,-387],[-2,-426],[-2,-536],[2,-742],[1,-629],[0,-406],[0,-110],[1,-413]],[[32434,18911],[38,-74],[11,-44],[-1,-29],[20,-75],[26,-31],[16,-57],[48,16],[20,-21],[26,-4],[15,-39],[16,-25],[87,0],[14,3],[73,83],[21,38],[36,38],[26,-8],[30,-44],[28,-25],[14,14],[-5,39],[60,3],[21,-28],[3,-16],[-15,-33],[9,-47],[0,-46],[22,2],[47,-21],[31,5],[31,38],[41,-14],[-6,-46],[60,40],[9,43],[-3,96],[32,-15],[20,5],[24,43],[10,31],[-8,30],[-142,136],[-327,213],[-22,16],[-137,76],[-86,51],[-24,-41],[-28,-20],[11,-18],[-20,-29],[-2,-39],[12,-45],[-17,-39],[-48,40],[-21,-30],[-20,-4],[-61,0],[-1,-72],[-14,-20]],[[17017,16467],[166,-1],[246,4],[116,-1],[846,-1],[97,0],[1,-8],[159,1],[114,-1],[306,0]],[[22333,11870],[-82,-116]],[[22251,11754],[-45,-71],[-20,-25],[-30,-21],[-35,-14],[-31,-3],[-32,-54],[-38,-26],[-66,-27],[-42,-28],[-43,-56],[-14,-80],[-23,-38],[-25,-23],[-74,-33],[-29,-28],[-236,-394],[-22,-35],[13,-8],[7,-31],[30,-4],[1,-25],[-35,-30],[-17,-34],[-18,-20],[3,-16],[38,-24],[8,-14],[11,-57],[-9,-34],[-11,-4],[-25,28],[-10,28],[-19,20],[-26,12],[-18,-12],[15,-42],[-31,-6],[-8,-34],[-17,-10],[-25,23],[-27,7],[-6,-15],[16,-29],[-17,-59],[-21,-11],[-55,-9],[-23,26],[-15,6],[-24,-15],[-28,1],[-11,-10],[-9,-39],[-28,-16],[-14,-39],[-19,-5],[-35,14],[-21,-6],[8,-23],[27,-25],[-11,-27],[-39,-23],[-21,-29],[-121,-102],[-108,-90],[-32,-23],[-25,-26],[-5,-35],[25,-21],[2,-27],[-29,7],[-1,-23],[16,-20],[-34,-60],[-25,-26],[16,-34],[-20,-1],[-14,-23],[-44,5],[-15,-23],[-34,2],[-16,-8],[-48,9],[-29,-7],[-13,7],[-43,1],[-9,17],[-31,-2],[-50,-25],[-35,-27],[-48,-13],[-21,-55],[-26,-11],[-49,-12],[-30,-40],[-12,-24],[2,-18]],[[17075,9457],[-93,0],[0,102]],[[16982,9559],[-1,329],[-1,715],[-2,106],[1,427],[-4,394],[0,208],[204,-1],[-1,477],[-2,138],[2,237],[-2,268],[1,316],[-2,229],[-2,210],[1,402],[-69,0],[0,289],[-1,270],[6,0],[-2,474],[1,97],[-3,379],[1,113],[-4,642],[-87,1],[1,188]],[[13096,13279],[-21,22],[-51,1],[0,48],[-96,-1]],[[12928,13349],[-2,47]],[[12926,13396],[2,4],[-2,424]],[[8358,12311],[105,0],[92,-2],[83,2],[122,-3],[217,-1],[40,-6],[28,5],[71,2],[261,0],[33,-12],[62,12],[262,2],[181,-1],[15,-1],[554,2],[8,17],[34,10],[52,7],[13,11],[0,30],[24,45],[32,-1],[28,14],[40,7],[39,16],[54,-21],[82,-5],[21,-15],[21,-3],[24,-18]],[[10956,12404],[49,-104],[23,-36],[18,-17],[70,-40],[-58,8],[-42,-20],[1,-22],[-17,-12]],[[11000,12161],[-22,10],[-27,-2],[-17,-10],[-24,2],[-34,-28],[-33,-18],[-28,-8],[-34,-20],[-57,-21],[-3,-10],[30,-36],[64,-57],[31,5],[36,-3],[31,5],[62,0],[24,16],[57,12],[16,20],[145,2],[36,24],[1,27]],[[11254,12071],[14,-8],[24,-29],[11,-32],[28,-32]],[[11331,11970],[59,-67],[65,-45],[22,-21],[98,-138],[18,-30],[16,-48],[9,-64],[22,-130],[2,-35],[80,5],[45,-24],[105,-124],[49,-42],[62,-28],[22,-22],[32,0],[41,15],[45,-10],[24,12],[28,1],[32,14],[103,16],[65,15],[73,7],[51,-17],[164,-134],[31,-15],[127,-36],[124,-33],[42,-23],[19,-22],[80,-126],[24,-28],[97,-81],[16,-29],[-18,-50],[2,-36],[47,-79],[10,-49],[22,-29],[43,-5],[44,13],[30,3],[38,-9],[34,-25],[114,-136],[101,-100],[43,-19],[107,12],[89,-17],[186,21],[44,1],[24,-7],[330,-118],[213,-52],[345,-28],[171,-26],[458,-119],[18,-4],[464,-26],[192,-15],[92,-6],[109,-18],[64,-22],[56,-38],[43,-36],[229,-94],[15,-11]],[[9721,8336],[2,29],[2,198],[-2,183],[2,156],[-3,550],[-124,-1],[-3,437],[-4,23],[-3,85],[3,346],[-3,84],[-1,234],[-3,133],[0,293],[-3,74],[-204,2],[-94,3],[4,27],[-19,44],[45,21],[-19,12],[-10,50],[-17,24],[-49,40],[23,38],[24,0],[20,16],[-29,20],[-19,23],[-25,6],[-37,-4],[-16,8],[-2,28],[-32,0],[-59,20],[-2,29],[-13,4],[-10,28],[-40,34],[-12,19],[-36,1],[-14,14],[-20,-2],[-18,-24],[-5,-33],[-45,2],[-51,39],[-14,57],[21,25],[0,14],[30,35],[4,20],[28,-5],[47,19],[-18,44],[-97,37],[-13,27],[-16,-5],[-17,-23],[-20,6],[-28,28],[-13,22],[-16,9],[-5,28],[-16,31],[-22,1],[-24,69],[-17,9],[-20,48],[12,9],[-24,22],[-7,-12],[-32,-4],[-40,26],[-7,13],[-67,29],[-40,51],[-11,32]],[[14012,16192],[1,73],[148,1],[558,0],[368,0],[283,2],[604,5],[604,1],[148,2],[0,191]],[[16726,16467],[291,0]],[[11331,11970],[28,19],[33,11],[22,34],[14,9],[3,36],[10,31],[-8,38],[-24,30],[-1,37]],[[12855,13300],[73,1],[0,48]],[[12824,13259],[31,41]],[[8420,18516],[14,-48],[47,-11],[21,-19],[37,-1],[17,12],[32,-33],[18,-8],[2,-19],[27,-84],[31,-46],[28,-6],[40,-17],[14,-25],[50,-20],[6,-11]],[[8804,18180],[-11,1],[-43,-23],[-29,0],[-258,-250],[-38,-35],[-227,-190],[-49,-54],[2,-30],[-16,-11],[-7,-36],[26,-11],[0,-16],[23,-61],[-4,-26],[-62,-60],[-11,-23],[-29,-21],[-1,-29],[16,-34],[-6,-21],[-19,-14],[-8,-21],[-20,-7],[-45,-59],[-25,-15],[-28,-4],[-35,-20],[-23,-2],[-51,-44],[-33,-8],[-18,-23],[-19,-9],[5,-22],[-28,-43],[2,-19],[-12,-36],[5,-29],[-11,-50],[11,-26],[-10,-17],[-7,-38],[-22,-21],[10,-36],[-11,-15],[3,-57],[-14,-13],[-4,-40],[16,-28],[-10,-23],[-18,-15],[4,-33],[-18,-22],[-6,-37],[7,-26],[-4,-28],[26,-23],[-7,-22],[13,-18],[-5,-31],[10,-20],[-7,-18],[14,-17],[-16,-62],[29,-25],[9,-37],[-3,-69],[1,-184],[-2,-198],[3,-818],[1,-694],[-1,-117],[2,-7],[3,-393],[0,-83],[4,-493]],[[7718,13021],[-24,29],[17,11],[-2,34],[-32,25],[-28,-10],[-12,23],[-20,6],[-38,-6],[-25,10],[-8,35],[-18,18],[-4,23],[-20,23],[-18,1],[-37,-23],[-19,26],[-25,-11],[-29,29],[-52,-5],[-17,-18],[-45,14],[-14,60],[8,21],[-10,15],[7,32],[25,36],[-14,17],[-41,-3],[8,29],[-2,22],[-24,-5],[-5,25],[43,34],[21,28],[-12,15],[14,34],[-6,33],[-27,14],[-15,22],[6,38],[-24,10],[-23,45],[9,16],[-17,38],[-27,-4],[-19,13],[-3,18],[-47,73],[-20,19],[-40,5],[-39,39],[-41,4],[-21,54],[6,11],[-15,24],[-20,66],[5,84],[-29,23],[-38,-22],[-32,28],[-17,32],[-9,32],[5,53],[-15,72],[-14,29],[3,22],[-26,10],[-24,34],[-1,21],[-26,16],[5,40],[-4,18],[28,30],[-13,30],[-24,18],[4,83],[-25,40],[-3,28],[-36,23],[-13,17],[43,24],[24,41],[-32,46],[-1,25],[25,10],[-1,43],[35,19],[8,28],[-10,22],[8,38],[-26,22],[-10,31],[-27,1],[-43,43],[-22,38],[-12,54],[3,26],[26,35],[3,60],[-8,14],[12,32],[-5,12],[-48,17],[-16,36],[-22,0],[-31,-20],[-34,-8],[-33,-25],[-46,-8],[-15,10],[-43,-3],[-1,639],[-376,4],[-210,4],[-241,0],[-609,2]],[[4849,16226],[2,385],[-2,285],[3,94],[-4,96],[1,193],[2,821],[-1,423],[-11,1],[1,398],[1,736],[0,137]],[[12855,13300],[25,34],[-47,1],[-1,60],[94,1]],[[11254,12071],[2,14],[-89,26],[0,4],[-123,-2],[-16,11],[-17,32],[-11,5]],[[8804,18180],[27,-38],[25,-59],[32,-40],[39,-70],[7,-46],[28,-27],[21,-52],[31,-14],[36,-27],[2,-13],[53,-28],[-1,-487],[0,-34],[222,-2],[564,0],[40,-1],[236,0],[86,-1],[1,-95],[193,0],[89,-2],[132,5],[164,0],[0,-195],[193,-1],[386,2],[-2,-285],[54,0]],[[8358,12311],[-16,54],[-13,121],[-30,12],[-25,71],[-11,52],[1,19],[-54,39],[-4,30],[-21,45],[-44,63],[-20,-17]],[[8121,12800],[-55,-29],[-24,10],[-40,-2],[-13,47],[-13,23],[-31,31],[-47,12],[-38,23],[-17,49],[-42,-2],[-12,16],[-35,6],[-14,-7],[-9,32],[-13,12]],[[11904,23998],[12,13],[10,34],[109,2],[-4,43],[-11,27],[101,-1],[24,11],[31,-7],[0,-17],[44,-21],[13,-33],[3,-39],[24,0],[56,-22],[126,-11],[53,-7],[40,2],[43,-6],[66,20],[39,-10],[29,9],[43,-31],[1,-12],[24,-59],[20,-28],[35,-36],[55,-27],[41,1],[40,30],[95,4],[20,24],[31,14],[68,-13],[47,9],[116,-51],[25,-13],[21,-21],[23,28],[70,28],[14,28],[5,39],[-18,24],[2,55],[-56,81],[-29,92],[-24,44],[37,-8],[23,3],[3,42],[63,-51],[13,58],[13,21],[17,-4],[24,36],[16,-5],[105,17],[-12,33],[13,18],[23,4],[50,-41],[20,1],[25,-53],[29,-31],[40,-34],[3,-21],[-13,-22],[14,-23],[-4,-24],[50,-39],[20,-23],[38,-27],[22,-57],[18,-12],[14,-24],[55,-44],[46,-10],[10,42],[20,0],[-9,48],[-21,69],[1,53],[-13,16],[-6,67],[28,32],[4,61],[-33,78],[-32,15],[-36,35],[-42,20],[-39,11],[-18,14],[-1,199],[-27,37],[-13,32],[33,37],[28,21],[1,72],[6,62],[-5,70],[40,35],[48,101],[18,21],[0,21],[253,-200],[28,-9],[59,-1],[76,5],[58,1],[61,14],[51,-7],[28,13],[27,0],[28,12],[42,-3],[28,13],[5,25],[22,-7],[11,37],[31,31],[13,-14],[17,16],[23,-3],[13,30],[21,20],[22,-7],[6,-21],[-17,-6],[5,-26],[-6,-24],[44,-27],[14,-47],[23,-21],[26,-5],[21,29],[19,9],[16,-29],[35,17],[31,36],[79,45],[36,10],[47,-9],[25,8],[103,13],[33,-9],[55,-36]],[[15600,25017],[-18,-20],[-3,-64],[36,11],[58,-16],[27,-24],[36,-14],[14,-20],[20,-3],[15,-19],[52,-32],[37,9],[31,-1],[51,-19],[11,-33],[-7,-26],[7,-33],[31,-15],[-16,-55],[26,-30],[-11,-52],[7,-30],[-32,-39],[46,-57],[25,-6],[11,13],[29,7],[51,-38],[41,-10],[54,-27],[10,20],[50,-17],[21,-17],[-1,-42],[-15,-22],[15,-33],[32,-20],[17,-32],[42,9],[30,17],[6,33],[21,20],[36,7],[26,-13],[40,13],[34,-2],[14,17],[0,21],[18,17],[18,-23],[37,-19],[43,0],[35,-44],[36,10],[35,-45],[30,2],[36,-16],[17,-15],[38,-1],[-4,-32],[8,-19],[-5,-24],[48,-13],[34,9],[18,-5],[36,-40],[-11,-22],[-29,-25],[-23,-8],[-4,-30],[25,-17],[-2,-30],[9,-30],[20,-12],[19,6],[44,-2],[30,27],[6,15]],[[17169,23947],[6,-14],[6,-84],[-7,-41],[-25,0],[-14,-10],[-56,0],[-1,-38],[-21,-20],[-32,-53],[-10,-81],[8,-24],[-28,-14],[-9,-15],[11,-18],[-1,-34],[-17,-11],[-35,17],[-28,-8],[-25,1],[-33,18],[-46,10],[-24,13],[-48,42],[-48,4],[-84,15],[-40,-16],[-40,-5],[-60,13],[-6,19],[-34,-1],[-67,-44],[-19,-19],[-48,8],[-37,-15],[-22,-24],[-30,-5],[-44,-53],[-37,-14],[-26,-19],[-41,-17],[-33,-32],[-43,-24],[-32,-6],[-72,-24],[-37,-32],[-15,-57],[-22,-17],[-44,-11],[-66,11],[-78,5],[-21,-9],[-35,-52],[-19,-14],[-42,-6],[-85,19],[-128,0],[-72,-10],[-63,9],[-112,1],[-30,-13],[-35,-51],[33,-22],[2,-17],[118,-101],[22,-24],[14,6],[49,-23],[25,-29],[0,-27],[12,-20],[-25,-8],[10,-27],[-5,-21],[-26,6],[-4,-22],[-42,-12],[8,24],[-8,36],[-45,20],[-42,-11],[-14,26],[-55,14],[-26,-19],[-2,-35],[-10,-22],[7,-32],[-48,-81],[-6,-40],[73,-77],[13,-6],[26,-32],[39,-25],[6,-17],[39,-59],[-23,-30],[11,-16],[-27,-26],[-46,24],[-13,21],[-30,7],[-14,-17],[4,-61],[-29,-18],[-28,-2],[-1,25],[-18,41],[-1,16],[-37,77],[-20,10],[-28,27],[-11,-9],[-29,20],[-42,53],[-1,14],[-48,71],[-10,35],[-25,33],[-28,-4],[-23,-29],[-46,-27],[-97,0],[0,23],[-41,1],[-7,18],[-39,20],[-16,20],[-14,-1],[-27,-19],[1,-41],[-14,-4],[-51,-49],[-64,-44],[-24,-7],[-15,-17],[-46,-28],[-45,-11],[-18,-39],[-28,-4],[-23,-11],[-32,0],[-15,-22],[-55,-6],[-13,-20],[-29,9],[-50,-18],[-45,-2],[-2,-57],[-14,1],[-3,-30],[-18,-10],[-36,-6],[-37,-14],[2,-14],[-67,-35],[-21,12],[-29,-7],[-24,20],[-32,-3],[-39,6],[-19,20],[-38,23],[-47,-21],[-54,31],[-13,-20],[-15,2],[-16,-17],[-22,5],[-45,29],[-11,-16],[-50,-3],[-4,24],[-26,-10],[-40,28],[-26,-4],[3,-18],[-20,-8],[-40,7],[-22,13],[-52,0],[-23,7],[-41,-7],[-2,-8],[-66,-13],[-15,26],[-25,27],[-26,0],[-77,28],[-17,14],[-40,-4],[-37,27],[-21,2],[-38,35],[-5,18],[-19,12],[-46,10],[-25,-9],[-11,-20],[-83,3],[-8,-23],[-21,23],[-33,-8],[-6,-28],[-44,-35],[-32,-1],[-45,-49],[-39,-5],[-24,-16]],[[1413,16385],[26,39],[77,13],[36,-8],[30,16],[35,47],[43,24],[108,-3],[58,-36],[27,-49],[21,-19],[8,-56],[41,-65],[45,-36],[37,-25],[4,-33],[23,-56],[25,-3],[-5,-38],[-60,-29],[-46,6],[-14,-33],[18,-11],[53,-61],[-16,-57],[-29,-18],[-10,34],[-40,7],[-22,-16],[-50,7],[-52,50],[-29,10],[-30,-19],[-25,-7]],[[1700,15960],[4,15],[24,22],[23,7],[28,-6],[28,4],[11,30],[-28,6],[-59,24],[-23,3],[-37,19],[-59,50],[-101,49],[-42,13],[-27,15],[-30,4]],[[1412,16215],[54,42],[7,19],[0,48],[-44,-7],[-53,0],[-7,-6]],[[1369,16311],[25,33],[19,41]],[[51,14317],[16,-6],[13,-34],[26,-20],[28,1],[49,16],[1,-166],[-21,1],[0,-96],[142,-1],[0,-167],[-2,-27],[96,0],[-1,-433],[-18,7],[-175,0],[-1,-527],[18,-45],[76,-1],[2,48],[95,-1],[0,-238],[90,1],[8,-48],[147,1],[89,-3],[2,-65],[-4,-128],[56,2],[-14,-83],[21,-10],[39,0],[-2,-196],[-58,0]],[[52,12236],[-2,115],[2,76],[-1,272],[0,539],[0,459],[0,620]],[[51,14317],[0,389],[-2,214],[-2,327]],[[47,15247],[213,1],[138,0],[137,2],[77,-1],[0,-16],[551,2],[0,-517],[306,-1],[604,4],[228,-3]],[[36,9236],[0,308],[-1,141],[2,100],[4,647],[6,432]],[[30938,10608],[1,-468],[2,-785],[-1,-289],[3,-284],[-2,-205],[3,-364]],[[30944,8213],[-3,-185],[2,-181]],[[27913,8060],[1,210],[-2,273],[0,173],[-3,174],[1,83],[-9,131],[-1,334]],[[12105,20264],[293,2],[3,-521],[1,-56],[301,1],[-12,-582],[582,-1],[-4,-186],[2,-14],[0,-172],[285,1],[103,2],[61,5],[122,-1],[31,4],[-18,-42],[-16,-18],[-8,-33],[-25,-16],[-13,-33],[19,-10],[8,21],[50,-29],[47,-7],[12,-26],[466,-2],[360,-1],[10,2],[214,-1],[-1,-560],[392,1],[604,-2],[66,2],[102,-1],[-2,-576],[426,4],[160,1],[-1,-234],[1,-719]],[[30196,1159],[-1,-71]],[[30195,1088],[-27,23],[-67,1]],[[30270,916],[1,9],[-32,68]],[[30151,993],[43,0]],[[21204,22069],[-138,0],[-2,-35],[-38,-4],[-3,-35],[-12,-10],[-29,-48],[-24,-16],[-20,-28],[-43,-32]],[[22251,11754],[1,-25],[15,-17],[43,-6],[5,33],[47,-14],[33,16],[30,-3],[43,-20],[16,-22],[-4,109],[46,-5],[6,-11],[-4,-43],[4,-40],[31,-47],[44,-13],[-3,-62],[-9,-54],[14,-19],[20,-58],[29,-17],[-2,44],[27,88],[-4,22],[13,53],[0,39],[32,1],[0,-24],[74,4],[19,5],[32,60],[16,-9],[-5,-18],[25,-13],[58,-5],[-1,41],[35,14],[9,34],[21,42],[45,55],[38,59]],[[23090,11928],[9,12],[54,41],[36,18],[21,19],[23,46],[18,54],[-9,14],[13,21],[-20,11],[8,35],[18,23],[0,16],[32,-2],[0,71]],[[22997,12044],[1,-48],[85,22],[21,-3]],[[23104,12015],[-44,-35]],[[23060,11980],[-20,-17],[-38,-44],[-45,-18],[-30,-1]],[[22927,11900],[0,77],[-23,61],[6,6],[87,0]],[[22998,12115],[-1,-71]],[[22927,11900],[-86,0]],[[27061,2114],[-31,31],[-35,7],[-64,-8],[-17,-10],[-33,-38],[-35,6],[-32,-14],[-35,-5],[-11,25],[-29,23],[-28,12],[-40,-1]],[[26455,2243],[27,38],[39,13],[36,41],[7,21],[-96,129],[-33,15],[-10,-144],[-24,-5],[-23,-46]],[[26378,2305],[-19,-14],[8,-51],[-10,-9],[-66,13]],[[26291,2244],[-22,33],[-61,38],[0,-128],[-5,-63],[-18,10],[-45,2],[12,-31],[-19,-26],[15,-10],[11,-23],[93,-1],[-2,-24],[46,1],[6,43]],[[26302,2065],[2,-25],[17,-23],[62,-24]],[[26383,1993],[15,-5],[7,-28],[72,-103],[54,-1],[1,-50],[47,2],[32,20],[17,31],[19,20],[0,24],[-140,1],[-26,48],[58,-5],[172,-1],[30,-15],[15,14],[55,16],[23,21],[65,11],[38,11],[58,-6],[24,-16],[56,-16],[54,-23],[-17,-36],[26,3]],[[27138,1910],[6,-47],[11,-25],[3,-53],[-3,-32],[-17,-34],[19,-22],[7,-45],[-4,-86],[-9,-27],[2,-52],[-14,-59],[4,-33],[-21,2],[-14,41],[-20,17],[-45,11],[-76,-1],[-33,-10],[-61,4],[-27,-26],[-32,-8],[12,-16],[-36,-30],[-13,-39],[-14,7],[-55,-6],[-38,11],[-27,22],[-35,-5],[4,-30],[-6,-57],[-47,16],[-40,-7],[-22,-25],[-19,-9],[-61,0],[-10,17],[-36,8],[-14,-22],[-16,-3],[-41,27],[-72,17],[-30,23],[-35,8],[-12,12],[-32,5],[-27,-4],[-54,3],[-93,-84],[-42,-50],[-7,-25],[0,-36],[-20,-38],[-43,-33],[-82,-96],[-91,-83],[-89,-1],[-5,4],[-6,207],[-10,291],[-15,41],[27,19],[172,139],[2,273],[5,161],[-5,21],[44,42],[11,2],[26,55],[20,26],[-48,102],[-41,38],[-42,12],[-38,30],[-132,48],[-34,18],[-148,101],[-20,22],[-101,161],[10,23],[17,3],[31,23],[13,28],[26,25],[20,5],[31,24],[39,43],[29,12],[32,-1],[20,11],[25,-1],[17,12],[24,-2],[27,8],[12,-10],[17,23],[12,-1],[4,41],[29,-9],[36,18],[23,48],[14,10],[-14,28],[17,23],[-12,21],[-3,28],[24,14],[7,-19],[32,11],[19,-4],[18,21],[22,-23],[20,4],[25,-40],[14,21],[41,-9],[34,6],[18,-11],[36,-46],[25,3],[66,-31],[48,-46],[95,-11],[-12,32],[42,-6],[82,-77],[22,-87],[88,-22],[270,2],[-25,-82],[-20,-84],[4,-34],[27,-10],[28,-23],[33,3],[4,-11],[54,-53],[39,-52],[61,-69],[11,-33],[37,-38],[-12,-25],[19,-60],[26,-29],[-2,-37],[15,-11],[24,10],[39,-8],[-53,-65],[-13,-5]],[[26446,2136],[-26,2],[-3,-37],[-26,2]],[[26391,2103],[4,50],[-3,29],[19,1],[7,86],[-27,3],[-13,33]],[[15196,26316],[558,0],[492,0],[392,0],[188,2],[438,3],[634,-3],[115,1],[453,-3],[187,-1],[198,-4],[136,0],[106,-9],[100,-13],[50,4],[192,-5],[50,0],[594,-2]],[[20079,26286],[1,-17],[-30,-46],[-34,-17],[-14,-30],[-60,-70],[-12,-22],[-16,-52],[-38,-56],[1,-18],[40,-70],[-2,-44],[-34,-24],[-8,-17],[10,-36],[-11,-172],[-15,-23],[-17,-6],[-92,0],[-52,13],[-19,-4],[-8,-34],[-41,16],[-30,5],[-21,-6],[52,-91],[17,-51],[13,-75],[24,-48],[14,-13],[174,-124],[14,-15]],[[19885,25139],[-70,-6],[-68,4],[-61,8],[-15,-4],[-12,-52],[0,-48],[13,0]],[[19672,25041],[11,-29],[0,-45],[-40,-4],[28,-26],[34,20]],[[19705,24957],[5,-26],[-10,-13],[29,-44],[-2,-26],[43,1]],[[19770,24849],[3,-84],[14,26],[21,-8],[-23,-59],[1,-67],[-2,-63]],[[19784,24594],[-38,-2],[-39,14],[-10,11],[-30,-2],[-63,12],[-27,-6],[-39,7],[-63,2],[-70,-18],[-15,-11],[-17,18],[41,15],[1,24],[-20,17],[-37,47],[-3,17],[15,40],[-4,28],[-32,-21],[-54,-12],[-37,-15],[-81,-52],[-38,-4],[-39,-15],[-39,-8],[-49,-3],[-24,-17],[-41,-65],[-26,-12],[-7,-37],[7,-17],[-29,-66],[-56,-65],[-19,-11],[-44,-11],[-31,-19],[-80,-73],[4,-12],[-23,-26],[-15,2],[-25,-20],[-14,0],[-58,-59],[-16,-31],[-40,5],[-8,-21],[-36,-18],[-48,-42],[-6,-33],[-31,-10],[-14,-22],[14,-38],[-16,-57],[-17,-17],[-24,-9],[-11,9],[-39,-8],[-23,-40],[-15,-8],[-38,-93],[2,-29],[12,-10],[-3,-26],[4,-84],[9,-36],[-15,-17],[-14,-54],[11,-38],[16,-27]],[[17816,23420],[-16,54],[0,41],[-18,38],[9,13],[-29,17],[-21,34],[8,37],[-46,4],[-20,17],[-30,8],[-47,-6],[-30,14],[-17,16],[1,33],[-12,19],[-49,4],[12,-28],[-50,-14],[-25,12],[-44,2],[-31,29],[-28,1],[-45,37],[-6,28],[-29,22],[-22,48],[-20,60],[-26,1],[-16,-14]],[[15600,25017],[47,42],[9,60],[-25,18],[-22,-4],[-29,29],[19,38],[-6,38],[-17,21],[6,35],[-27,10],[-16,21],[-10,51],[-8,16],[-26,15],[-26,34],[-32,7],[-16,34],[20,53],[-1,82],[24,5],[22,24],[10,46],[-14,8],[-7,58],[-31,20],[-20,26],[-24,14],[-13,24],[-48,32],[-2,60],[15,47],[-1,24],[11,28],[3,34],[-20,80],[-14,39],[9,30],[-42,42],[-15,-5],[-25,31],[-14,6],[-28,-6],[-20,32]],[[19859,24974],[6,18],[44,0]],[[19909,24992],[1,-242]],[[19910,24750],[-18,-50],[7,-32],[-40,-12],[-1,-66],[-29,-24],[-44,-23],[-1,51]],[[19770,24849],[10,23],[-25,0],[6,28],[36,1],[0,16],[56,-1],[6,58]],[[19705,24957],[32,24],[73,-1],[49,-6]],[[26577,2141],[0,-76],[-11,0]],[[26566,2065],[-87,6],[-38,10]],[[26441,2081],[3,31],[39,-4],[0,19]],[[26387,2048],[14,5]],[[26401,2053],[1,-37],[29,9],[71,0],[22,8],[40,3],[2,29]],[[27061,2114],[-8,-43],[30,-19],[15,1],[-14,-56],[11,-17],[24,-2],[23,-33],[-4,-35]],[[26383,1993],[4,55]],[[26291,2244],[11,-179]],[[26391,2103],[-4,-55]],[[27928,4348],[-5,-94],[3,-129],[1,-806],[-1,-66],[1,-360],[2,-39],[2,-222],[-13,0],[-1,-134],[-1,-352],[3,-334],[-1,-195],[2,-330],[4,-294],[1,-659],[9,0],[0,-312]],[[27934,22],[-419,-2],[-662,-1],[-604,-3],[-272,-1],[-216,-1],[-566,1],[-429,1],[-331,0],[-293,-1],[-288,1],[-470,3],[-157,4],[-308,4],[-34,2]],[[26401,2053],[38,-3],[2,31]],[[4849,16226],[-28,0],[2,-92],[0,-283],[-1,-196],[-291,2],[-440,1],[-205,2],[-452,-4],[0,-170],[2,-400],[-344,1],[-414,2],[-119,0]],[[47,15247],[0,319],[0,110],[-3,852],[1,214]],[[45,16742],[38,-24],[85,-73],[53,-36],[59,-54],[60,-38],[15,-22],[2,-21],[27,-18],[32,4],[64,-19]],[[480,16441],[-1,-36],[-10,-29],[3,-19],[20,-20],[-9,-28],[-48,27],[-20,-1],[-6,16],[-92,7],[-21,-42],[-76,24],[-17,22],[-27,3],[-17,-9],[-26,1],[-6,-26],[-40,-50],[11,-39],[17,-11],[-3,-28],[8,-34],[-17,-18],[2,-15],[36,-28],[20,-40],[16,-11],[-1,-18],[25,-14],[39,2],[31,-17],[25,-33],[2,-17],[93,-8],[46,-43],[21,-4],[22,10],[26,-28],[43,-5],[36,7],[12,-16],[25,4],[18,-24],[51,6],[23,-19],[23,-2],[37,23],[32,9],[26,24],[21,8],[18,34],[49,33],[38,-11],[33,-3],[10,19],[22,-12],[39,-5],[19,-15],[7,-31],[16,-9],[1,-38],[21,-19]],[[1126,15845],[19,-60],[42,-8],[15,-22],[73,10],[13,-6],[28,11],[17,-21],[34,-6],[23,-17],[84,-21],[16,8],[-6,41],[14,12],[52,-9],[30,7],[48,-4],[16,9],[13,36],[1,41],[32,60],[10,54]],[[1413,16385],[25,110],[23,36],[19,43],[30,44],[13,27],[1,29],[31,91],[-1,129]],[[1554,16894],[0,71],[12,51],[29,87],[19,149],[32,141],[49,86],[61,84],[30,30],[20,30],[32,36],[16,85],[20,35],[18,82],[41,70],[47,48],[27,34],[51,76],[34,41],[31,8],[35,-14],[24,-2],[40,19],[41,3],[16,13],[40,44],[20,29],[19,10],[41,7],[42,23],[32,41],[19,42],[16,66],[43,65],[8,53],[20,37],[34,42],[3,53],[17,23],[-11,26],[-24,19],[-7,41],[-39,27],[-59,50],[-69,16],[-15,-6],[-57,-7],[-17,11],[-9,30],[10,30],[-5,35],[5,73],[-19,35],[-27,24],[-29,14],[-44,7],[-54,-13],[-45,11],[-27,1],[-62,74],[-8,18],[17,39],[6,61],[11,27],[-2,37],[-23,22],[-3,44],[-7,27],[4,26],[-13,38],[-28,34],[-58,31],[-37,37],[-21,45],[-40,55],[-8,45],[-21,14],[-25,-3],[-11,11],[-23,70],[9,40],[2,55],[-6,47],[14,44],[5,88],[29,43],[1,80],[33,42],[35,64],[20,48],[1,67],[15,45],[10,47],[-17,29],[-417,-2],[-4,6],[-604,2],[-669,0],[-170,-1]],[[26,20612],[0,575],[-2,333],[0,546],[2,139],[-1,348],[2,304],[-17,28],[-2,564],[-3,670]],[[480,16441],[52,-5],[29,19],[17,24],[36,11],[10,22],[14,-2],[52,51],[30,13],[99,109],[43,16],[71,38],[23,1]],[[956,16738],[-2,-51],[-37,-89],[-6,-29],[-20,-30],[-7,-23],[0,-58],[9,-13],[89,1],[38,12],[20,-6],[15,21],[8,42],[20,28],[0,26],[19,25],[29,72],[45,52],[18,-2],[19,14],[21,26]],[[1234,16756],[11,10],[25,-10],[42,30],[53,19],[14,14],[51,24],[11,16],[29,-6],[42,33],[42,8]],[[1369,16311],[-6,-19],[-24,-27],[-38,-15],[-26,-23],[-12,-20]],[[1263,16207],[-22,14],[-17,-3],[-43,13],[-133,0],[12,-20],[2,-43],[-11,-16],[4,-31],[11,-16],[-7,-35],[7,-15],[23,-15],[-4,-12],[34,-60],[6,-65],[14,-27],[-13,-31]],[[1234,16756],[5,40],[-2,33],[11,14],[-13,31],[-34,9],[-40,-31],[-36,0],[-1,-87],[-36,-12],[-124,0],[-8,-15]],[[45,16742],[-1,518],[-4,486],[-1,286],[0,451],[-1,243],[0,452],[-3,564],[-9,133],[1,55],[3,567],[-4,115]],[[1263,16207],[6,-62],[54,8],[21,12],[36,-7],[46,36],[-14,21]],[[33206,7339],[-2,-149],[-8,-16],[-1,-98],[28,0],[0,-65],[-7,-56]],[[33216,6955],[-50,29],[-30,-35],[-19,10],[-19,-15],[-50,5],[-45,16],[-11,12],[8,21],[-29,21],[-5,38],[-24,12],[5,42],[-14,17],[-19,0],[-34,-17],[-24,15],[-36,6]],[[32820,7132],[1,46],[6,13],[1,273],[41,12],[38,-22],[13,-16],[-10,-22],[13,-21],[29,-7],[25,6],[24,-16],[20,-41],[33,10],[69,5],[32,32],[16,-1],[35,-44]],[[33852,10623],[-1,-735],[1,-176],[0,-645],[1,-766],[-2,-79],[1,-380],[2,-143],[-3,-232],[3,-101],[-2,-131]],[[33852,7235],[-19,-11],[-20,-30],[-25,-11],[-39,24],[-18,3],[-16,-18],[-24,-13],[-30,5],[-33,16],[-17,16],[-23,7],[-84,-30],[-55,12],[-33,14],[-25,23],[-18,6],[-13,19],[-62,15],[-31,19],[-48,21],[-13,17]],[[32820,7132],[0,-144],[-2,-51],[-28,15],[-16,21],[-81,35],[-49,23],[-30,9],[-22,17],[-41,10],[-33,33],[-62,25],[-49,-14],[-14,6],[-4,26],[-23,25],[-55,9],[-16,18],[0,18],[-31,17],[-5,19],[10,20],[37,-5],[30,5],[16,20],[-35,21],[-17,3],[-40,41],[-40,14],[-42,-29],[-26,-5],[-8,32],[-16,14],[11,20],[-4,16],[-43,11],[-3,23],[-35,4],[-6,-39],[-37,-3],[-36,14],[-43,32],[-52,27],[-25,34],[-2,29],[6,46],[-16,18],[-3,25],[18,19],[-26,23],[-17,32],[-19,10],[-33,36],[-47,17],[-15,20],[-14,58],[-32,12],[-22,16],[-34,1],[-17,10],[-24,-17],[-52,32],[-42,3],[-12,-17],[-31,0],[-31,-29],[-29,31],[-101,-25],[-26,6],[-10,36],[7,11],[62,18],[11,15],[43,-1],[24,28],[1,78],[-20,23],[-57,-3],[-55,24],[-18,-1],[-18,-17],[-38,-1],[-41,22],[-18,0],[-35,23],[-19,56],[-10,49],[-18,-15],[-65,9],[-16,-16]],[[33852,7235],[-1,-106],[1,-358],[0,-233]],[[33852,6538],[-26,-21],[-13,-24],[-21,6],[-31,38],[-29,-2],[-36,33],[-8,36],[-16,9],[3,21],[-11,25],[-13,8],[-6,26],[-20,20],[-7,19],[-37,15],[-29,42],[-25,13],[-12,18],[-43,7],[-14,-14],[-19,10],[-20,-17],[-40,50],[-26,0],[-9,12],[5,29],[-41,2],[-16,9],[-38,43],[-38,4]],[[33852,6538],[1,-211],[-1,-269],[0,-207],[1,-308],[-1,-633],[1,-99],[-1,-433],[0,-453],[2,-184]],[[32738,3742],[-294,1],[-94,2],[-433,-3],[-77,1],[-139,-2],[-149,2],[-415,1],[-187,2],[-2,462],[1,116]],[[23053,12115],[71,0],[16,-9]],[[23140,12106],[-17,-23],[-4,-44],[-15,-24]],[[23094,12227],[35,-12],[2,-47],[22,-25],[-13,-37]],[[12106,20849],[846,-1],[69,1],[721,-1],[714,-1],[496,1],[186,-3],[254,3],[216,-1],[407,-1],[97,-1],[45,-9],[192,0],[294,0],[343,0],[197,5],[604,4],[460,-2],[646,-12]],[[15018,19794],[101,4],[-2,186],[23,8],[2,43],[-22,20],[-3,30],[-26,23],[-18,33],[-44,0],[12,-23],[-6,-12],[-37,-8],[-29,-28],[16,-12],[4,-44],[-21,-24],[3,-21],[-25,-7],[-14,-38],[-27,-25],[10,-34],[-10,-37],[-34,-5],[-4,-39],[-26,-20],[8,-20],[-5,-44],[-45,-42],[16,-16],[-1,-20],[-23,-11],[6,-27],[51,69],[71,142]],[[11764,26314],[421,0],[98,-5],[571,2],[602,2],[100,-2],[103,4],[564,-1],[476,1],[497,1]],[[19672,25041],[32,6],[91,-1],[79,-3],[35,-14]],[[19909,25029],[0,-37]],[[19885,25139],[9,-24],[14,-60],[1,-26]],[[23060,11980],[24,16],[10,-23],[-9,-24],[5,-21]],[[20079,26286],[679,-4],[355,-1],[300,-3],[562,-2],[69,-1],[193,1],[98,-3],[102,2],[685,-4],[706,-3],[177,1],[313,0]],[[19347,23411],[28,38],[20,78],[3,67],[14,18],[-1,46],[6,6],[-10,53],[6,14],[-8,26],[19,77],[36,28],[19,49],[49,43],[11,27],[19,3],[7,20],[29,23],[22,56],[22,2],[52,-18],[5,16],[78,-11],[26,12],[48,1],[70,-94],[57,-3],[56,5],[50,-19],[55,0],[-27,63],[-11,37],[-23,47],[96,-9],[16,3],[-39,62],[-49,51],[-12,19],[-1,45],[-6,25],[-36,35],[-10,63],[-26,63],[-10,43],[-3,73],[-11,23],[-58,89],[-15,44]],[[38,1665],[26,-9],[80,0],[56,12],[27,14]],[[227,1682],[106,68]],[[333,1750],[-3,-38],[0,-86],[31,7],[-8,-59],[14,3],[32,-18],[33,8],[-11,-44],[-18,-28],[-52,-43],[39,-31],[12,-24],[45,-20],[79,-12],[43,24],[7,12],[68,48],[13,19],[1,26],[-48,63],[-48,95],[-32,75],[-15,19],[-32,10]],[[483,1756],[22,30],[24,7]],[[529,1793],[48,2],[72,-10],[99,-24],[15,30],[-14,22],[11,77],[-72,27],[-19,30],[-41,19],[-1,11],[25,30],[-69,1],[-24,7],[-41,0],[-26,-6],[-69,-2],[-35,-17],[-43,2],[-40,69],[-27,80],[-29,210],[-12,40],[-21,41],[-2,68],[-6,23],[5,56],[-3,34],[20,44],[0,20],[17,64],[0,39],[7,31],[-17,51],[0,57],[7,46],[11,27],[-2,47],[-15,38],[-4,47],[4,31],[-14,26],[-4,54],[-11,13],[-22,61],[-8,39],[34,10],[21,16],[34,39],[-9,26],[9,12],[-9,26],[-47,11],[-13,-13],[-28,-8],[-5,-13],[-28,10],[-96,-3]],[[42,3461],[0,383]],[[2271,3839],[-27,-73],[-6,-34],[0,-130],[-6,-42],[-96,-283],[-4,-16],[-32,-189],[-10,-156],[-3,-24],[-34,-72],[-4,-52],[-16,-40],[-176,-270],[-49,-54],[-20,-27],[-29,-53],[-144,-221],[-19,-23],[-53,-36],[-14,-20],[-18,-45],[-5,-46],[19,-10],[13,-26],[25,-35],[10,-30],[-11,-31],[23,-23],[50,15],[20,15],[76,16],[150,-42],[81,34],[76,47],[33,3],[39,13],[80,38],[20,34],[36,11],[67,-15],[26,1],[46,34],[42,-8],[126,-6],[7,-4],[-2,-418],[-28,-72],[-12,-40],[-28,-54],[34,-12],[23,-14],[38,-15],[36,-29],[66,-27],[61,-34],[39,2],[-26,-47],[-26,-22],[-39,-58],[-25,-21],[-37,-67],[-7,-27],[-35,-45],[0,-21],[-22,-49],[-29,-18],[-35,-39],[-34,-78],[3,-12],[-16,-28],[-5,-37],[-12,-10],[-19,-51],[-11,-7],[-23,-42],[3,-12],[-21,-33],[-4,-31],[-13,-18],[-15,-38],[-51,-84],[-13,-41],[5,-45],[19,-23],[-8,-42],[-26,13],[-15,-41],[8,-36],[-9,-57],[-21,-40],[-62,-19],[-1,-15]],[[2165,10],[-361,0],[-600,4],[-286,2],[-199,0],[-361,2],[-127,3],[-194,-1],[1,474],[0,301],[-1,410],[1,460]],[[529,1793],[-29,16],[-59,0],[-2,-8],[-61,57],[-38,9],[-25,-10],[-18,-18],[-67,-133],[-3,-24]],[[38,1665],[1,444],[1,843],[2,407],[0,102]],[[3464,2379],[89,39],[132,37],[132,20],[89,19],[34,13],[68,45],[48,20],[122,33],[29,-3],[-145,-154],[-23,-22],[-73,-48],[-22,-24],[-23,-40],[-73,-85],[-2,-115],[-217,-2],[-156,1],[1,231],[-10,35]],[[30030,4327],[-113,-384],[-86,-255],[-37,-92],[-27,-78],[-8,-72],[13,-236],[12,-55],[72,-180],[11,-50],[23,-335],[6,-45],[17,-245],[4,-34],[132,-540],[6,-35],[1,-313]],[[30029,1137],[-65,11],[-38,-23],[-71,-19],[0,-43],[-27,-97],[-4,-42],[83,-24],[47,-1],[57,10],[21,-5]],[[30370,33],[-317,-6],[-81,-5],[-131,0],[-359,1],[-571,0],[-388,0],[-453,1],[-136,-2]],[[30195,1088],[10,-12],[78,-8],[11,19],[16,0]],[[30310,1087],[0,-50]],[[30310,1087],[14,21],[-31,17],[45,24],[18,-1],[-2,35],[40,-2]],[[30271,1373],[124,-3]],[[28902,26311],[87,2],[820,-1],[422,-3],[824,-5],[189,-1],[480,-1],[352,-1],[602,-1],[600,-2],[204,0],[89,-1],[257,-1],[0,-12],[6,-541],[3,-252],[-3,-53],[3,-650],[1,-444],[-1,-94],[1,-296]],[[33838,23954],[-111,49],[-62,7],[-27,-4],[-41,9],[-75,-13],[-35,-20],[-55,-6],[-28,-9],[-48,-35],[-53,5],[-41,-4],[-31,12],[-94,12],[-32,13],[-45,4],[-23,10],[-57,6],[-35,20],[-32,5],[-47,18],[-84,19],[-48,2],[-36,33],[-53,8],[-82,-27],[-19,-14],[-31,-1],[-33,-19],[-32,-1],[-30,20],[-50,-3],[-24,6],[-17,-33],[-40,-13],[-36,-22],[-31,-57],[-26,-23],[-12,-27],[-31,-45],[-34,-22],[-14,41],[-30,12],[-32,0],[-20,16],[-12,23],[-52,17],[-11,-31],[-22,-21],[-31,-19],[-24,-45],[-2,-14],[-28,-35],[-45,-22],[0,-19],[-26,5],[-19,-9],[-47,-7],[-22,-10],[-40,12],[-24,-19],[-41,5],[-23,40],[2,32],[-21,38],[-21,17],[-16,45],[-55,20],[-12,16],[-71,37],[-27,-8],[-29,16],[-25,2],[-18,22],[-17,46],[-15,8],[-21,33],[-21,17],[-42,55],[-18,-15],[-30,-47],[-30,-37],[-9,-31],[-24,-36],[-56,-42],[-6,-24],[-26,-16],[-80,-4],[-40,-24],[-16,-22],[-2,-30],[1,-91],[12,-55],[-11,-31],[-54,-47],[-15,-30],[25,-55],[12,-43],[41,-82],[14,-68],[-29,-92],[-27,-28],[-1,-32],[-22,-33],[17,-41],[0,-30],[50,-27],[18,-20],[34,-18],[42,-40],[37,-19],[19,-37],[4,-43],[21,-48],[-8,-43],[17,-11],[17,-32],[62,-65],[50,-45],[5,-28],[30,-27],[27,-9],[20,-20],[37,-51],[-2,-20],[-36,-44],[-11,-56],[-23,-69],[-14,0],[-12,-26],[2,-81],[23,-54],[16,-13],[10,-46],[18,-17],[29,-58],[-7,-65],[-16,-15],[-10,-26],[21,-11],[77,7],[53,21],[44,34],[20,8],[30,-3],[58,-31],[45,-42],[48,-10],[26,9],[57,39],[-6,-35],[-44,-70],[-7,-24],[22,-49],[-19,-98],[12,-30],[0,-44],[57,-1],[67,-43],[40,-51],[37,-34],[25,-16],[17,-24],[3,-36],[-12,-12],[2,-44],[10,-21],[3,-57],[-33,-91],[8,-78],[-1,-104]],[[33838,23954],[0,-255],[-1,-70],[1,-295],[-1,-193],[2,-805],[0,-224],[1,-727],[4,-458]],[[4864,17],[-247,-2],[-405,-9],[-193,0],[-246,-6],[-627,0],[-489,0],[-198,10],[-294,0]],[[483,1756],[-23,-19],[-35,-6],[-27,6],[-31,21],[-34,-8]],[[8121,12800],[20,-48],[29,-38],[8,-29],[4,-54],[-18,8],[-43,-6],[-73,-46],[-39,-38],[-16,1],[-55,-25],[-8,-15],[-29,-24],[2,-63],[-23,-13],[-14,-22],[-16,13],[-16,-12],[-45,-51],[-15,1],[-21,-60],[-21,-7],[-13,-25],[-39,-27],[-35,2],[-27,-11],[-53,45],[-56,33],[-26,4],[-35,19],[-40,-6],[-32,3],[-18,-27],[-29,0],[-26,-14],[-76,-18],[-59,-4],[-41,-19],[-29,24],[-22,3],[-21,-10],[-45,6],[-55,-20],[-32,7],[-15,-12],[-90,-18],[-162,-67],[-15,-19],[-74,-21],[-44,3],[-30,-15],[-16,-26],[7,-26],[-9,-42],[-32,-8],[-27,18],[-29,-5],[-1,-15],[-25,-24],[-17,0],[-7,30],[6,17],[3,104],[-24,7],[-46,25],[-36,10],[-18,27],[-30,19],[-41,0],[-57,9],[-29,-8],[-114,0],[-39,26],[-90,-1],[-6,37],[-27,34],[-176,1]],[[8444,4189],[78,0],[34,-2],[63,6],[111,1],[26,-25]]],"transform":{"scale":[0.00020683240289469816,0.00015222163187855793],"translate":[-111.054556,40.994775]},"objects":{"Tract_56_2025":{"type":"GeometryCollection","geometries":[{"arcs":[[0,1,2,3,4]],"type":"Polygon","properties":{"id":"14000US56025000400"}},{"arcs":[[5,6,7,8,9,10]],"type":"Polygon","properties":{"id":"14000US56037970903"}},{"arcs":[[11,12,13,14]],"type":"Polygon","properties":{"id":"14000US56037971200"}},{"arcs":[[15,16,17,18]],"type":"Polygon","properties":{"id":"14000US56021000300"}},{"arcs":[[19,20,21,22,23]],"type":"Polygon","properties":{"id":"14000US56021000900"}},{"arcs":[[24,25,26,27,28]],"type":"Polygon","properties":{"id":"14000US56027957200"}},{"arcs":[[29,30,31,32,33,34,35,36,37,38,39],[40,41]],"type":"Polygon","properties":{"id":"14000US56019955100"}},{"arcs":[[42,-11,43,44,45,46,47]],"type":"Polygon","properties":{"id":"14000US56037970601"}},{"arcs":[[48,49,50,51]],"type":"Polygon","properties":{"id":"14000US56025001100"}},{"arcs":[[52,53,54,55,56,57,58]],"type":"Polygon","properties":{"id":"14000US56005000101"}},{"arcs":[[59,-58,60,-35]],"type":"Polygon","properties":{"id":"14000US56005000103"}},{"arcs":[[61,62,63,64,65,-33,66]],"type":"Polygon","properties":{"id":"14000US56005000701"}},{"arcs":[[67,68,-54,69,70,71,72,-63]],"type":"Polygon","properties":{"id":"14000US56005000702"}},{"arcs":[[-66,73,74,-59,-60,-34]],"type":"Polygon","properties":{"id":"14000US56005000102"}},{"arcs":[[75,76,77,78,79,80,-16,81]],"type":"Polygon","properties":{"id":"14000US56021000200"}},{"arcs":[[82,83,84,85,86,87,88]],"type":"Polygon","properties":{"id":"14000US56029965301"}},{"arcs":[[-87,89,90,91,-84,92,93,94,95,96,97,98]],"type":"Polygon","properties":{"id":"14000US56029965302"}},{"arcs":[[-85,-92,99,100]],"type":"Polygon","properties":{"id":"14000US56029965402"}},{"arcs":[[-100,-91,101]],"type":"Polygon","properties":{"id":"14000US56029965401"}},{"arcs":[[102,103,104,105]],"type":"Polygon","properties":{"id":"14000US56001963102"}},{"arcs":[[106,107,-103,108]],"type":"Polygon","properties":{"id":"14000US56001963101"}},{"arcs":[[109]],"type":"Polygon","properties":{"id":"14000US56017967800"}},{"arcs":[[110,111,112,113,114,115,116,117,-79]],"type":"Polygon","properties":{"id":"14000US56021002002"}},{"arcs":[[118,-117,119,120,121]],"type":"Polygon","properties":{"id":"14000US56021002001"}},{"arcs":[[122,123,124,125]],"type":"Polygon","properties":{"id":"14000US56021001302"}},{"arcs":[[126,127,128,-76,129]],"type":"Polygon","properties":{"id":"14000US56021000702"}},{"arcs":[[130]],"type":"Polygon","properties":{"id":"14000US56029965200"}},{"arcs":[[-18,131,132,-122,133]],"type":"Polygon","properties":{"id":"14000US56021000401"}},{"arcs":[[134,-126,135,136,-21,137]],"type":"Polygon","properties":{"id":"14000US56021001200"}},{"arcs":[[138,139,140,141,-111,-78,142]],"type":"Polygon","properties":{"id":"14000US56021000503"}},{"arcs":[[-80,-118,-119,-133,143]],"type":"Polygon","properties":{"id":"14000US56021000403"}},{"arcs":[[144,145,-140,146]],"type":"Polygon","properties":{"id":"14000US56021000602"}},{"arcs":[[-17,-81,-144,-132]],"type":"Polygon","properties":{"id":"14000US56021000404"}},{"arcs":[[-65,147,148,149,-74]],"type":"Polygon","properties":{"id":"14000US56005000500"}},{"arcs":[[-73,150,-148,-64]],"type":"Polygon","properties":{"id":"14000US56005000600"}},{"arcs":[[151,-71,152,-149]],"type":"Polygon","properties":{"id":"14000US56005000300"}},{"arcs":[[-72,-152,-151]],"type":"Polygon","properties":{"id":"14000US56005000400"}},{"arcs":[[-150,-153,-70,-53,-75]],"type":"Polygon","properties":{"id":"14000US56005000200"}},{"arcs":[[153,154,155,156,157,158,159],[160]],"type":"Polygon","properties":{"id":"14000US56023978200"}},{"arcs":[[161,162,163]],"type":"Polygon","properties":{"id":"14000US56023978100"}},{"arcs":[[-161]],"type":"Polygon","properties":{"id":"14000US56023978400"}},{"arcs":[[164,165,166,167,-155,168]],"type":"Polygon","properties":{"id":"14000US56035000101"}},{"arcs":[[169,170,171,172,173,174,175,176]],"type":"Polygon","properties":{"id":"14000US56013940202"}},{"arcs":[[177,178,-174,179,180,-170,181]],"type":"Polygon","properties":{"id":"14000US56013940201"}},{"arcs":[[-5,182,183,184]],"type":"Polygon","properties":{"id":"14000US56025000300"}},{"arcs":[[185,-52,186,187,188]],"type":"Polygon","properties":{"id":"14000US56025001700"}},{"arcs":[[189,190,-1,-185,191,192,193]],"type":"Polygon","properties":{"id":"14000US56025000200"}},{"arcs":[[194,195,196,197,198]],"type":"Polygon","properties":{"id":"14000US56025000901"}},{"arcs":[[199,200,-194,201,-49,-186]],"type":"Polygon","properties":{"id":"14000US56025001200"}},{"arcs":[[-51,202,-195,203,-187]],"type":"Polygon","properties":{"id":"14000US56025001000"}},{"arcs":[[-37,204,205,206,-190,-201,207]],"type":"Polygon","properties":{"id":"14000US56025001401"}},{"arcs":[[208,209,210,-198]],"type":"Polygon","properties":{"id":"14000US56025000902"}},{"arcs":[[211,212,213,-93,-83],[-131]],"type":"Polygon","properties":{"id":"14000US56029965100"}},{"arcs":[[-101,-102,-90,-86]],"type":"Polygon","properties":{"id":"14000US56029965500"}},{"arcs":[[214,215]],"type":"Polygon","properties":{"id":"14000US56043000301"}},{"arcs":[[216,217]],"type":"Polygon","properties":{"id":"14000US56007967800"}},{"arcs":[[218,219,220,221,222]],"type":"Polygon","properties":{"id":"14000US56007968100"}},{"arcs":[[-217,223]],"type":"Polygon","properties":{"id":"14000US56007967700"}},{"arcs":[[224,225,-223,226,227,228],[-224,-218]],"type":"Polygon","properties":{"id":"14000US56007967600"}},{"arcs":[[-222,229,230,-227]],"type":"Polygon","properties":{"id":"14000US56007968000"}},{"arcs":[[231,232,233,234,235,236]],"type":"Polygon","properties":{"id":"14000US56031959402"}},{"arcs":[[237,-232,238]],"type":"Polygon","properties":{"id":"14000US56031959401"}},{"arcs":[[239,240]],"type":"Polygon","properties":{"id":"14000US56009956500"}},{"arcs":[[-240,241]],"type":"Polygon","properties":{"id":"14000US56009956400"}},{"arcs":[[-36,-61,-57,242,-29,243,244,-220,245,-205],[246],[-242,-241]],"type":"Polygon","properties":{"id":"14000US56009956600"}},{"arcs":[[-247]],"type":"Polygon","properties":{"id":"14000US56009956700"}},{"arcs":[[247,248,249,250]],"type":"Polygon","properties":{"id":"14000US56021000800"}},{"arcs":[[251,-192,-184,252,-209,-197]],"type":"Polygon","properties":{"id":"14000US56025000700"}},{"arcs":[[-47,253]],"type":"Polygon","properties":{"id":"14000US56037970602"}},{"arcs":[[-168,254,255,-229,256,257,-45,258,-13,259,260,261,-156]],"type":"Polygon","properties":{"id":"14000US56037971600"}},{"arcs":[[262,263,-8,264]],"type":"Polygon","properties":{"id":"14000US56037970902"}},{"arcs":[[-15,265,266]],"type":"Polygon","properties":{"id":"14000US56037971100"}},{"arcs":[[-260,-12,-267,267,-9,-264,268]],"type":"Polygon","properties":{"id":"14000US56037970800"}},{"arcs":[[-44,-10,-268,-266,-14,-259]],"type":"Polygon","properties":{"id":"14000US56037971000"}},{"arcs":[[269,-48,-254,-46,-258,270,271]],"type":"Polygon","properties":{"id":"14000US56037970700"}},{"arcs":[[-157,-262,272,273,-6,-43,-270,274]],"type":"Polygon","properties":{"id":"14000US56037970500"}},{"arcs":[[275,-113,276,-141,-146,277]],"type":"Polygon","properties":{"id":"14000US56021001502"}},{"arcs":[[278,279,280,-276]],"type":"Polygon","properties":{"id":"14000US56021001501"}},{"arcs":[[-23,281,-128,282]],"type":"Polygon","properties":{"id":"14000US56021001000"}},{"arcs":[[283,284,285,-25,-243,-56],[286]],"type":"Polygon","properties":{"id":"14000US56045951100"}},{"arcs":[[-287]],"type":"Polygon","properties":{"id":"14000US56045951300"}},{"arcs":[[287,-38,-208,-200,-189,288,289,-226,290,291]],"type":"Polygon","properties":{"id":"14000US56025001802"}},{"arcs":[[-173,292,293,294,-180]],"type":"Polygon","properties":{"id":"14000US56013940302"}},{"arcs":[[295,296,297,298,299,-291,-225,-256,300]],"type":"Polygon","properties":{"id":"14000US56013000301"}},{"arcs":[[-175,-179,301,302,-292,-300,303]],"type":"Polygon","properties":{"id":"14000US56013000302"}},{"arcs":[[304,-293,-172,305]],"type":"Polygon","properties":{"id":"14000US56013940301"}},{"arcs":[[-98,306,307,308,309]],"type":"Polygon","properties":{"id":"14000US56013000400"}},{"arcs":[[-294,-305,310]],"type":"Polygon","properties":{"id":"14000US56013940500"}},{"arcs":[[-176,-304,-299,311,-297]],"type":"Polygon","properties":{"id":"14000US56013000100"}},{"arcs":[[-312,-298]],"type":"Polygon","properties":{"id":"14000US56013000200"}},{"arcs":[[-181,-295,-311,-306,-171]],"type":"Polygon","properties":{"id":"14000US56013940400"}},{"arcs":[[312,-182,-177,-296,313,314,-308]],"type":"Polygon","properties":{"id":"14000US56013940100"}},{"arcs":[[315,316,317,-94,-214]],"type":"Polygon","properties":{"id":"14000US56003962700"}},{"arcs":[[318,319,320,321]],"type":"Polygon","properties":{"id":"14000US56039967701"}},{"arcs":[[322,-162,323]],"type":"Polygon","properties":{"id":"14000US56023978001"}},{"arcs":[[-163,-323,324,325,-169,-154,326]],"type":"Polygon","properties":{"id":"14000US56023978002"}},{"arcs":[[-28,327,328,-233,-238,329,-244]],"type":"Polygon","properties":{"id":"14000US56031959100"}},{"arcs":[[-97,330,-302,-178,-313,-307],[-110]],"type":"Polygon","properties":{"id":"14000US56017967900"}},{"arcs":[[-125,331,332,-136]],"type":"Polygon","properties":{"id":"14000US56021001301"}},{"arcs":[[-277,-112,-142]],"type":"Polygon","properties":{"id":"14000US56021000502"}},{"arcs":[[-249,-147,-139,333]],"type":"Polygon","properties":{"id":"14000US56021000601"}},{"arcs":[[334,-250,-334,-143,-77,-129,-282]],"type":"Polygon","properties":{"id":"14000US56021000701"}},{"arcs":[[335,-42]],"type":"Polygon","properties":{"id":"14000US56019955202"}},{"arcs":[[-336,-41]],"type":"Polygon","properties":{"id":"14000US56019955201"}},{"arcs":[[336,337,-206,-246,-219,-290]],"type":"Polygon","properties":{"id":"14000US56025001801"}},{"arcs":[[338,339,340,341]],"type":"Polygon","properties":{"id":"14000US56025000601"}},{"arcs":[[-253,-183,342,-342,343,-210]],"type":"Polygon","properties":{"id":"14000US56025000602"}},{"arcs":[[344,-107,345,346,347,348,349,350]],"type":"Polygon","properties":{"id":"14000US56001962700"}},{"arcs":[[-346,-109,-106,351,352]],"type":"Polygon","properties":{"id":"14000US56001963000"}},{"arcs":[[353,354,355,356,357,358,359,-30,360,-317,361]],"type":"Polygon","properties":{"id":"14000US56033000600"}},{"arcs":[[362,363,364,-359,365]],"type":"Polygon","properties":{"id":"14000US56033000100"}},{"arcs":[[366,-366,-358]],"type":"Polygon","properties":{"id":"14000US56033000200"}},{"arcs":[[-104,367,368,369]],"type":"Polygon","properties":{"id":"14000US56001963500"}},{"arcs":[[370,371,-368,-108,-345,372,-350,373]],"type":"Polygon","properties":{"id":"14000US56001963700"}},{"arcs":[[374,-348]],"type":"Polygon","properties":{"id":"14000US56001962800"}},{"arcs":[[-347,-353,375,-374,-349,-375]],"type":"Polygon","properties":{"id":"14000US56001962900"}},{"arcs":[[-221,-245,-330,-239,-237,376,377,-230],[-373,-351]],"type":"Polygon","properties":{"id":"14000US56001963900"}},{"arcs":[[378,-369,-372]],"type":"Polygon","properties":{"id":"14000US56001963600"}},{"arcs":[[-352,-105,-370,-379,-371,-376]],"type":"Polygon","properties":{"id":"14000US56001963400"}},{"arcs":[[-88,-99,-310,379,-165,-326,380,381,382,383,-319,384,385,386]],"type":"Polygon","properties":{"id":"14000US56039967601"}},{"arcs":[[387,388,389,-385,-322,390,391,-383]],"type":"Polygon","properties":{"id":"14000US56039967704"}},{"arcs":[[-386,-390,392,-388,-382,393]],"type":"Polygon","properties":{"id":"14000US56039967602"}},{"arcs":[[394,-320,-384,-392]],"type":"Polygon","properties":{"id":"14000US56039967802"}},{"arcs":[[-391,-321,-395]],"type":"Polygon","properties":{"id":"14000US56039967801"}},{"arcs":[[-393,-389]],"type":"Polygon","properties":{"id":"14000US56039967703"}},{"arcs":[[395,396,397]],"type":"Polygon","properties":{"id":"14000US56015957800"}},{"arcs":[[-27,398,399,-398,400,-328]],"type":"Polygon","properties":{"id":"14000US56015957700"}},{"arcs":[[-400,401,402,-396]],"type":"Polygon","properties":{"id":"14000US56015957900"}},{"arcs":[[-401,-397,-403,403,-115,404,-234,-329]],"type":"Polygon","properties":{"id":"14000US56015958000"}},{"arcs":[[-4,405,406,-339,-343]],"type":"Polygon","properties":{"id":"14000US56025000501"}},{"arcs":[[-3,407,-406]],"type":"Polygon","properties":{"id":"14000US56025000502"}},{"arcs":[[408,-39,-288,-303,-331,-96],[-215,409]],"type":"Polygon","properties":{"id":"14000US56043000200"}},{"arcs":[[-216,-410]],"type":"Polygon","properties":{"id":"14000US56043000302"}},{"arcs":[[-318,-361,-40,-409,-95]],"type":"Polygon","properties":{"id":"14000US56003962600"}},{"arcs":[[410,-362,-316,-213]],"type":"Polygon","properties":{"id":"14000US56003962800"}},{"arcs":[[411,412,-363,-367,-357]],"type":"Polygon","properties":{"id":"14000US56033000300"}},{"arcs":[[413,-412,-356]],"type":"Polygon","properties":{"id":"14000US56033000400"}},{"arcs":[[-289,-188,-204,-199,-211,-344,-341,414,-337]],"type":"Polygon","properties":{"id":"14000US56025001603"}},{"arcs":[[-207,-338,-415,-340,-407,-408,-2,-191]],"type":"Polygon","properties":{"id":"14000US56025001602"}},{"arcs":[[-50,-202,-193,-252,-196,-203]],"type":"Polygon","properties":{"id":"14000US56025000800"}},{"arcs":[[-364,-413,-414,-355,415,-67,-32,416]],"type":"Polygon","properties":{"id":"14000US56033000501"}},{"arcs":[[-365,-417,-31,-360]],"type":"Polygon","properties":{"id":"14000US56033000502"}},{"arcs":[[417,418,419,420,421,422,-159,423,424]],"type":"Polygon","properties":{"id":"14000US56041975301"}},{"arcs":[[-422,425,-418,426]],"type":"Polygon","properties":{"id":"14000US56041975402"}},{"arcs":[[427]],"type":"Polygon","properties":{"id":"14000US56041975201"}},{"arcs":[[-236,428,-138,-20,429,-130,-82,-19,-134,-121,430,-377]],"type":"Polygon","properties":{"id":"14000US56021001902"}},{"arcs":[[-333,431,432,-251,-335,-22,-137]],"type":"Polygon","properties":{"id":"14000US56021980801"}},{"arcs":[[-433,433,-279,-278,-145,-248]],"type":"Polygon","properties":{"id":"14000US56021001401"}},{"arcs":[[-124,434,-280,-434,-432,-332]],"type":"Polygon","properties":{"id":"14000US56021001402"}},{"arcs":[[-235,-405,-114,-281,-435,-123,-135,-429]],"type":"Polygon","properties":{"id":"14000US56021001901"}},{"arcs":[[435,436,-284,-55,-69]],"type":"Polygon","properties":{"id":"14000US56011950200"}},{"arcs":[[437,-285,-437]],"type":"Polygon","properties":{"id":"14000US56011950300"}},{"arcs":[[-158,-275,-272,438,-424],[-428]],"type":"Polygon","properties":{"id":"14000US56041975202"}},{"arcs":[[-421,439,-419,-426]],"type":"Polygon","properties":{"id":"14000US56041975401"}},{"arcs":[[-440,-420]],"type":"Polygon","properties":{"id":"14000US56041975302"}},{"arcs":[[-380,-309,-315,440,-166]],"type":"Polygon","properties":{"id":"14000US56035000103"}},{"arcs":[[-441,-314,-301,-255,-167]],"type":"Polygon","properties":{"id":"14000US56035000104"}},{"arcs":[[441,-265,-7,-274]],"type":"Polygon","properties":{"id":"14000US56037970905"}},{"arcs":[[-261,-269,-263,-442,-273]],"type":"Polygon","properties":{"id":"14000US56037970904"}},{"arcs":[[-24,-283,-127,-430]],"type":"Polygon","properties":{"id":"14000US56021001100"}}]}}}