{"type":"Topology","arcs":[[[5406,2653],[298,46],[176,29]],[[5880,2728],[27,-142]],[[5907,2586],[51,-278]],[[5958,2308],[18,-96]],[[5976,2212],[-21,11],[-20,25],[-31,14],[-15,36],[-16,18],[-17,2],[-23,20],[-20,-24]],[[5813,2314],[-32,-7],[-24,12],[-31,2],[-1,21],[-74,0],[-20,-5],[-38,9],[-31,-13],[2,-14]],[[5564,2319],[-48,12],[-25,-2],[-65,10],[-15,34],[0,75],[11,52],[-16,41],[0,18],[25,54],[-25,40]],[[5180,2620],[226,33]],[[5564,2319],[32,-71],[23,-27],[8,-43],[33,-37],[16,-52],[4,-41]],[[5680,2048],[-360,-51]],[[5320,1997],[-48,233],[-37,155],[-8,15],[-37,1],[5,63]],[[5195,2464],[21,5],[-36,151]],[[5907,2586],[134,16],[31,-74],[20,-17]],[[6092,2511],[-28,-28],[-8,-17],[-13,-72],[15,-32],[46,-52],[13,-49]],[[6117,2261],[-35,-12],[-28,5],[-30,33],[-35,27],[-31,-6]],[[6092,2511],[23,-12],[11,-18]],[[6126,2481],[-31,-54],[-4,-30],[29,-66],[8,-33],[23,-50]],[[6151,2248],[-34,13]],[[6468,1474],[45,-18],[59,3],[46,17]],[[6618,1476],[28,-94],[6,-51],[56,-144],[23,-26],[31,-66]],[[6762,1095],[-38,-30],[-103,-24],[-34,-18],[-27,-27]],[[6560,996],[-1,52],[-6,46],[8,16],[-8,31],[14,31],[6,38],[-21,29],[-1,34],[-32,62],[-51,139]],[[9193,3363],[31,-115],[10,-45]],[[9234,3203],[-73,42],[-151,62]],[[9010,3307],[21,110],[162,-54]],[[9234,3203],[22,-4],[12,-16]],[[9268,3183],[-21,-11],[-11,-25],[-50,16],[-39,27],[-52,8],[-14,7],[-42,-21],[-15,13],[-26,-1],[-7,13]],[[8991,3209],[19,98]],[[9940,1888],[93,-18],[32,-9]],[[10065,1861],[-15,-41],[-29,-32]],[[10021,1788],[-32,11],[-16,-8],[-39,2],[-35,-16],[-66,-7]],[[9833,1770],[14,34],[42,24],[51,60]],[[9804,1718],[16,5],[47,-8],[25,-13],[69,-18]],[[9961,1684],[0,-44],[11,-26],[-35,-2],[-24,-15],[-11,-18]],[[9902,1579],[-51,27],[-55,58],[-29,21]],[[9767,1685],[16,13],[3,22],[18,-2]],[[9804,1718],[20,24],[9,28]],[[10021,1788],[-12,-30],[-30,7],[-18,-81]],[[10021,2943],[69,-72],[8,-5],[-16,-50],[-14,-23],[-31,-27]],[[10037,2766],[-46,45],[-67,76]],[[9924,2887],[97,56]],[[4693,1039],[21,-6],[29,33],[74,2],[56,14],[33,26],[4,-18],[73,11],[-3,-20],[18,-21]],[[4998,1060],[-13,12],[-33,-6],[-68,-44],[3,-16],[86,-28],[73,-32],[47,-42],[28,-17],[31,-6]],[[5152,881],[49,-3],[34,9],[43,17],[47,32]],[[5325,936],[24,-194],[23,3]],[[5372,745],[8,-52],[-69,-36],[-27,-3],[-24,-62],[-82,-28]],[[5178,564],[-20,154],[-62,-8]],[[5096,710],[-216,-26],[20,-144],[-128,-15]],[[4772,525],[-32,208]],[[4740,733],[-47,306]],[[1579,1875],[-2,-45],[10,-33],[-12,-61]],[[1575,1736],[-53,-9]],[[1522,1727],[-54,9]],[[1468,1736],[14,72],[7,10],[63,33],[27,24]],[[1096,2050],[88,22]],[[1184,2072],[7,-10],[21,-64],[24,-48],[39,-35],[82,-29],[-26,-29],[58,-57],[33,-25],[30,-36],[16,-3]],[[1522,1727],[1,-43],[-18,-30],[-96,8],[-22,6],[-60,35],[-26,10],[-29,-3],[-106,-35],[-32,-1],[-66,15]],[[1068,1689],[-38,155],[-46,178],[112,28]],[[8015,9285],[156,6],[0,-201],[2,-87],[170,8],[-4,182]],[[8339,9193],[-3,100],[169,2],[15,-285],[326,0]],[[8846,9010],[4,-140],[1,-143],[3,-69]],[[8854,8658],[-15,-41],[-255,-67],[-242,-57],[-76,-9],[-101,-32],[-21,25],[-29,-7],[-346,-137]],[[7769,8333],[-34,-14]],[[7735,8319],[-8,50],[-122,634],[247,277],[163,5]],[[5396,3433],[53,-97],[300,148]],[[5749,3484],[47,23]],[[5796,3507],[11,-35],[-20,-12],[-18,-40],[6,-72],[-2,-34],[-17,-35],[1,-16],[-41,-48],[-17,-30],[6,-85],[-3,-31],[10,-45],[-12,-39],[3,-60]],[[5703,2925],[-171,122],[-6,44],[41,55],[-46,29],[17,16],[-206,146],[-78,61]],[[5254,3398],[142,35]],[[6238,3099],[178,-42],[377,-86]],[[6793,2971],[-97,-222],[-102,-226]],[[6594,2523],[-5,-13],[-61,13],[30,-115],[8,-62],[22,-55]],[[6588,2291],[-26,6]],[[6562,2297],[-25,50],[-40,55],[-23,72],[-7,11],[-43,35],[-101,94]],[[6323,2614],[-42,93],[-28,37],[-17,12],[-24,42],[-10,48],[36,43],[15,57],[-53,11],[-23,12],[22,39],[47,65],[-8,26]],[[5413,4277],[12,-28],[48,-47],[69,-106]],[[5542,4096],[-38,-9],[-33,-19],[1,-41],[8,-25],[-26,-31],[-6,-35],[-45,-35],[0,-16],[13,-48]],[[5416,3837],[-30,-1],[-15,-8],[-176,-21]],[[5195,3807],[-63,117]],[[5132,3924],[26,0],[56,45],[56,10],[38,55],[2,37],[-24,47],[8,24],[35,11],[49,41],[4,31],[31,52]],[[5807,3755],[25,1],[63,25],[54,6],[-4,25],[97,57],[76,65],[22,-2]],[[6140,3932],[22,3],[29,33]],[[6191,3968],[3,-9],[-23,-29],[-32,-56],[-33,-11],[4,-20],[-11,-28],[-7,-58],[28,-2],[-14,-25],[12,-14],[-34,-26],[-29,-10],[-24,19],[-22,-43],[22,-85],[-20,-24],[-31,-7],[-17,-22],[21,-15],[38,11],[12,-24]],[[6034,3490],[14,-22],[-49,-6],[4,-23],[16,-4],[0,-34],[-12,-17]],[[6007,3384],[-22,21],[-42,28],[-35,4],[-40,11],[-30,28],[4,46],[10,12]],[[5852,3534],[56,-14],[3,31],[-64,83],[12,34],[-45,41],[-8,19]],[[5806,3728],[1,27]],[[6270,6350],[35,2],[46,25],[58,12],[24,9],[126,70],[57,23],[19,27],[28,-3],[28,-33],[36,-30],[50,-27],[47,-4],[22,-18],[27,-12],[28,-21],[15,-26],[40,-23]],[[6956,6321],[31,-183]],[[6987,6138],[-35,-33],[-47,-6],[-48,7],[-33,114],[-34,28],[-50,59],[-46,44],[-30,8],[-54,1],[-32,-16],[-7,-31],[-44,-37],[-31,-45],[-47,-29],[-39,-6],[-44,-26],[-40,-46],[-64,-5]],[[6262,6119],[5,20],[-53,15],[7,36],[25,77],[24,83]],[[6987,6138],[25,-179]],[[7012,5959],[-85,-33],[-238,-96],[-93,-33],[-33,-44]],[[6563,5753],[-200,137],[-78,57],[-16,-27]],[[6269,5920],[30,121],[-56,6],[19,72]],[[5581,1461],[314,52]],[[5895,1513],[33,-69],[-25,-4],[-13,-37],[26,-45],[-12,-46],[-15,-33],[-13,-43],[-27,-19],[1,-25]],[[5850,1192],[-21,-25],[-57,-31],[-53,12],[-63,-42],[-10,-1],[4,-42],[-17,-46],[-14,-13]],[[5619,1004],[-78,451],[40,6]],[[5154,4889],[239,84],[604,218],[62,23],[81,25]],[[6140,5239],[94,-63]],[[6234,5176],[0,-46],[-10,-32],[5,-32],[13,-33],[-11,-19],[2,-41],[-52,-80],[-193,-256],[-150,-195]],[[5838,4442],[-26,50],[-258,-126],[-78,-40]],[[5476,4326],[-1,2]],[[5475,4328],[9,32],[-18,23],[3,15],[27,29],[-12,23],[-48,-17],[-19,0],[-21,22],[19,22],[12,26],[19,17],[-7,20],[-69,-11],[-69,35],[33,22],[11,23],[-17,20],[-18,3],[-36,-27],[-18,28],[12,38],[-39,44],[-8,31],[13,43],[-16,40],[-23,12],[-18,22],[-21,10],[-2,16]],[[1284,6625],[313,-54],[134,-17],[241,-39]],[[1972,6515],[210,-82]],[[2182,6433],[-106,-172],[-3,-96],[-1,-165],[-76,-110],[-62,-81],[-86,32],[-80,-148],[-101,40],[-6,-20],[-34,8],[-14,-151],[13,-240]],[[1626,5330],[-148,8],[-133,4],[-38,3],[-372,20],[-25,3]],[[910,5368],[1,61],[13,53],[13,29],[5,44],[-12,92],[54,61],[9,35],[7,90],[-28,62],[-65,57],[-13,31],[26,108],[22,1],[35,47],[21,53],[-6,42],[5,23],[-13,98],[18,27],[-3,45],[37,43],[97,54],[40,10],[36,29],[56,54],[19,8]],[[706,3395],[146,-15],[-56,264],[57,6],[-2,21],[177,26],[188,25],[-48,244],[-33,148],[100,14],[-30,33],[-21,64],[-20,18],[-14,28],[-3,43],[-14,29],[-21,-1],[-6,26],[37,216]],[[1143,4584],[81,4],[-5,43],[20,-6],[2,34],[153,4],[243,-9]],[[1637,4654],[46,-8],[531,-162]],[[2214,4484],[33,-201],[-452,-75],[58,-345],[55,-359]],[[1908,3504],[-187,-26],[-103,-17],[-346,-44],[10,-57],[-261,19],[25,-188]],[[1046,3191],[-337,26],[-3,178]],[[851,4698],[310,-20],[-14,-73]],[[1147,4605],[-4,-21]],[[706,3395],[-114,11]],[[592,3406],[2,32],[-6,43],[5,17],[41,31],[4,33],[-30,47],[-6,26],[66,63],[3,38],[-14,54],[-1,33],[10,38],[24,45],[5,17],[-23,58],[-8,43],[3,41],[11,36],[23,23],[63,29],[5,17],[28,34],[38,80],[38,145],[-1,12],[19,29],[23,55],[-11,23],[-25,18],[-43,65],[-7,20],[23,47]],[[1147,4605],[23,27],[11,85],[27,71],[-18,24],[2,51],[13,95],[-8,17]],[[1197,4975],[26,-4],[12,-13],[25,21],[22,-3],[40,-60],[56,-39],[27,1],[28,25],[15,3],[58,-14],[34,1],[91,25]],[[1631,4918],[6,-264]],[[5775,3904],[37,-3],[29,-13],[29,11],[11,-25],[-38,-25],[5,-16]],[[5848,3833],[11,-37],[-15,-17],[-37,-24]],[[5807,3755],[-46,-6],[-57,-30]],[[5704,3719],[-9,42]],[[5695,3761],[-3,17],[30,14],[-11,18],[56,14],[9,14],[-7,39],[6,27]],[[5838,4442],[105,-199],[279,-195]],[[6222,4048],[-8,-25],[-24,-4],[7,-27],[-6,-24]],[[6140,3932],[-28,16],[-17,-6],[-80,-44],[-36,-16],[-131,-49]],[[5775,3904],[-12,-3],[-38,-29],[-29,7],[-11,21],[-6,69],[-42,22],[-6,18],[23,91]],[[5654,4100],[21,16],[-3,21],[-33,35],[-26,42],[-36,9],[0,40],[-7,26],[-15,11],[-25,-4],[-28,5],[-26,25]],[[9185,2376],[-10,15],[2,43],[-13,28],[26,23],[40,46],[37,11],[12,12],[24,57]],[[9303,2611],[9,27],[18,24]],[[9330,2662],[159,-107],[60,-42],[-18,-33],[74,-53],[-25,-30],[27,-14],[-55,-123]],[[9552,2260],[-111,-250]],[[9441,2010],[-282,184]],[[9159,2194],[-11,23],[12,21],[-12,59],[5,26],[30,29],[2,24]],[[10152,2796],[-3,36],[12,22]],[[10161,2854],[26,-44],[74,-16],[29,-31]],[[10290,2763],[-20,-19],[-63,-11],[-64,-48],[-41,-3]],[[10102,2682],[23,16],[4,25],[23,24],[10,23],[-10,26]],[[9086,2131],[27,19],[14,27],[32,17]],[[9441,2010],[-79,-28]],[[9362,1982],[-136,-49]],[[9226,1933],[-43,-16],[-79,-3]],[[9104,1914],[9,6],[6,41],[24,9],[-3,21],[11,16],[-23,26],[3,40],[-43,42],[-2,16]],[[6967,7012],[31,2],[31,21],[51,8],[26,29],[4,23],[-16,64],[-14,31],[-31,25],[-18,5],[-49,-3],[-18,10],[-23,41],[162,193],[169,221],[60,83],[88,108]],[[7420,7873],[72,-149],[174,-347]],[[7666,7377],[88,-176]],[[7754,7201],[-297,-384],[-63,-86],[-47,27],[-12,-19],[-8,-55],[-25,-50],[5,-48],[-12,-11],[-56,-11],[-36,-24]],[[7203,6540],[-265,231],[-29,10],[-29,39]],[[6880,6820],[14,6],[31,-4],[15,17],[0,21],[-19,44],[-3,17],[23,25],[33,17],[5,19],[-12,30]],[[4872,5484],[23,8],[45,2],[19,-8],[38,9],[21,16],[32,-26],[39,-23],[34,2],[9,11],[55,24],[54,5],[48,-4]],[[5289,5500],[11,-22]],[[5300,5478],[-46,-5],[11,-50],[17,5],[15,-49],[-52,-7],[26,-164],[-93,-10],[-6,-42],[7,-19],[-14,-60],[-25,-28]],[[5140,5049],[-121,-56]],[[5019,4993],[-7,50],[-59,19],[-4,28],[-29,-4],[-14,31],[-10,90],[-50,-20],[2,45],[13,112],[40,17],[-29,123]],[[5030,3341],[224,57]],[[5703,2925],[205,-145]],[[5908,2780],[8,-47],[-36,-5]],[[5180,2620],[-64,316]],[[5116,2936],[-86,405]],[[4351,3923],[216,55],[135,35],[14,-27],[223,105],[90,39]],[[5029,4130],[103,-206]],[[5195,3807],[201,-374]],[[5030,3341],[-367,-93]],[[4663,3248],[-96,215],[-216,460]],[[5416,3837],[7,-29],[56,-20],[52,21],[40,2],[34,-35],[24,4],[46,-35],[20,16]],[[5704,3719],[12,-30],[34,5]],[[5750,3694],[-1,-46]],[[5749,3648],[-91,-54],[-25,-20],[36,-42],[25,-11],[14,10],[41,-47]],[[3516,6102],[40,58],[132,168],[73,109],[243,269],[165,-457],[27,14],[28,-1],[10,15],[24,0],[15,25],[23,24],[23,-8],[21,5],[24,19],[27,-19],[18,-48],[93,112]],[[4502,6387],[30,-16],[35,15],[29,-17],[17,24],[31,5],[31,-11],[17,-32]],[[4692,6355],[-9,-19],[39,-58],[37,-12],[30,-47],[0,-19],[23,-34]],[[4812,6166],[23,-10],[77,-51],[6,-33],[-20,-51]],[[4898,6021],[-241,-108]],[[4657,5913],[-90,-41],[-645,-290],[-173,-65],[137,-301],[78,-140]],[[3964,5076],[-5,-42],[-117,-89],[-34,-49]],[[3808,4896],[-94,193],[-38,88]],[[3676,5177],[-159,91],[81,130],[-52,39],[-61,22],[-97,43],[-77,71],[-106,60]],[[3205,5633],[94,146],[84,133],[101,142],[32,48]],[[5908,2780],[261,339]],[[6169,3119],[3,-34],[66,14]],[[6323,2614],[15,-31],[4,-47],[10,-22],[-28,0],[-64,29],[-18,-40]],[[6242,2503],[-7,42],[-14,-12],[-95,-52]],[[5300,5478],[28,-8],[15,-36],[27,20],[26,-4],[12,-37],[34,26],[0,25],[14,10],[29,-12],[10,19],[31,1],[27,16],[27,38],[15,6],[34,-15],[12,36],[24,-3],[34,-19]],[[5699,5541],[73,-49]],[[5772,5492],[258,-174],[110,-79]],[[5154,4889],[2,13],[-29,33],[-8,38],[12,29],[9,47]],[[5542,4096],[16,-25],[83,34],[13,-5]],[[4898,6021],[-2,-13],[16,-23],[22,-16],[25,-36],[12,-32],[45,-32],[34,-7],[53,-31],[8,-32],[87,30],[45,-105],[14,5],[20,-60]],[[5277,5669],[-28,-10],[23,-66],[-18,-7],[35,-86]],[[4872,5484],[-61,212],[-12,-6],[-61,142],[-81,81]],[[5019,4993],[-47,-22],[-218,-105]],[[4754,4866],[-393,-192],[-118,-51],[-157,-73],[-2,68],[-19,504],[-101,-46]],[[4754,4866],[32,-48],[-5,-42],[32,-28],[30,-41],[9,-41],[-10,-40],[24,-8],[25,-46],[35,-32],[47,-97],[13,-50],[32,8],[113,-226]],[[5131,4175],[-102,-45]],[[4351,3923],[-530,-136]],[[3821,3787],[-128,266],[-49,108],[-24,48],[-40,89]],[[3580,4298],[220,43],[209,44],[-56,155],[-145,356]],[[1425,7302],[75,-23]],[[1500,7279],[-15,-48],[-3,-58],[-36,-50],[60,-51],[40,-153],[4,-25]],[[1550,6894],[-25,-12],[-55,-7],[-86,-22],[-24,-1],[-42,10],[-31,17]],[[1287,6879],[13,15],[63,28],[10,14],[-4,44],[9,65],[56,77],[6,83],[-21,30],[6,67]],[[1550,6894],[59,43]],[[1609,6937],[35,-25],[2,-17],[40,2],[22,-6],[40,1],[31,-16],[69,-73],[37,44],[14,50]],[[1899,6897],[29,-4],[41,-18],[18,4],[30,22],[51,14],[11,12],[6,41],[12,17],[29,5],[65,-19]],[[2191,6971],[-219,-456]],[[1284,6625],[12,22],[-4,31],[-26,21],[-11,43],[16,65],[17,13],[10,32],[-11,27]],[[1669,7615],[16,-19],[-27,-45],[-3,-18],[15,-27],[65,-12],[-41,-59],[-43,-16]],[[1651,7419],[-54,-14],[-74,-29],[-23,-2],[-47,10]],[[1453,7384],[5,22],[24,16],[47,62],[12,27],[21,25],[31,23],[24,47],[37,0],[15,9]],[[1500,7279],[130,-38]],[[1630,7241],[109,-33],[257,-78],[247,-77]],[[2243,7053],[-52,-82]],[[1899,6897],[-56,5],[-23,14],[-28,35],[-58,-14],[-24,2],[7,53],[-22,4],[-31,-10],[-55,-49]],[[9504,3554],[17,16],[36,9],[12,11],[19,-13],[22,-1],[12,36],[-42,48],[-1,7]],[[9579,3667],[38,-12],[58,-36],[19,-8],[35,-39],[29,-11],[34,-49],[5,-23]],[[9797,3489],[-15,-17],[-7,-87],[-23,-62],[-3,-29],[21,-62],[4,-45],[10,-27],[41,-39]],[[9825,3121],[-32,-33],[-46,0],[-23,11],[-51,48]],[[9673,3147],[-11,10]],[[9662,3157],[5,41],[15,26],[-8,89],[-38,57],[-2,33],[-38,32],[-15,42],[-62,47],[-21,11]],[[9498,3535],[6,19]],[[6170,483],[19,0],[11,-31],[16,5],[5,-41],[13,-20],[-11,-10]],[[6223,386],[-20,1]],[[6203,387],[-25,45]],[[6178,432],[-25,30],[17,21]],[[6250,232],[22,3],[25,-47],[31,9]],[[6328,197],[15,-136],[19,-39]],[[6362,22],[-95,2]],[[6267,24],[-9,27],[-1,29]],[[6257,80],[7,70],[-5,56],[-9,26]],[[4637,1652],[543,97]],[[5180,1749],[19,-81],[-28,-5],[9,-60],[19,-99],[-23,-3],[13,-32],[26,-86],[-24,2],[-33,-11],[-103,-16],[8,-54],[-24,-3],[9,-56],[-12,-2]],[[5036,1243],[-158,-21],[0,-4]],[[4878,1218],[-37,-5],[-16,25],[-10,44],[1,20],[-14,43],[-9,0],[9,49],[-3,36],[-38,-5],[-15,22],[-57,-1],[-15,25],[-8,63],[-29,118]],[[6267,24],[-105,4]],[[6162,28],[8,22],[-3,38],[32,-8],[58,0]],[[4222,666],[121,16]],[[4343,682],[33,-254],[32,-194],[-175,-26]],[[4233,208],[-29,181],[-9,52],[-34,213],[61,12]],[[6402,1736],[-139,-19]],[[6263,1717],[0,37],[12,13],[-12,16],[43,14],[20,36],[-10,16],[34,4],[8,-25],[32,-12],[-13,-24],[25,-56]],[[6151,2248],[6,-2]],[[6157,2246],[3,-2]],[[6160,2244],[31,3],[9,-61]],[[6200,2186],[1,-73],[-13,-28]],[[6188,2085],[-19,-18],[-16,1]],[[6153,2068],[4,30],[-6,16]],[[6151,2114],[-4,10],[5,56]],[[6152,2180],[0,19],[-20,16],[-4,16],[23,17]],[[8730,2471],[101,-21],[131,-29],[85,-17],[-3,-7],[60,-34],[12,17],[69,-4]],[[9086,2131],[-13,3],[-44,-69],[-88,-112],[-44,-48]],[[8897,1905],[-73,7]],[[8824,1912],[-22,11],[-26,-5]],[[8776,1918],[-13,69],[45,15],[-23,147],[-40,223]],[[8745,2372],[-15,99]],[[8735,1444],[15,1],[188,34],[-5,141],[-21,189],[-7,96]],[[8905,1905],[199,9]],[[9226,1933],[19,-164],[24,-137],[4,-94]],[[9273,1538],[18,-147]],[[9291,1391],[-85,-12],[-110,-65],[-102,-54],[-172,-32]],[[8822,1228],[-25,26],[8,24],[-33,28],[22,29],[-75,36],[40,47],[-24,26]],[[9552,2260],[88,14],[219,-40]],[[9859,2234],[93,-18],[-80,-93],[26,-4],[106,-34],[43,-41],[-8,-6],[77,-45],[33,-15]],[[10149,1978],[-22,-53],[-20,-28],[-42,-36]],[[9940,1888],[-193,35]],[[9747,1923],[-142,38],[-88,29],[-76,20]],[[6205,2273],[9,-56]],[[6214,2217],[4,-29]],[[6218,2188],[-18,-2]],[[6160,2244],[-1,22],[46,7]],[[6205,2273],[14,2],[24,37]],[[6243,2312],[26,19],[18,-105]],[[6287,2226],[-73,-9]],[[6019,554],[0,30]],[[6019,584],[39,-25],[8,12],[54,3],[13,16],[42,6],[47,24]],[[6222,620],[-1,-18],[12,-35]],[[6233,567],[54,-59]],[[6287,508],[-30,-2]],[[6257,506],[-9,16],[-23,-3],[-8,17],[-68,-10],[-27,-36]],[[6122,490],[-14,-29],[-40,-1],[-17,21],[-14,41],[-20,-30]],[[6017,492],[2,62]],[[6168,488],[56,-8],[11,9],[-1,25],[23,-8]],[[6287,508],[30,-68],[4,-19]],[[6321,421],[-8,-46]],[[6313,375],[-17,1],[-5,23],[-37,-27],[-31,14]],[[6170,483],[-2,5]],[[6218,2188],[72,1]],[[6290,2189],[0,-33]],[[6290,2156],[-45,0]],[[6245,2156],[-25,0]],[[6220,2156],[-2,32]],[[6220,2156],[0,-71]],[[6220,2085],[-32,0]],[[6290,2156],[0,-27]],[[6290,2129],[0,-44]],[[6290,2085],[-18,0]],[[6272,2085],[-27,0]],[[6245,2085],[0,71]],[[6290,2129],[66,1]],[[6356,2130],[10,-53]],[[6366,2077],[-16,9],[-60,-1]],[[6366,2077],[24,-46]],[[6390,2031],[-48,-6],[-21,3],[-90,-6]],[[6231,2022],[14,28],[27,6],[0,29]],[[7472,4313],[161,169],[81,118],[192,227]],[[7906,4827],[295,-233],[56,-46],[151,-130]],[[8408,4418],[92,-71]],[[8500,4347],[-281,-395]],[[8219,3952],[-167,-236]],[[8052,3716],[-229,187],[-182,154],[-46,33],[-187,151]],[[7408,4241],[5,10],[59,62]],[[9273,4173],[109,157]],[[9382,4330],[12,-15],[51,-19],[26,-28],[-4,-42],[54,-11],[6,-21],[17,-21],[30,-2],[21,-22],[8,-40],[24,-16],[19,12],[50,-18],[18,-19],[-5,-29],[10,-23]],[[9719,4016],[-49,-29]],[[9670,3987],[-57,90],[-50,-31],[-54,-10],[-20,16],[-25,43],[-24,14],[-9,26],[-90,32],[-68,6]],[[8325,5335],[181,223],[164,207]],[[8670,5765],[140,177],[173,210],[38,39]],[[9021,6191],[-1,-50],[24,-18],[8,-28],[-2,-23],[18,-19],[0,-23],[-16,-46],[12,-26],[-19,-9],[-5,-63],[-31,-18],[0,-26],[-22,-29],[-6,-24],[8,-34],[-40,-34],[24,-22],[19,-1],[34,-31],[6,-25],[-17,-60],[-17,-35],[2,-40],[25,-33],[4,-29],[-12,-21],[-32,-12],[0,-41],[-6,-17],[-30,-34],[-38,-13],[-25,-41],[-3,-62],[6,-36],[19,-24],[-3,-27],[-25,-8],[-4,-26],[14,-33],[-1,-47]],[[8889,5003],[-32,-38]],[[8857,4965],[-47,29],[-212,153]],[[8598,5147],[-108,77],[-6,-7],[-111,91],[-7,-7],[-41,34]],[[5749,3648],[34,7],[16,-14],[13,21],[9,-143]],[[5821,3519],[-25,-12]],[[5750,3694],[56,34]],[[5852,3534],[-31,-15]],[[5180,1749],[175,31]],[[5355,1780],[160,27],[54,-287]],[[5569,1520],[-57,-34],[-64,-10],[-41,-2],[-19,-12],[-27,-38],[7,-38],[-20,-56],[-13,-51],[1,-44],[15,-62],[0,-32],[-43,-86],[-2,-29],[11,-77]],[[5317,949],[-25,-2],[-30,23],[-11,17],[-39,4]],[[5212,991],[-18,72],[-59,11],[-18,66],[-70,-10],[-11,113]],[[4680,1126],[66,9],[92,18],[50,14],[-10,51]],[[5212,991],[-18,12],[-30,1],[-18,25],[-13,-4]],[[5133,1025],[-30,-4],[-34,27],[-71,12]],[[4693,1039],[-13,87]],[[5895,1513],[288,46]],[[6183,1559],[3,-43],[-8,-22],[-46,-58],[-52,-78],[-41,-37],[-44,-25],[-23,-25],[-3,-38],[18,-60]],[[5987,1173],[-34,-12],[-28,30],[-10,29],[-42,-12],[-23,-16]],[[5680,2048],[189,28]],[[5869,2076],[130,19]],[[5999,2095],[11,2],[12,-73]],[[6022,2024],[9,-63],[85,15]],[[6116,1976],[27,-91],[47,-33],[12,-16]],[[6202,1836],[-32,-5],[-92,50],[-31,25],[-78,22],[-32,-25],[-23,-38],[-18,-47],[-66,-53]],[[5830,1765],[-9,53],[-30,75],[-63,77],[-77,-9],[-35,-13],[-79,-11],[-28,2],[-68,-30],[-66,-19],[-39,11]],[[5336,1901],[-16,96]],[[6287,2226],[3,-37]],[[6168,488],[-10,-14],[-23,-3],[-13,19]],[[6202,1836],[10,-54],[16,-35],[14,-56],[-3,-59],[8,-62]],[[6247,1570],[-64,-11]],[[5895,1513],[-9,14],[4,53],[-34,111],[-1,14],[-20,28],[-5,32]],[[3478,2360],[66,10],[17,37],[-22,29],[26,45],[-9,31],[11,26],[41,9],[-3,14],[32,19],[26,33],[-11,38],[15,15],[1,24],[-20,30],[7,27],[-23,23],[-1,65],[10,14],[-4,25],[8,28],[-9,22],[9,36],[21,7],[-7,23]],[[3659,2990],[1,19],[23,12],[24,-33],[11,14],[59,16]],[[3777,3018],[188,49]],[[3965,3067],[259,67]],[[4224,3134],[43,-179],[55,-273]],[[4322,2682],[69,-316],[87,22],[13,-62]],[[4491,2326],[54,-250],[34,-158]],[[4579,1918],[-342,-59]],[[4237,1859],[-19,-3],[-21,50],[-34,-7],[-10,63],[38,7],[-4,25],[-286,-39],[-32,179],[-262,-35],[-10,-2],[-76,32]],[[3521,2129],[-10,33],[-58,-8],[-5,18],[57,9],[-15,37],[-8,49],[10,1],[-14,92]],[[881,5180],[26,-6],[45,-60],[77,-15],[40,-1],[45,-10],[33,-13],[6,-27],[-4,-25],[20,-35],[28,-13]],[[851,4698],[33,63],[37,37],[24,36],[-17,14],[-58,-2],[-23,20],[-31,14],[-15,26],[3,31],[-6,36],[4,39],[27,44],[39,39],[1,35],[12,50]],[[1626,5330],[3,-328],[2,-84]],[[881,5180],[8,58],[-1,29],[22,101]],[[7962,1928],[183,-6],[140,1]],[[8285,1923],[-10,-116],[-10,-341],[-60,-11]],[[8205,1455],[-146,8],[-79,8]],[[7980,1471],[-6,85],[-12,372]],[[7858,2108],[89,248],[11,22]],[[7958,2378],[395,-3]],[[8353,2375],[-37,-371],[-7,-81]],[[8309,1923],[-24,0]],[[7962,1928],[-169,4]],[[7793,1932],[65,176]],[[6245,2085],[-25,0]],[[5944,345],[42,20],[36,1]],[[6022,366],[19,-36],[25,-19]],[[6066,311],[-34,-42],[6,-5],[-30,-91],[32,-25],[8,-32]],[[6048,116],[-14,11],[-67,-19],[-30,26],[10,42],[15,31],[6,51],[17,43],[-20,9],[-21,35]],[[5581,1461],[-12,59]],[[5355,1780],[-19,121]],[[4124,1232],[293,42],[234,32],[29,-180]],[[4740,733],[-178,-21],[-219,-30]],[[4222,666],[-40,236],[-58,330]],[[7415,809],[31,58],[21,51],[-32,190]],[[7435,1108],[202,30]],[[7637,1138],[1,-12],[114,-152],[-7,-2],[-24,-122],[107,18],[37,-48]],[[7865,820],[-44,-52]],[[7821,768],[-38,-5],[-43,7],[-40,-1],[-52,17],[-58,14],[-29,-21],[-31,-2],[-59,16],[-51,5]],[[7420,798],[-5,11]],[[6140,5239],[42,17],[64,89],[64,79],[124,172],[129,157]],[[7012,5959],[58,-333],[11,-73],[223,-144],[-87,-118]],[[7217,5291],[-21,-27],[-266,-368],[-97,-131]],[[6833,4765],[-142,95],[-141,99],[-316,217]],[[5968,6701],[44,49],[53,35]],[[6065,6785],[47,-74],[35,-20],[34,-26],[50,-14],[-8,-28],[-34,-19],[-21,-20],[-3,-27],[11,-48],[25,-29],[34,-58],[8,-32],[-32,-22],[-2,-36],[-18,-94],[-19,-49],[15,-37],[0,-21]],[[6187,6131],[-44,-26]],[[6143,6105],[-47,84],[-33,42],[-23,45],[0,21],[16,62],[-10,38],[-25,36],[-12,33],[11,76],[-22,52],[-5,69],[-25,38]],[[5092,6858],[26,37],[-8,31],[16,28],[-19,63],[-5,59],[25,37],[10,48],[-13,51],[16,31]],[[5140,7243],[161,26],[217,29]],[[5518,7298],[340,43],[-58,463]],[[5800,7804],[93,-82],[189,-175],[107,-106],[130,-117]],[[6319,7324],[-83,-56],[-12,12],[-24,-22],[-33,31],[-35,23],[-33,35],[-110,-95],[-125,-117]],[[5864,7135],[-152,-135],[-230,-223],[-195,-182],[-116,-104]],[[5171,6491],[-359,-325]],[[4692,6355],[19,22],[-4,31],[36,22],[14,38],[-49,50],[-34,14],[-6,19],[21,35],[17,7],[30,-4],[35,38],[33,4],[23,-46],[28,-3],[60,4],[39,24],[61,47],[37,1],[5,24],[-13,24],[1,17],[19,18],[31,15],[29,22],[-32,80]],[[5171,6491],[103,-32],[57,-15],[176,-53],[87,-26],[100,-22],[109,-33],[118,-31]],[[5921,6279],[-3,-50],[13,-43],[23,-30],[22,-39]],[[5976,6117],[-2,-53],[-47,-75],[-9,-25],[9,-27],[-6,-28]],[[5921,5909],[-220,-83],[-322,-122],[-102,-35]],[[6143,6105],[40,-81],[26,-26],[1,-20],[-13,-42]],[[6197,5936],[-128,88],[-20,49],[-40,33],[-33,11]],[[5921,6279],[-2,40],[-15,45],[-32,25],[-26,28],[-28,22],[-26,49],[-14,72],[3,15],[37,17],[-6,10],[110,51],[46,48]],[[5864,7135],[14,-34],[-14,-23],[36,-13],[-2,-14],[23,-17],[1,-28],[18,-3],[14,19],[29,23],[40,-7],[35,-30],[39,-67],[21,-49],[20,-29],[43,-48]],[[6181,6815],[-36,24],[-80,-54]],[[6181,6815],[70,-60]],[[6251,6755],[99,-79],[34,-36],[-46,-262],[-63,10],[-5,-38]],[[6262,6119],[-51,14],[-24,-2]],[[5921,5909],[-28,-43],[-37,-30],[16,-22],[-6,-31],[-21,-28],[-15,-6],[-42,14],[-12,-8],[0,-26],[18,-43],[-3,-27],[-12,-27],[-24,-34],[3,-17],[-59,-40]],[[10068,2712],[84,84]],[[10102,2682],[-18,-6]],[[10084,2676],[-16,36]],[[7010,3414],[13,-3],[196,415]],[[7219,3826],[3,-7],[49,-6],[65,-28],[-49,-78],[25,3],[21,-25],[5,-19],[42,-31],[-23,-27],[-6,-35],[37,-4],[533,-122]],[[7921,3447],[-116,-169],[100,-61],[-76,-103],[-88,75],[-101,-143],[94,-19],[-69,-127],[-6,2],[-56,-115]],[[7603,2787],[-57,13]],[[7546,2800],[-42,10]],[[7504,2810],[-114,28],[-361,78],[-124,30],[-112,25]],[[6793,2971],[91,177],[60,106],[66,160]],[[7603,2787],[267,-60],[197,-46]],[[8067,2681],[-106,-288]],[[7961,2393],[-32,-20],[-32,6],[-30,26],[-11,-2],[8,-43],[-37,-7],[-16,5],[-44,1],[-64,29],[-4,52],[-8,36],[37,27],[-23,5],[-35,18],[-22,24],[-18,30],[-20,13],[-17,34],[-28,15],[-15,25],[-10,73],[6,60]],[[9362,1982],[20,-19],[12,-32],[37,-22],[36,-37],[-2,-8],[35,-32],[-2,-26],[20,-46],[21,-3],[21,-25],[34,-21],[33,-13],[-7,-16],[21,-12]],[[9641,1670],[5,-25],[30,-56],[18,-4],[21,18],[7,-22],[27,-1],[54,-43],[11,-23],[-2,-43]],[[9812,1471],[-46,4],[-2,-30],[11,-13],[-8,-23]],[[9767,1409],[-23,39],[-38,38],[-52,10],[-17,15],[-34,12],[-47,-10]],[[9556,1513],[-71,1],[-83,12],[-48,-21],[-40,14],[-13,19],[-28,0]],[[6748,712],[72,65],[22,10],[51,10],[30,-1],[92,-29],[45,-10],[30,9],[37,29],[119,23],[31,1],[51,-12],[35,19],[15,-14],[32,-13]],[[7410,799],[-211,-336]],[[7199,463],[-377,88],[6,14],[-17,28],[8,20],[-14,19]],[[6805,632],[-23,14],[-26,-15],[-10,16]],[[6746,647],[2,65]],[[7064,1747],[225,-51],[275,-61]],[[7564,1635],[2,-56]],[[7566,1579],[5,-63]],[[7571,1516],[-50,6],[-51,-7],[-41,-20],[-22,3],[-59,-14],[-77,-13]],[[7271,1471],[-18,-2],[-20,-22],[-36,4],[-61,-5]],[[7136,1446],[-3,1]],[[7133,1447],[-13,47],[-25,56],[4,13]],[[7099,1563],[5,15],[-11,35],[-21,11],[-28,32],[-36,11],[50,64],[6,16]],[[7571,1516],[38,-210],[19,-117]],[[7628,1189],[9,-51]],[[7435,1108],[-3,19],[-120,-18]],[[7312,1109],[-40,12],[-26,21],[3,16],[-19,25],[-13,71],[6,35],[20,29],[-3,17],[13,67],[19,56],[-1,13]],[[7177,2379],[152,-39]],[[7329,2340],[-36,-99],[273,-73],[-2,-13],[104,4],[87,-29],[103,-22]],[[7793,1932],[-173,22],[-78,12],[9,-131],[13,-200]],[[7064,1747],[-16,4]],[[7048,1751],[62,250],[9,-1],[25,93],[-23,4],[19,57],[27,137],[10,88]],[[7136,1446],[12,-76],[-30,2],[-27,-14],[14,-26],[-41,-12],[-35,-23],[-63,-50],[-14,-35],[-20,-18],[-15,-26]],[[6917,1168],[-9,135]],[[6908,1303],[24,25],[51,35],[17,24],[47,49],[38,3],[29,13],[19,-5]],[[6767,748],[18,3],[3,21],[17,25],[22,9],[16,22],[-4,16],[19,37],[-9,16],[13,23],[-27,14]],[[6835,934],[11,23],[-7,28],[7,38],[-16,20],[95,13]],[[6925,1056],[387,53]],[[7415,809],[-5,-10]],[[6748,712],[19,36]],[[7099,1563],[-20,-7],[-21,-30],[-48,-15],[-48,-64],[-33,24],[-39,12]],[[6890,1483],[-44,313]],[[6846,1796],[202,-45]],[[7329,2340],[37,104],[138,366]],[[7961,2393],[-3,-15]],[[8897,1905],[8,0]],[[8735,1444],[-35,14],[-28,-12]],[[8672,1446],[-16,120],[-16,69],[-28,156],[142,85],[51,23],[19,13]],[[7821,768],[-59,-70]],[[7762,698],[-39,7],[-41,-9],[-22,-31]],[[7660,665],[-37,-12],[-16,-13],[-98,-17]],[[7509,623],[-33,64],[-9,36],[-47,75]],[[6908,1303],[-6,66]],[[6902,1369],[-12,114]],[[6925,1056],[-8,112]],[[6594,2523],[295,-73],[288,-71]],[[6846,1796],[-172,39]],[[6674,1835],[-20,116],[-64,328]],[[6590,2279],[-2,12]],[[7980,1471],[-103,11]],[[7877,1482],[-178,73],[0,12],[-133,12]],[[9128,2872],[55,11],[234,-45],[3,-6],[92,-20]],[[9512,2812],[-101,-93],[-29,-21]],[[9382,2698],[-101,6],[-35,34],[-23,15],[-15,27],[-21,-1],[-11,15],[-41,-11],[-36,-20],[-20,1]],[[9079,2764],[-9,9],[7,29],[38,39],[13,31]],[[5475,4328],[-73,-33]],[[5402,4295],[-271,-120]],[[3641,3741],[180,46]],[[4663,3248],[-359,-90],[-80,-24]],[[3965,3067],[-104,218],[-220,456]],[[7877,1482],[-15,-18],[42,-27],[-3,-20],[25,-20],[-49,-39],[-17,-22],[-24,-16],[-53,-18],[6,-21],[16,-13],[23,-44],[-8,-53]],[[7820,1171],[-37,-5],[-30,32],[-23,-37],[-41,84],[-26,-5],[-15,-15],[-20,-36]],[[8205,1455],[-20,-22],[-86,-108]],[[8099,1325],[-64,-126]],[[8035,1199],[-41,-52],[-66,18],[-40,-4],[-68,10]],[[6402,1736],[233,34]],[[6635,1770],[49,7],[-10,58]],[[6902,1369],[-46,-24],[-15,25],[-53,61],[-18,26],[-21,52],[-38,-28],[-60,-13],[-33,8]],[[6468,1474],[-48,6],[-31,12],[-26,-3],[-65,-28]],[[6298,1461],[-26,151]],[[6272,1612],[31,3],[100,-21],[11,11],[4,28],[-16,80],[0,23]],[[6560,996],[-60,-63]],[[6500,933],[-108,4]],[[6392,937],[-26,144]],[[6366,1081],[-61,337]],[[6305,1418],[-7,43]],[[6762,1095],[0,1]],[[6762,1096],[3,-29],[-6,-43],[-16,-38],[-3,-33],[23,-65],[23,2],[49,44]],[[6767,748],[-150,180],[-117,5]],[[6762,1096],[18,24],[17,57],[49,70],[44,31],[18,25]],[[6356,7898],[406,47],[189,19],[273,-58]],[[7224,7906],[196,-33]],[[6967,7012],[-129,88],[5,14],[-23,21],[-22,0],[-25,14],[-1,51],[-62,75],[-34,15],[-20,17],[-66,19],[-25,12],[-40,43],[-28,10],[-19,19],[-23,44],[-31,33],[-19,12],[-44,12],[12,37],[29,22],[26,7],[32,32],[13,56],[17,12],[-22,24],[-26,39],[-3,41],[-26,20],[-26,31],[0,20],[-25,22],[-6,24]],[[9512,2812],[37,33],[25,13],[12,21],[8,37],[0,57],[-6,67],[11,36],[-24,39]],[[9575,3115],[13,22],[36,16],[49,-6]],[[9825,3121],[65,-40],[51,-49],[89,-69],[7,-10]],[[10037,2953],[-16,-10]],[[9924,2887],[-78,-45],[-38,-16],[43,-219],[31,-233]],[[9882,2374],[0,-5]],[[9882,2369],[-30,-52],[54,-28],[-47,-55]],[[9330,2662],[52,36]],[[8359,1178],[61,85],[3,75],[68,103],[14,2],[104,1],[63,2]],[[8822,1228],[-107,-20],[-84,-19],[-78,-77],[-51,-112]],[[8502,1000],[-180,113]],[[8322,1113],[-6,3],[43,62]],[[8035,1199],[100,-134],[11,-27],[-10,-41],[17,-12],[15,-45]],[[8168,940],[5,-14],[-20,-41]],[[8153,885],[-97,28],[-85,-39],[-106,-54]],[[8309,1923],[359,0],[108,-5]],[[8359,1178],[-68,15],[-106,113],[-37,35],[-49,-16]],[[10037,2953],[17,-25],[62,-16],[29,-27],[16,-31]],[[10068,2712],[-17,39],[-14,15]],[[10290,2763],[179,12],[29,-221]],[[10498,2554],[-12,5]],[[10486,2559],[-48,32],[-23,38],[-49,2],[-31,23],[-29,1],[-40,-35]],[[10266,2620],[-31,8],[-24,-22],[-63,-12],[-44,1],[3,43],[-23,38]],[[8656,3234],[151,234],[95,150],[71,110]],[[8973,3728],[52,77]],[[9025,3805],[182,-198],[83,-88]],[[9290,3519],[179,-187]],[[9469,3332],[173,-158]],[[9642,3174],[-135,65],[-152,72],[-162,52]],[[8991,3209],[-75,-383]],[[8916,2826],[-180,-2]],[[8736,2824],[-341,-3]],[[8395,2821],[162,257],[99,156]],[[9420,3621],[65,49]],[[9485,3670],[3,-11],[58,10],[33,-2]],[[9504,3554],[-46,17],[-38,50]],[[9485,3670],[39,18],[24,18],[26,36]],[[9574,3742],[31,-18],[59,-14],[22,13],[35,2],[13,-54],[25,-11],[68,6]],[[9827,3666],[-3,-37],[-31,-11],[-13,-27],[17,-41],[8,-50],[-8,-11]],[[9452,3862],[1,-1]],[[9453,3861],[76,-77],[25,-37],[20,-5]],[[9485,3670],[-19,38],[-46,3],[-27,27],[26,48],[-13,38],[46,38]],[[9025,3805],[50,73]],[[9075,3878],[115,170]],[[9190,4048],[27,44]],[[9217,4092],[171,-169],[64,-61]],[[9420,3621],[-130,-102]],[[6272,1612],[-17,100],[8,5]],[[9556,1513],[-16,-27],[-13,-53],[8,-33],[23,-53],[-28,-41]],[[9530,1306],[-75,57],[-102,29],[-62,-1]],[[949,1108],[107,198],[134,262]],[[1190,1568],[313,1]],[[1503,1569],[44,-113],[-21,-38],[-3,-24],[19,-12],[-9,-56],[-20,24],[-27,13],[-20,-23],[-25,-2],[-27,-15],[-38,-9],[-21,-24],[-18,-7],[10,-20],[32,-31],[13,-23],[4,-29],[17,9],[29,-35],[-1,-16],[-22,-21],[-2,-38],[12,-61],[-24,2],[-27,-21],[14,-30],[-7,-56],[9,-48],[-18,-16],[3,-24],[24,-19]],[[1403,806],[-67,11]],[[1336,817],[-129,29],[-35,247],[-223,15]],[[2804,1971],[-5,-154],[170,-4],[147,-3],[15,-100]],[[3131,1710],[20,-121],[16,-127]],[[3167,1462],[12,-87],[24,-142]],[[3203,1233],[-302,6],[-100,0],[-157,7],[-195,11],[-77,3]],[[2372,1260],[-17,118],[-43,3],[-59,355]],[[2253,1736],[-14,100],[2,58],[-40,2],[3,53],[172,-11],[3,46],[-6,10],[73,-1],[224,-7],[0,-5],[134,-10]],[[2141,3190],[313,-16],[481,-7]],[[2935,3167],[23,0],[-54,-343],[9,2]],[[2913,2826],[-90,-465],[-5,-101]],[[2818,2260],[-14,-289]],[[2253,1736],[-216,-28],[-142,-15],[0,-28]],[[1895,1665],[-51,-8],[-54,-2],[-10,45],[13,9],[-11,32],[-4,34],[9,33],[26,14],[4,46],[19,2],[15,22],[-11,29],[17,2],[3,38],[-16,5],[37,28],[27,4],[15,15]],[[1923,2013],[0,2],[-161,61],[-23,147]],[[1739,2223],[-57,341],[34,9],[306,41],[63,344],[56,232]],[[1575,1736],[10,-37],[77,-42],[1,-55],[59,-5],[20,5],[39,-11],[20,1],[31,17],[24,-2],[35,-32]],[[1891,1575],[-48,-4],[-16,-30]],[[1827,1541],[-12,-21],[-25,20],[-45,0],[5,31],[-247,-2]],[[1190,1568],[-93,-1],[-29,122]],[[1827,1541],[35,-10],[-46,-96],[74,-22],[-4,-107],[-1,-120],[7,-115],[-47,2],[9,-73],[-32,-10],[5,-52],[-24,-73]],[[1803,865],[-298,15],[-45,-84],[-57,10]],[[7509,623],[52,-93]],[[7561,530],[-41,-22],[-36,-41],[-24,35],[-48,-3],[-38,-22],[-40,-17],[-32,-21]],[[7302,439],[-103,24]],[[7561,530],[50,-87],[18,-22],[61,-100]],[[7690,321],[-149,42],[-77,-12],[-45,-17]],[[7419,334],[-83,97],[-34,8]],[[1579,1875],[31,28],[37,18],[16,16],[6,35],[30,19],[54,-5],[48,14],[58,-11],[64,24]],[[1895,1665],[-4,-90]],[[11,1182],[270,-25],[170,-12]],[[451,1145],[122,-770],[25,-158]],[[598,217],[-41,2],[-11,38],[-41,69],[-34,39],[-10,72],[-8,29],[-14,20],[-24,12],[-39,57],[-27,7],[-21,-11],[-3,-24],[-48,-32],[-31,-2],[-17,27],[4,18],[30,25],[10,19],[-3,30],[-17,28],[-27,32],[-139,135],[-5,61],[-24,76],[-2,94],[-13,34],[-18,19],[-25,48],[11,43]],[[451,1145],[498,-37]],[[1336,817],[-107,-97],[46,-308],[30,-223]],[[1305,189],[-587,22],[-120,6]],[[1184,2072],[228,57],[296,83],[31,11]],[[551,2374],[160,-4],[121,-6],[191,-23],[92,-6]],[[1115,2335],[-6,-112],[-13,-173]],[[11,1182],[4,18],[-7,52],[2,56],[13,47],[1,24],[70,33],[28,28],[23,35],[-2,66],[16,43],[24,14],[2,30],[-16,69],[4,51],[-10,71],[-36,32],[14,41],[28,17],[49,43],[68,10],[13,10],[67,13],[28,28],[31,18],[28,-16],[21,6],[60,67],[4,18],[-20,37],[4,33],[30,50],[15,5],[38,-8],[33,36],[3,36],[-48,41],[-29,16],[-13,22]],[[1046,3191],[59,-430],[55,-429],[-45,3]],[[551,2374],[-17,37],[-3,24],[11,40],[4,49],[-4,16],[-25,24],[-11,26],[0,26],[26,33],[45,36],[29,42],[22,11],[33,39],[25,39],[7,42],[-25,38],[0,20],[-23,43],[9,40],[43,33],[9,40],[-5,36],[-52,63],[8,53],[-14,9],[-26,-5],[-29,17],[-24,52],[4,22],[25,27],[-1,60]],[[8473,6890],[256,311]],[[8729,7201],[81,97],[14,13],[95,-70]],[[8919,7241],[21,-331],[22,-504],[16,-13],[18,5],[18,-39],[32,-17],[13,-20],[4,-37],[23,-17],[-10,-46],[-18,-27],[-37,-4]],[[8670,5765],[-77,344],[-37,-37],[-11,36],[-35,-37],[-22,25],[-38,-29],[-25,23],[-98,-151],[-26,44],[-21,-39],[-21,32],[-29,-36],[-25,40],[-28,-41],[-74,390],[-19,95]],[[8084,6424],[116,143],[132,154],[69,86],[72,83]],[[10266,2620],[-196,-261]],[[10070,2359],[-29,-38],[-111,24],[-48,24]],[[9882,2374],[67,148],[55,118],[13,21],[51,51]],[[8046,7140],[69,-45],[30,17],[328,-222]],[[8084,6424],[-140,-185],[-57,-63]],[[7887,6176],[-208,148],[-25,-50],[-29,-14],[-68,67]],[[7557,6327],[44,181],[31,0],[15,47],[29,29],[3,28],[53,37],[29,33],[42,25],[18,38],[56,71],[36,27],[7,12],[2,55],[-6,30],[-19,55],[3,38],[42,33],[54,20],[32,29],[18,25]],[[5796,7832],[194,24],[95,10],[271,32]],[[6880,6820],[-16,15]],[[6864,6835],[-4,3]],[[6860,6838],[-130,118],[-411,368]],[[5800,7804],[-4,28]],[[8854,8658],[9,-227],[2,-175],[4,-224]],[[8869,8032],[-32,3],[-17,17],[-18,4],[-6,-24],[-13,-11],[-42,-14],[-48,6],[-38,-3],[-45,40],[-24,34],[-53,11],[-70,-51],[-43,22],[-1,26],[-33,0],[-33,-19]],[[8353,8073],[-22,10],[-37,49],[-48,13],[-9,-5],[3,-49],[-3,-24],[-23,-35],[-18,-3],[-13,-51],[-34,1],[-79,16],[-70,23],[-11,17],[-21,62],[-37,39],[-50,21],[-29,6],[-2,40],[-11,51],[-12,8],[-27,48],[-23,5],[-8,18]],[[6455,11114],[119,18],[60,-263],[157,-95],[75,-311],[-2,-230],[43,-46],[67,42],[70,2],[52,334],[-20,-1],[259,664]],[[7335,11228],[47,121],[453,-33],[416,-31]],[[8251,11285],[3,-657],[1,-160]],[[8255,10468],[-49,-2],[-1,26],[-228,-8],[-80,6],[-5,34],[-131,23],[-21,12],[8,-47],[-11,-17],[6,-31],[28,-65],[22,-30],[-25,-3],[17,-28],[26,5],[19,-22],[-38,-13],[-25,7],[-18,-18],[-42,12],[-24,-4],[-5,-39],[-23,-12],[-22,-28],[-27,-15],[-26,15],[-39,-17],[-33,-4],[-39,4],[-83,-34],[-11,-17],[-31,0],[-14,9],[-23,-18],[-18,6],[-48,-12],[-10,26],[-33,5],[-29,-32],[-35,-16],[-53,19],[-33,16],[-15,-18],[-36,-14],[10,-65],[-106,-35],[-55,33]],[[6846,10062],[-111,-2],[-86,215],[29,46],[-1,108],[-60,267],[-147,90]],[[6470,10786],[-75,319],[60,9]],[[6637,9723],[356,17],[793,-20],[142,18]],[[7928,9738],[46,-230]],[[7974,9508],[41,-223]],[[7735,8319],[-101,-42]],[[7634,8277],[-6,80],[12,66],[-15,44],[-43,14],[-80,8],[-65,64],[-30,21],[-34,-13],[-49,-32],[-20,0],[-29,-27],[-53,-8],[-64,12],[-21,-3],[-25,10],[-76,7],[-21,-7],[-22,48],[-18,14],[-43,2],[-52,21],[-54,1],[-66,342]],[[6760,8941],[-98,615],[-25,167]],[[8022,10121],[97,-12],[215,1],[0,24],[-67,-6],[-12,340]],[[8251,11285],[158,15],[159,0],[1,274],[-9,0],[-4,65],[195,8]],[[8751,11647],[3,-129],[12,-301],[8,-162],[7,-293],[9,-236],[6,-183],[12,-327],[10,-187],[2,-112]],[[8820,9717],[-37,16],[-65,-87],[-45,-65],[-53,-18],[-27,2],[-45,19],[-35,64],[-25,2],[-29,-17],[-63,-3],[-49,-28],[-23,-6]],[[8324,9596],[-66,47],[-38,46],[9,3],[-47,190],[-31,14],[-49,-15],[-2,39],[-30,48],[-41,29],[-20,22],[-11,32],[7,42],[17,28]],[[8324,9596],[-17,-3],[0,-48],[30,-40],[-71,-54],[-19,-12]],[[8247,9439],[-44,-26],[-66,-11],[2,22],[-12,31],[-20,15],[9,68],[-24,22],[-21,33],[-9,-1],[14,-60],[-24,-16],[-78,-8]],[[7928,9738],[-35,172],[-30,209],[159,2]],[[8869,8032],[11,-154],[11,-111],[10,-159],[8,-176],[1,-69],[9,-122]],[[8729,7201],[-307,236],[-98,77],[-222,173],[-37,28]],[[8065,7715],[2,9],[286,349]],[[5613,8774],[373,51],[693,105],[81,11]],[[7634,8277],[-206,-86],[-204,-285]],[[5796,7832],[-32,233],[-33,-4]],[[5731,8061],[-34,211],[-61,369]],[[5636,8641],[-23,133]],[[6637,9723],[37,47],[154,256],[18,36]],[[5178,564],[23,-188],[18,-156]],[[5219,220],[21,-166]],[[5240,54],[-239,6]],[[5001,60],[29,28],[21,28],[9,34],[-1,44],[-12,51],[-28,32],[14,84],[-32,54],[-12,53],[10,68],[17,18],[20,37],[35,41],[25,78]],[[8046,7140],[-102,68],[-65,-86],[-125,79]],[[7666,7377],[32,3],[45,-6],[33,10],[28,26],[24,41],[5,40],[35,41],[48,25],[20,51],[8,33],[19,26],[-30,86],[25,40],[27,-1],[43,-38],[24,-37],[13,-2]],[[8247,9439],[14,-25],[18,-13],[1,-61],[48,-92],[11,-55]],[[5619,1004],[32,-223]],[[5651,781],[-279,-36]],[[5325,936],[-8,13]],[[5402,4295],[11,-18]],[[6007,3384],[25,-22],[41,-9],[37,-29],[53,-52],[17,-24],[15,-46],[-19,-45]],[[6176,3157],[-7,-38]],[[6562,2297],[-243,59]],[[6319,2356],[-43,10]],[[6276,2366],[-14,3],[-4,33]],[[6258,2402],[-16,101]],[[3238,12023],[325,-152],[367,-166],[136,-55],[248,-103]],[[4314,11547],[-304,-592],[346,-107],[338,-127]],[[4694,10721],[-256,-639]],[[4438,10082],[-107,50],[-18,-69],[-358,178],[-311,144]],[[3644,10385],[-111,52],[-95,40],[-277,118],[-236,105]],[[2925,10700],[-23,17],[11,25],[-25,-1],[-15,29],[-16,9],[-25,66],[-8,34],[-14,27],[-32,40],[9,61],[22,16],[15,44],[-12,29],[25,23],[16,36],[-7,37],[6,36],[16,54],[11,20],[-9,42],[-29,32],[-28,62],[-8,45],[13,33],[-5,22],[-42,-13],[-8,19],[23,62],[33,53],[29,28],[40,12],[14,25],[38,15],[25,35],[1,60],[7,36],[-13,21],[5,17],[21,14],[56,-16],[60,17],[111,53],[12,10],[13,37]],[[2757,6280],[123,189],[157,238]],[[3037,6707],[127,185],[80,125],[206,316],[85,68]],[[3535,7401],[495,-138],[-10,-6],[-43,-62],[145,-76],[-1,-8],[160,-83],[44,41]],[[4325,7069],[62,-145],[44,-115]],[[4431,6809],[130,-336],[-62,-75],[3,-11]],[[3516,6102],[-557,81],[-188,29],[-14,68]],[[1669,7615],[70,40],[16,14],[64,21],[21,16],[5,18],[47,70],[10,24],[21,26],[33,9],[34,26]],[[1990,7879],[180,-55],[336,-100],[145,-41],[72,-22]],[[2723,7661],[-310,-384],[-146,-187],[-24,-37]],[[1630,7241],[-2,43],[16,-9],[18,15],[17,63],[0,36],[-21,4],[-7,26]],[[2191,8624],[254,-78],[537,-172],[171,-62],[164,-67],[359,-125]],[[3676,8120],[188,-62],[233,-76],[317,-105]],[[4414,7877],[-44,-116],[100,-35],[-64,-145],[127,-60],[40,-82],[84,-189]],[[4657,7250],[-184,-101],[-148,-80]],[[3535,7401],[-165,44],[-104,33],[-192,73],[-351,110]],[[1990,7879],[-1,41],[8,19],[-9,38],[53,47],[17,32],[10,33],[32,30],[13,46],[-20,45],[-10,48],[29,56],[6,27],[-5,53],[2,24],[-28,77],[16,43],[4,25],[21,12],[29,2],[44,21],[-10,26]],[[9303,2611],[-124,-19]],[[9179,2592],[-30,49],[2,26],[-45,38],[-26,-5],[-51,34],[50,30]],[[8916,2826],[212,46]],[[9179,2592],[-44,-4],[-189,10],[2,-29],[-67,5],[10,27],[-159,7]],[[8732,2608],[4,216]],[[10486,2559],[-68,-128],[-47,-48],[-14,-34],[-33,-4],[-59,9],[-21,-36],[-28,6],[-45,17],[-46,-5],[-21,-15],[-34,38]],[[9747,1923],[10,-78],[-12,-26],[-21,-23],[-2,-55],[-14,-14]],[[9708,1727],[-37,-24],[-30,-33]],[[6343,2199],[35,21]],[[6378,2220],[57,-23],[14,-10]],[[6449,2187],[7,-18],[3,-84],[18,-110],[17,-38],[29,-43]],[[6523,1894],[-30,35],[-30,11],[-23,-1]],[[6440,1939],[-9,8],[-22,56],[-19,28]],[[6356,2130],[-13,69]],[[6290,2189],[41,3],[12,7]],[[9453,3861],[217,126]],[[9719,4016],[1,-10],[65,1],[28,-28],[22,-8],[16,-36],[-11,-26],[29,-9],[15,-24],[-21,-39],[5,-14],[-21,-20],[-24,-107],[4,-30]],[[9217,4092],[56,81]],[[8942,4342],[21,3],[52,63],[36,-26],[19,29]],[[9070,4411],[75,4]],[[9145,4415],[97,8],[43,-32],[51,66]],[[9336,4457],[23,6],[27,-64],[-35,0],[-20,-25],[9,-13],[31,-1],[11,-30]],[[9190,4048],[-61,59],[-139,150],[-36,24],[-30,13]],[[8924,4294],[18,48]],[[7217,5291],[242,-163],[126,-82],[178,-120],[143,-99]],[[7472,4313],[-318,225],[-131,94],[-190,133]],[[8701,4776],[156,189]],[[8889,5003],[27,-47],[-1,-14],[25,-26],[12,-31],[-21,-30],[34,-30],[-8,-36],[33,-4],[-6,-21],[13,-24],[45,-23],[8,-28]],[[9050,4689],[8,-29],[-5,-40],[14,-17],[35,-18],[-38,-44],[-37,-31]],[[9027,4510],[-32,23],[-47,80],[-8,25],[-61,-27],[-32,-33]],[[8847,4578],[-11,12],[-10,35],[-23,33],[11,46],[-38,20],[-36,-12],[-27,31],[-12,33]],[[8185,5166],[107,-73],[54,-33],[37,-14],[77,-66],[47,58],[47,-54],[30,4],[28,32],[-73,55],[59,72]],[[8701,4776],[-201,-254],[-64,-68],[-28,-36]],[[7906,4827],[212,257],[67,82]],[[9027,4510],[22,-21],[96,-74]],[[9070,4411],[-37,29],[-30,12],[-46,8],[-13,-6],[-24,9]],[[8920,4463],[1,31],[-26,20],[-7,23],[-26,-9],[-4,41],[-11,9]],[[8942,4342],[-8,28],[-16,18],[1,29],[13,28],[-12,18]],[[8500,4347],[46,-41],[144,-118]],[[8690,4188],[148,-120],[13,-13],[97,-75],[127,-102]],[[8973,3728],[-23,8],[-41,30],[-36,-1],[-53,25],[-24,1],[-16,12],[-52,2],[-44,-5],[-85,35],[-32,8],[-39,30],[-35,34],[-28,20],[-40,-9],[-14,19],[-33,-14],[-108,14],[-29,16],[-22,-1]],[[9498,3535],[9,-27],[15,-11],[7,-43],[-17,-80],[-43,-42]],[[6269,5920],[-15,-23],[-57,39]],[[5133,1025],[7,-58],[14,-62],[-2,-24]],[[5195,2464],[-704,-138]],[[4322,2682],[38,13],[77,-57],[26,20],[53,7],[48,28],[29,-9],[19,21],[35,13],[22,-9],[51,11],[8,9],[32,-63],[7,-32],[24,-21],[101,-21],[24,57],[32,30],[5,12],[-7,43],[36,40],[-4,24],[40,10],[0,26],[37,-43],[24,-38],[25,-11],[-12,35],[-8,58],[4,40],[14,26],[-1,21],[15,14]],[[3805,1110],[-19,68],[70,17],[-22,137]],[[3834,1332],[151,23]],[[3985,1355],[115,18],[24,-141]],[[4233,208],[18,-121]],[[4251,87],[-104,4]],[[4147,91],[-1,21],[-41,64],[-43,22],[-22,6],[-63,45],[-7,17],[-40,45],[-24,34],[-36,94],[-20,29],[-82,17],[-25,30],[-26,61],[-30,41],[-21,50],[-200,3]],[[3466,670],[-172,7]],[[3294,677],[-54,326]],[[3240,1003],[123,22],[175,33],[111,17],[108,22],[48,13]],[[5827,367],[-9,-56]],[[5818,311],[-19,-26],[-9,-30],[-8,-53],[-8,-10],[-15,-81]],[[5759,111],[-10,-42],[-12,-28]],[[5737,41],[-333,10],[-164,3]],[[5219,220],[36,12],[18,29],[67,19],[57,48],[67,10],[45,-5],[51,20],[37,-12],[91,-15],[67,9],[32,19],[40,13]],[[6258,2402],[-92,-22],[-9,-33],[3,-53],[-16,-17],[13,-31]],[[6276,2366],[-19,-24],[-14,-30]],[[5661,699],[27,34],[14,31],[33,22]],[[5735,786],[11,6],[42,-23],[27,5],[19,-15],[16,12],[41,-10]],[[5891,761],[-11,-31],[-33,-26],[62,-47],[64,-39],[46,-34]],[[6019,554],[-78,23],[-26,-10]],[[5915,567],[-50,-15],[-31,7]],[[5834,559],[-21,17],[-13,34],[-39,-13],[-78,-11],[28,35],[-39,37],[-20,-7],[-20,22],[29,26]],[[6178,432],[-46,-22]],[[6132,410],[-7,14],[-76,-32],[-27,-26]],[[6022,366],[-5,126]],[[6186,729],[173,30],[52,7]],[[6411,766],[-9,-18],[19,-32],[24,-26],[22,-72],[31,7],[10,14],[49,36],[54,-14],[21,8],[27,-8],[0,-25]],[[6659,636],[-41,-27],[-61,-26],[-58,-36]],[[6499,547],[-60,42],[-44,-15],[-42,12],[-41,35],[-35,-7],[-12,-29],[-32,-18]],[[6222,620],[3,22],[-4,46],[-16,29],[-19,12]],[[4147,91],[-595,19]],[[3552,110],[-68,466],[-18,94]],[[5891,761],[47,35],[48,-6]],[[5986,790],[33,-206]],[[5987,1173],[16,-77]],[[6003,1096],[0,-45],[-48,-6],[-29,9],[-15,25],[-30,19],[-33,6],[-6,-18],[1,-48],[-6,-54],[-52,-75],[-11,-9],[13,-39],[-31,-39],[-29,-17],[8,-19]],[[5661,699],[-10,82]],[[6499,547],[-42,-32],[2,-30],[-29,-35]],[[6430,450],[-44,-32],[-33,17],[-11,-14],[-21,0]],[[6659,636],[26,17],[63,59]],[[6746,647],[-3,-74],[-18,-87],[-23,-97],[-84,-375]],[[6618,14],[-7,0]],[[6611,14],[-14,26],[-32,20],[-2,38],[-19,30],[-11,53],[-15,29],[7,56],[-15,27],[-26,14],[-25,28],[22,17],[-16,34],[-39,2]],[[6426,388],[19,16],[-12,16],[-3,30]],[[5834,559],[5,-12],[-12,-180]],[[5976,2212],[23,-117]],[[5869,2076],[-32,99],[4,51],[-15,38],[-4,37],[-9,13]],[[7302,439],[-22,-40],[-23,-25],[-77,-30],[-55,0],[-15,-7],[-81,-55],[-12,-18]],[[7017,264],[-37,6],[-29,22],[-26,30],[-13,30],[-33,16],[-16,1]],[[6863,369],[0,32],[20,36],[6,32],[-7,11],[-46,29],[-17,24],[-11,58],[-3,41]],[[3367,3671],[274,70]],[[3777,3018],[-37,56],[-18,13],[-19,35],[-18,18],[-10,47],[-19,17],[-22,34],[-33,1],[-29,8],[-36,26],[-55,60],[-1,47],[-39,18],[-18,46],[6,36],[-30,41],[6,23],[-23,26],[-17,55],[2,46]],[[6315,353],[56,-15],[21,-11],[4,52],[30,9]],[[6611,14],[-249,8]],[[6328,197],[23,46],[-4,27],[-24,41],[-8,42]],[[7017,264],[-16,-64],[-3,-69],[10,-14],[20,-76],[6,-39]],[[7034,2],[-216,4]],[[6818,6],[-8,19],[11,41],[2,31],[16,57],[-5,71],[9,25],[-2,37],[17,47],[5,35]],[[6003,1096],[14,-98],[-1,-16],[-29,-158],[-1,-34]],[[6243,1522],[62,-104]],[[6366,1081],[-29,-21],[-26,0],[-13,10],[-33,-4],[-36,-28],[-83,-28],[-21,7],[-24,-7],[-18,-17]],[[6083,993],[-19,44],[18,56],[-1,33],[-24,81]],[[6057,1207],[8,34],[29,35],[6,20],[43,58],[42,45],[24,58],[25,33],[9,32]],[[3240,1003],[-37,230]],[[3167,1462],[42,-48],[36,-1],[23,30],[11,-12],[95,-42],[27,-21],[20,52],[-8,57],[28,9],[60,-7],[11,-74],[-12,-37],[21,-138],[31,-8],[19,-13],[20,-26],[24,-9],[29,-34],[17,-5],[53,6],[57,-12],[34,-19]],[[3131,1710],[22,10],[203,41],[105,17]],[[3461,1778],[185,31],[111,15],[32,-215],[45,-277]],[[6247,1570],[-4,-48]],[[6057,1207],[-26,7],[-15,-26],[-29,-15]],[[6818,6],[-200,8]],[[5001,60],[-161,5]],[[4840,65],[-46,324],[-22,136]],[[6392,937],[29,-170],[-10,-1]],[[6186,729],[-28,31]],[[6158,760],[-29,44],[1,48],[-8,32],[-26,23],[0,45],[-13,41]],[[6203,387],[-27,-9]],[[6176,378],[-17,-1],[-10,36],[-17,-3]],[[2935,3167],[83,230],[-76,164],[157,39]],[[3099,3600],[54,17],[214,54]],[[3659,2990],[-360,-82],[-146,-35],[-240,-47]],[[6158,760],[-9,-51],[-36,-22],[-45,22],[-25,0],[-29,9],[-10,22],[14,30],[-10,21],[-22,-1]],[[6176,378],[-9,-29],[-26,-24],[5,-31],[-9,-28]],[[6137,266],[-71,45]],[[2634,706],[403,-18],[257,-11]],[[3552,110],[-297,9],[-549,22]],[[2706,141],[-28,248],[-44,317]],[[8820,9717],[6,-151],[4,-163],[7,-136],[9,-257]],[[7557,6327],[-39,38],[-170,48]],[[7348,6413],[-145,127]],[[6864,6835],[62,-358],[26,-8],[46,6],[28,-8],[13,-30],[6,-45],[-8,-30],[-32,-5],[-46,17],[-12,-7],[9,-46]],[[6251,6755],[26,22],[41,9],[48,-16],[39,6],[39,-11],[31,7],[27,45],[14,13],[54,17],[13,-2],[13,-38],[15,-15],[30,4],[5,11],[4,63],[-5,37],[26,11],[44,2],[21,-6],[32,-25],[36,-48],[26,-11],[30,8]],[[5735,12823],[63,34],[184,25],[394,55],[54,-315],[2,-2],[188,-71],[-12,274]],[[6608,12823],[744,24],[48,1]],[[7400,12848],[13,-539],[6,-258],[82,2],[-37,-196],[-17,0],[8,-193],[-13,-22],[-7,-78],[-16,-29],[-77,-36],[-22,-30],[-9,-54],[4,-53],[-16,-39],[2,-43],[34,-52]],[[6455,11114],[-156,271],[-149,79],[-204,-32],[-9,54],[-387,-61],[-63,368]],[[5487,11793],[-53,310],[406,61],[-30,189],[-75,470]],[[6315,353],[-2,22]],[[9268,3183],[43,24],[28,-1],[74,-22],[18,7],[32,-9],[29,-42],[25,-13],[20,1],[38,-13]],[[1803,865],[19,-87],[84,-5],[8,-85],[127,-3],[-5,31],[57,2],[-5,48],[117,-3],[-8,71],[203,-1]],[[2400,833],[16,-121],[218,-6]],[[2706,141],[-184,7],[-783,26],[-434,15]],[[2372,1260],[-40,1],[28,-165],[40,-263]],[[7400,12848],[348,7]],[[7748,12855],[143,2]],[[7891,12857],[2,-85],[210,3],[598,13]],[[8701,12788],[18,-413],[2,-81],[8,-116],[8,-201],[7,-212],[7,-118]],[[2435,4941],[4,174]],[[2439,5115],[44,285],[14,99],[349,-41]],[[2846,5458],[-22,-122],[0,-15],[58,-72],[4,-13],[-11,-184],[-6,-40]],[[2869,5012],[-10,-31],[-153,-275]],[[2706,4706],[-74,16],[-202,-82]],[[2430,4640],[5,301]],[[2214,4484],[18,-5],[19,49],[45,-14],[46,120],[87,-15],[1,21]],[[2706,4706],[-65,-118],[139,-495]],[[2780,4093],[114,-2],[22,-235],[183,-256]],[[2141,3190],[30,125],[34,85],[59,157],[-167,-26],[-189,-27]],[[6250,232],[-10,23],[-26,19],[-25,0],[-34,-11],[-18,3]],[[5759,111],[11,15],[53,25],[6,39],[17,-11],[7,25],[-40,19],[37,58],[52,44],[42,20]],[[6048,116],[5,-1]],[[6053,115],[6,-11],[-19,-33],[7,-39]],[[6047,32],[-175,6],[-135,3]],[[3478,2360],[-261,-37],[-64,-8],[-158,-28],[-3,24],[-24,-7],[3,-20],[-153,-24]],[[6319,2356],[24,-37],[10,-26],[8,-47],[17,-26]],[[6590,2279],[-75,-35],[-20,-13],[-46,-44]],[[6635,1770],[-20,32],[-92,92]],[[7419,334],[-55,-44],[-72,-77],[-63,-108],[-88,-105],[-107,2]],[[6053,115],[25,8],[13,38],[18,24],[-5,16],[12,31],[14,10],[7,24]],[[6162,28],[-115,4]],[[6152,2180],[-18,-2]],[[6134,2178],[-24,22],[-83,-3],[1,-12]],[[6028,2185],[-24,-14]],[[6004,2171],[3,18],[-31,23]],[[6134,2178],[-53,-1],[-47,-7],[-6,15]],[[6017,492],[-12,-25],[-32,-20],[-17,-21],[-4,-28],[-35,-34],[-21,-6]],[[5896,358],[-18,26],[-3,19],[13,37],[19,20],[10,-29],[30,22],[-14,21],[-4,31],[10,23],[-24,39]],[[5896,358],[-18,-4],[-25,-34],[-35,-9]],[[9642,3174],[20,-17]],[[5021,7964],[710,97]],[[5518,7298],[-2,95],[-146,130],[-114,109],[-82,85],[-197,-15]],[[4977,7702],[-10,21],[-25,10],[-10,16],[-3,48]],[[4929,7797],[-3,25],[37,33],[7,49],[24,20],[27,40]],[[5140,7243],[7,44],[-12,29],[-32,36],[-12,25],[15,57],[-24,52]],[[5082,7486],[-8,11],[2,37],[-8,30],[-36,26],[-5,22],[-32,19],[-18,20],[0,51]],[[4431,6809],[11,8],[48,17],[42,-6],[18,-11],[46,-13],[45,-67],[16,21],[6,30],[-18,34],[-1,45],[161,81],[39,-68],[71,35],[37,-71],[26,12],[18,-32],[-4,-20],[100,54]],[[4657,7250],[164,91],[109,55],[152,90]],[[4414,7877],[54,-18],[12,28]],[[4480,7887],[19,-15],[23,4],[174,4],[28,-3],[44,-41],[35,-16],[43,-28],[35,-5],[36,-12],[12,22]],[[2182,6433],[108,-44],[146,-62],[113,-45],[-78,-111],[62,-29],[103,-40],[121,178]],[[3205,5633],[-52,-83],[-52,-95]],[[3101,5455],[-15,-28],[-240,31]],[[2439,5115],[-99,24],[-84,23],[-155,40]],[[2101,5202],[-150,38],[-325,90]],[[6261,4021],[129,165],[257,335]],[[6647,4521],[94,-67],[171,-119],[-22,-23],[-16,-2],[-13,-43],[-25,-2],[-34,-31],[-39,-46]],[[6763,4188],[-116,-241],[-128,-250]],[[6519,3697],[-106,72],[-221,155],[69,97]],[[6763,4188],[128,-28],[434,-97]],[[7325,4063],[-4,-6],[-73,-171],[-29,-60]],[[7010,3414],[-433,93]],[[6577,3507],[-126,25],[68,165]],[[7408,4241],[-27,-82],[-28,-55],[-28,-41]],[[6647,4521],[186,244]],[[6261,4021],[-39,27]],[[2435,4941],[-29,-13],[-24,3],[-20,-14],[-26,0],[-200,-50],[-45,70],[-2,54],[-48,58],[-64,9],[-15,11],[-2,22],[33,-1],[21,8],[62,-16],[42,-2],[3,40],[-20,82]],[[6197,5936],[-15,-105],[9,-37],[-28,-110],[-4,-49],[11,-51],[-32,-70],[-35,-23],[-13,5],[-50,3],[-51,-3],[-40,-16],[-84,14],[-93,-2]],[[7348,6413],[-46,-77],[-67,-91],[-92,-13],[-34,-47],[24,-17],[33,7],[49,-15],[24,-16],[14,-29],[8,-71],[38,-46],[6,-64],[7,-21],[51,-74],[23,-41],[42,-23],[10,-12],[15,-54],[22,-38],[21,-6],[29,-64],[19,-14],[25,-33],[43,-28],[-2,-32],[20,-22],[8,-60],[-11,-52],[27,-62],[-2,-33],[128,16],[24,15],[18,30]],[[7822,5326],[54,-349],[30,-150]],[[7887,6176],[-159,-176],[33,-243],[32,-233],[29,-198]],[[8052,3716],[32,-26]],[[8084,3690],[-115,-174],[-48,-69]],[[8084,3690],[48,-37],[524,-419]],[[8395,2821],[-277,-2],[-51,-138]],[[8732,2608],[-2,-137]],[[8745,2372],[-392,3]],[[8924,4294],[-25,17],[-48,64],[-9,19]],[[8842,4394],[-3,47],[-12,88],[1,17],[19,32]],[[8690,4188],[18,22],[28,87],[63,49],[43,48]],[[8325,5335],[-140,-169]],[[9708,1727],[59,-42]],[[9902,1579],[-7,-19],[-11,-62],[0,-66],[-10,-27]],[[9874,1405],[-62,66]],[[6212,2026],[19,-4]],[[6440,1939],[-64,-17],[-84,-36]],[[6292,1886],[-32,50],[-48,90]],[[6202,1836],[24,7],[40,31],[26,12]],[[6176,3157],[28,15],[32,7],[10,-12],[23,0],[16,14],[27,8],[15,-12],[12,22],[37,31],[2,15]],[[6378,3245],[18,22],[24,79],[17,-12],[12,-24],[24,4],[33,45],[-5,31],[22,30],[-3,20],[49,42],[8,25]],[[4637,1652],[-19,74],[-39,192]],[[4237,1859],[7,-43],[10,2],[13,-35],[-56,-8],[17,-86],[-61,-11],[7,-42],[-50,-7],[11,-51],[-78,-17],[31,-126],[-118,-16],[15,-64]],[[3461,1778],[-16,14],[14,17],[-8,27],[20,23],[21,5],[0,34],[48,12],[2,21],[-4,61],[-7,31],[5,51],[-14,35],[-1,20]],[[4694,10721],[398,-164],[426,-177],[94,236],[154,390],[252,-81],[452,-139]],[[5613,8774],[-23,-3],[-134,403],[-130,384],[-71,210],[-22,-63],[-52,25]],[[5181,9730],[-437,206],[-306,146]],[[4569,8108],[31,-14],[11,-18],[27,0],[4,-28],[25,2],[4,-33],[17,-7],[28,3],[2,-50],[282,-2],[21,3]],[[4480,7887],[-1,31],[47,118],[43,72]],[[4135,8720],[140,478],[393,-151]],[[4668,9047],[34,-355]],[[4702,8692],[17,-194],[-150,-390]],[[3676,8120],[187,252],[272,348]],[[4668,9047],[204,-79],[242,590],[67,172]],[[5636,8641],[-370,-39],[-234,-23],[26,-34],[-128,-16],[-25,24],[-26,50],[-46,24],[-27,58],[-33,6],[-8,-14],[-39,15],[-24,0]],[[4026,12081],[39,-28],[27,-10],[30,-21],[83,-74],[24,1],[6,13],[34,-51],[14,-10],[36,-48],[32,-14],[16,8],[38,-23],[12,17],[35,-10],[23,-19],[11,7],[87,-28],[18,13],[-1,15],[20,17],[44,5],[30,19]],[[4684,11860],[-117,-93],[-8,-10],[-204,-173],[-41,-37]],[[3238,12023],[18,9],[57,-5],[52,-1],[23,7],[70,2],[36,-14],[23,-1],[33,13],[24,32],[45,35],[37,13],[30,-1],[37,-13],[34,-21],[39,-10],[73,-40],[16,1],[48,24],[50,5],[43,23]],[[4026,12081],[65,44],[61,21],[25,1],[31,20],[2,20],[-20,59],[20,45],[-17,17],[7,51],[40,14],[25,-4],[18,20],[-22,35],[8,20],[49,44],[21,6],[68,-3],[69,47]],[[4476,12538],[73,-106],[18,-20],[70,-103],[228,-315]],[[4865,11994],[-181,-134]],[[1425,7302],[-1,21],[19,31],[10,30]],[[7660,665],[-13,-70],[10,-46],[25,-44],[44,-12],[41,11]],[[7767,504],[12,-208],[-89,25]],[[8322,1113],[-20,-28],[-96,-112],[-38,-33]],[[7762,698],[-8,-9],[13,-185]],[[9874,1405],[-13,-57],[-1,-62]],[[9860,1286],[-52,-11]],[[9808,1275],[-10,2],[-17,33],[-31,12],[-12,31],[26,38],[3,18]],[[9808,1275],[-37,-16],[-40,-29],[-62,-28],[-139,104]],[[10498,2554],[390,-431],[46,-32],[73,-23],[31,-49]],[[11038,2019],[-30,-24],[-55,-21],[-64,4],[-47,17],[-166,75],[-74,36],[-28,5],[-140,67],[-137,47],[-30,-57],[-27,-26],[-36,-21],[-19,-20],[-20,-52],[-3,-30],[-13,-41]],[[8502,1000],[-59,-199],[-290,84]],[[9050,4689],[24,-21],[15,17],[18,-7],[39,5],[15,15],[36,-7],[-6,-16],[10,-38],[39,-43],[25,8],[17,-35],[14,-11],[-10,-20],[23,-37],[-7,-21],[34,-21]],[[2703,9776],[226,-116],[116,-57],[11,34],[-54,26],[18,51],[134,-63],[204,-107]],[[3358,9544],[19,-454],[6,-184],[485,-121],[267,-65]],[[2191,8624],[-22,50],[2,25],[15,24],[35,0],[28,14],[5,34],[26,47],[21,24],[80,49],[20,31],[59,35],[22,37],[1,49],[6,29],[-13,73],[13,27],[30,1],[22,8],[21,19],[27,44],[-11,30],[16,20],[35,22],[-37,12],[-49,6],[-16,-17],[-17,0],[-8,19],[11,43],[-2,42],[5,40],[-27,43],[1,15],[24,15],[19,26],[31,24],[-11,51],[2,18],[31,18],[26,-8],[-4,32],[11,34],[19,6],[31,-22],[18,13],[3,40],[13,10]],[[2243,7053],[56,-28],[173,-72],[329,-143],[50,-23],[186,-80]],[[4865,11994],[57,32],[565,-233]],[[3358,9544],[75,217],[182,524],[29,100]],[[2703,9776],[24,19],[-23,47],[-2,19],[18,27],[57,29],[21,3],[-5,20],[-34,19],[20,26],[47,0],[19,41],[33,48],[-23,29],[3,20],[46,16],[26,-19],[39,11],[-1,20],[-69,37],[0,19],[52,5],[19,26],[7,44],[-13,22],[-30,13],[-23,-16],[-4,-30],[-27,-5],[-28,36],[-1,25],[-14,44],[12,26],[1,37],[15,6],[30,32],[46,3],[18,53],[-20,8],[-26,28],[3,20],[-8,74],[17,42]],[[2869,5012],[200,22],[84,19],[260,61]],[[3413,5114],[263,63]],[[3580,4298],[-185,-41],[-242,-68],[-373,-96]],[[3101,5455],[19,-10],[20,-42],[32,-45],[-22,-34],[64,-96],[25,-54],[28,-14],[36,-48],[28,4],[38,34],[15,-4],[29,-32]],[[6378,3245],[-22,22],[-42,-2],[-21,-6],[-8,37],[-36,50],[20,7],[35,28],[-16,29],[-32,35],[-98,134],[-49,-33],[-9,8],[-47,-30],[-3,-23],[-16,-11]],[[4840,65],[-279,12],[-310,10]],[[11038,2019],[55,-80],[47,-89],[33,-80],[38,-156],[-64,-23],[-37,-7],[-72,-5],[-48,4],[-42,9],[-82,30],[-81,18],[-64,28],[-63,44],[-65,72],[-35,59],[-22,62],[-33,-71],[-49,-65],[-60,-49],[-37,-22],[7,-79],[-5,-59],[-7,-29],[3,-26],[-5,-63],[-8,-36],[-26,-69],[-10,-34],[-82,0],[-243,-10],[-121,-7]],[[6138,2033],[11,24]],[[6149,2057],[4,11]],[[6212,2026],[-40,2],[-4,-40],[-34,-6],[14,46],[-10,5]],[[6091,2097],[3,16],[57,1]],[[6149,2057],[-34,25]],[[6115,2082],[-24,15]],[[6091,2097],[-31,36],[-21,6],[-35,32]],[[6115,2082],[-9,-17],[-46,-10],[-38,-31]],[[6138,2033],[-22,-57]],[[7459,13420],[210,6],[210,3]],[[7879,13429],[21,-53],[0,-33],[10,-44],[-7,-52],[-19,-84],[-24,-50],[-1,-16],[-24,-47],[-20,-13],[-15,13],[-24,-13]],[[7776,13037],[-21,-12],[-30,49],[-81,54],[-87,72],[-21,31],[-27,100],[-50,89]],[[6770,15391],[101,501],[129,62],[4,23],[60,290]],[[7064,16267],[74,369],[15,-2],[13,65],[375,-68],[404,-72],[21,114],[268,18],[253,4]],[[8487,16695],[41,-559],[24,-394],[11,-119],[27,-439],[5,-116],[23,-393],[26,-564],[10,-315],[5,-209],[9,-139],[10,-222],[8,-114],[15,-324]],[[7891,12857],[140,370],[37,103],[38,101],[-185,0],[-42,-2]],[[7459,13420],[-270,-10],[-399,-12]],[[6790,13398],[79,202],[57,141]],[[6926,13741],[50,124],[43,120],[-13,0],[-21,253],[-19,-2],[-9,106],[21,3],[-4,94],[-5,241],[-16,612],[-200,20],[17,79]],[[7748,12855],[9,86],[41,58],[-22,38]],[[5073,12791],[179,-224],[483,256]],[[4476,12538],[21,5],[39,-7],[43,-36],[33,6],[16,40],[19,19],[55,7],[65,-10],[63,27],[53,46],[50,27],[10,27],[35,0],[6,15],[-19,40],[11,8],[45,2],[33,15],[19,22]],[[7064,16267],[-355,69],[-181,32],[-288,47],[-231,41],[-116,16]],[[5893,16472],[-16,22],[17,95],[-7,43],[-38,-4],[2,43],[-16,-1],[-11,26],[-26,23],[-6,26],[-22,5],[1,25],[-26,10],[15,14],[15,56],[31,32],[36,21],[24,3],[34,14],[29,25],[24,4],[18,-10],[17,-22],[15,5],[42,-29],[14,11],[30,1],[12,38],[12,14],[58,18],[6,13],[-198,-2],[-8,30],[21,92],[27,24],[11,72],[-13,20],[-20,-8],[-36,3],[-12,28],[10,26],[25,3],[11,21],[-12,19],[20,47],[-11,15],[7,23],[22,10],[35,32],[2,25],[15,2],[34,34],[40,-4],[18,13],[15,60],[13,-2],[23,44],[37,24],[16,40],[-8,19],[23,22],[25,-3],[9,22],[60,46],[17,34],[-13,48],[-21,33],[-19,12],[14,64],[39,32],[2,19],[15,39],[-5,18],[16,40],[17,15],[1,17],[24,45],[-9,12],[7,30],[21,11],[22,30],[15,34],[-9,18],[33,21],[13,37],[-31,73],[-72,23],[-9,24],[-119,80],[-25,42],[18,6],[31,-5],[39,-31],[42,-11],[17,22],[26,9],[28,31],[29,10],[33,-5],[40,-51],[29,-10],[22,38],[8,30],[17,17],[45,9],[29,14],[23,19],[12,22],[0,20],[-15,40],[-22,34],[16,27],[26,-13],[31,7],[15,18],[19,-6],[44,11],[19,23],[13,33],[56,12],[31,34],[44,7],[18,36],[22,31],[25,18],[29,-3],[18,16],[32,-10],[-3,-18],[13,-18],[44,14],[44,-20],[-7,-17],[13,-49],[9,-65],[20,-30],[19,1],[28,-17],[27,-6],[57,-58],[24,-52],[-10,-17],[14,-16],[52,27],[4,-17],[62,-1],[14,18],[27,9],[36,-2],[6,-20],[41,-27],[5,-24],[25,-13],[14,-19],[18,30],[19,13],[26,3],[37,30],[30,-16],[13,-15],[38,-27],[50,3],[36,12],[17,30],[11,38],[21,10],[-1,18],[29,40],[0,30],[16,17],[0,34],[32,10],[20,22],[4,23],[-25,21],[17,38],[22,22],[-7,17],[33,31],[7,19],[32,16],[49,10],[38,-405],[15,-336],[20,-290],[36,-601],[29,-503],[7,-174],[9,-128]],[[6770,15391],[-278,-35],[-171,-23],[-340,-45],[-579,-76]],[[5402,15212],[12,19],[27,14],[-4,21],[19,33],[53,18],[25,2],[16,28],[14,9],[12,28],[-9,36],[25,57],[-25,31],[-22,15],[-1,14],[21,42],[46,23],[22,2],[24,73],[33,20],[-3,42],[-21,30],[-1,20],[47,49],[-13,21],[0,22],[20,28],[34,19],[27,4],[34,30],[4,34],[37,19],[18,33],[45,39],[-16,32],[30,15],[4,20],[22,15],[18,25],[25,-8],[0,31],[15,27],[-28,-4],[-28,52],[-50,58],[-6,24],[-15,18],[-1,23],[-30,24],[29,13],[6,20]],[[6926,13741],[-210,-111],[-331,-172],[2,-65],[-225,-118],[0,16],[-49,-1],[1,-34],[-57,27],[-286,140],[-197,86],[-3,-1]],[[5571,13508],[-25,27],[-52,32],[-69,58],[7,40],[31,40],[89,-3],[41,-16],[39,4],[18,16],[-5,25],[13,11],[40,-7],[11,14],[-24,29],[-16,40],[18,0],[11,-18],[22,-3],[47,40],[12,27],[-28,15],[14,23],[-12,8],[-21,-15],[-22,3],[12,37],[-45,-26],[-5,33],[-41,19],[-1,21],[33,4],[11,14],[0,30],[-15,62],[9,52],[15,18],[30,6],[-14,17],[-24,-3],[-25,28],[-27,16],[-5,18],[23,3],[11,19],[-24,39],[-4,38],[-24,7],[-12,-22],[-45,3],[15,25],[-17,15],[-22,-6],[-19,11],[-17,31],[15,18],[-1,18],[-15,24],[35,23],[-3,12],[-35,5],[-10,12],[-27,5],[-10,13],[14,20],[1,17],[-14,25],[-8,33],[19,38],[-36,18],[13,28],[-15,27],[-15,5],[-26,47],[-23,20],[0,18],[-34,22],[9,44],[-33,-6],[-18,9],[6,65],[-8,22],[7,17],[-10,31],[-23,11],[-7,18],[13,19],[30,4],[39,13],[28,23],[10,48],[27,9],[24,30]],[[6608,12823],[-50,-2],[163,407],[69,170]],[[5073,12791],[18,57],[1,36],[10,31],[16,23],[45,-4],[19,15],[7,29],[-33,19],[-12,20],[7,17],[46,29],[25,24],[8,21],[23,2],[21,-14],[-10,-16],[-47,-16],[-1,-14],[27,-17],[31,10],[30,68],[13,12],[42,-14],[53,12],[30,63],[2,41],[49,0],[-2,23],[37,-12],[10,27],[-28,22],[-21,50],[-29,20],[-13,31],[67,12],[18,19],[31,51],[8,40]]],"transform":{"scale":[0.0001767769155293899,0.00013632767091783363],"translate":[-72.55694,42.697042]},"objects":{"Tract_33_2025":{"type":"GeometryCollection","geometries":[{"arcs":[[0,1,2,3,4,5,6]],"type":"Polygon","properties":{"id":"14000US33011002702"}},{"arcs":[[7,-7,8,9,10,11]],"type":"Polygon","properties":{"id":"14000US33011002701"}},{"arcs":[[12,13,14,-3]],"type":"Polygon","properties":{"id":"14000US33011000204"}},{"arcs":[[15,16,17,-14]],"type":"Polygon","properties":{"id":"14000US33011000203"}},{"arcs":[[18,19,20,21]],"type":"Polygon","properties":{"id":"14000US33015003801"}},{"arcs":[[22,23,24]],"type":"Polygon","properties":{"id":"14000US33017080204"}},{"arcs":[[-24,25,26,27]],"type":"Polygon","properties":{"id":"14000US33017080203"}},{"arcs":[[28,29,30,31]],"type":"Polygon","properties":{"id":"14000US33015065006"}},{"arcs":[[32,33,34,35]],"type":"Polygon","properties":{"id":"14000US33015065007"}},{"arcs":[[36,-31,37,-33]],"type":"Polygon","properties":{"id":"14000US33015065005"}},{"arcs":[[38,39,40]],"type":"Polygon","properties":{"id":"14000US33015107100"}},{"arcs":[[41,42,43,44,45,46,47,48,49]],"type":"Polygon","properties":{"id":"14000US33011016202"}},{"arcs":[[50,51,52,53]],"type":"Polygon","properties":{"id":"14000US33005971300"}},{"arcs":[[54,55,-53,56,57]],"type":"Polygon","properties":{"id":"14000US33005971402"}},{"arcs":[[58,59,60,61,62,63]],"type":"Polygon","properties":{"id":"14000US33003955500"}},{"arcs":[[64,65,66,67,68]],"type":"Polygon","properties":{"id":"14000US33013031002"}},{"arcs":[[69,70,71,72,73,74]],"type":"Polygon","properties":{"id":"14000US33013044200"}},{"arcs":[[75,76,77,78,79]],"type":"Polygon","properties":{"id":"14000US33013044300"}},{"arcs":[[80,81,82,83,84,85,86]],"type":"Polygon","properties":{"id":"14000US33013044100"}},{"arcs":[[87,88,89,90]],"type":"Polygon","properties":{"id":"14000US33001966403"}},{"arcs":[[-90,91,92,93,94]],"type":"Polygon","properties":{"id":"14000US33001966404"}},{"arcs":[[95,96,97,98]],"type":"Polygon","properties":{"id":"14000US33011014201"}},{"arcs":[[99,100,101,102,103,104]],"type":"Polygon","properties":{"id":"14000US33013037000"}},{"arcs":[[105,106,107,108,109]],"type":"Polygon","properties":{"id":"14000US33019975100"}},{"arcs":[[110,111,112,113,114,115]],"type":"Polygon","properties":{"id":"14000US33019975600"}},{"arcs":[[116,117,-111,118,119]],"type":"Polygon","properties":{"id":"14000US33019975700"}},{"arcs":[[120,121,122,-112,-118]],"type":"Polygon","properties":{"id":"14000US33019975902"}},{"arcs":[[123,124,125,126,127]],"type":"Polygon","properties":{"id":"14000US33013032400"}},{"arcs":[[128,129,-82,130,-124,131,132,-103]],"type":"Polygon","properties":{"id":"14000US33013032800"}},{"arcs":[[133,134,135,136,137,138]],"type":"Polygon","properties":{"id":"14000US33015067000"}},{"arcs":[[139,140,141,142]],"type":"Polygon","properties":{"id":"14000US33015069100"}},{"arcs":[[143,-138,144,145,146,147]],"type":"Polygon","properties":{"id":"14000US33015106400"}},{"arcs":[[148,149,150,151,152,153]],"type":"Polygon","properties":{"id":"14000US33003956400"}},{"arcs":[[154,155,156,157,158]],"type":"Polygon","properties":{"id":"14000US33013043001"}},{"arcs":[[159,-68,160,161,-1,-8,162,163]],"type":"Polygon","properties":{"id":"14000US33013030000"}},{"arcs":[[164,165,-79,166,-69,-160,167,168]],"type":"Polygon","properties":{"id":"14000US33013039000"}},{"arcs":[[169,-127,170,171,172,-65,-167,-78]],"type":"Polygon","properties":{"id":"14000US33013032500"}},{"arcs":[[173,174,175,176,177,178,179,180,181,182]],"type":"Polygon","properties":{"id":"14000US33013041500"}},{"arcs":[[-162,183,184,-75,185,186,-16,-13,-2]],"type":"Polygon","properties":{"id":"14000US33013003001"}},{"arcs":[[-157,187,188,189,-100,190]],"type":"Polygon","properties":{"id":"14000US33013044000"}},{"arcs":[[191,-132,-128,-170,-77]],"type":"Polygon","properties":{"id":"14000US33013032600"}},{"arcs":[[-178,192,193,-155,194]],"type":"Polygon","properties":{"id":"14000US33013043002"}},{"arcs":[[-195,-159,195,196,-179]],"type":"Polygon","properties":{"id":"14000US33013042500"}},{"arcs":[[-180,-197,197,198,-165,199,200,201]],"type":"Polygon","properties":{"id":"14000US33013038500"}},{"arcs":[[202,203,204,205]],"type":"Polygon","properties":{"id":"14000US33009961702"}},{"arcs":[[-205,206,207,208,209,-106,210]],"type":"Polygon","properties":{"id":"14000US33009961801"}},{"arcs":[[211,212,213]],"type":"Polygon","properties":{"id":"14000US33009961603"}},{"arcs":[[214,215,216,-209,217,-207,-204]],"type":"Polygon","properties":{"id":"14000US33009961701"}},{"arcs":[[-218,-208]],"type":"Polygon","properties":{"id":"14000US33009961802"}},{"arcs":[[218,219,220,221,222,223,224]],"type":"Polygon","properties":{"id":"14000US33017081200"}},{"arcs":[[225,226,227,228]],"type":"Polygon","properties":{"id":"14000US33011010700"}},{"arcs":[[229,230,231,232,233]],"type":"Polygon","properties":{"id":"14000US33011011102"}},{"arcs":[[234,235,236,237]],"type":"Polygon","properties":{"id":"14000US33011019502"}},{"arcs":[[-233,238,239]],"type":"Polygon","properties":{"id":"14000US33011011101"}},{"arcs":[[240,241,242]],"type":"Polygon","properties":{"id":"14000US33011018501"}},{"arcs":[[243,244]],"type":"Polygon","properties":{"id":"14000US33011980101"}},{"arcs":[[245,246,247,248,249,250,251,252]],"type":"Polygon","properties":{"id":"14000US33011200400"}},{"arcs":[[253,-139,-144,254,255,256,257,258]],"type":"Polygon","properties":{"id":"14000US33015061001"}},{"arcs":[[259,260,-147,261,262,263,264]],"type":"Polygon","properties":{"id":"14000US33015062500"}},{"arcs":[[265,266,267,-29,268,269,-137]],"type":"Polygon","properties":{"id":"14000US33015066000"}},{"arcs":[[270,271,272,-248,273]],"type":"Polygon","properties":{"id":"14000US33011000600"}},{"arcs":[[274,275,276,-271]],"type":"Polygon","properties":{"id":"14000US33011000700"}},{"arcs":[[277,278,279,280,281,282,283,284]],"type":"Polygon","properties":{"id":"14000US33011010400"}},{"arcs":[[285,-282,286,287,288,-226,289]],"type":"Polygon","properties":{"id":"14000US33011010600"}},{"arcs":[[290,291,292,293,294]],"type":"Polygon","properties":{"id":"14000US33011001300"}},{"arcs":[[-273,-295,295,296,-249]],"type":"Polygon","properties":{"id":"14000US33011001400"}},{"arcs":[[-293,297,298,299,300,301]],"type":"Polygon","properties":{"id":"14000US33011001600"}},{"arcs":[[302,303,304,-299]],"type":"Polygon","properties":{"id":"14000US33011001700"}},{"arcs":[[-300,-305,305,306,307]],"type":"Polygon","properties":{"id":"14000US33011001800"}},{"arcs":[[308,309,310,311,312,313,314]],"type":"Polygon","properties":{"id":"14000US33017086000"}},{"arcs":[[315,316,317,318]],"type":"Polygon","properties":{"id":"14000US33017083001"}},{"arcs":[[319,320,321,322,323,324]],"type":"Polygon","properties":{"id":"14000US33017088000"}},{"arcs":[[325,326,-66,-173]],"type":"Polygon","properties":{"id":"14000US33013032100"}},{"arcs":[[327,-86,328,-326,-172]],"type":"Polygon","properties":{"id":"14000US33013032200"}},{"arcs":[[-87,-328,-171,-126]],"type":"Polygon","properties":{"id":"14000US33013032300"}},{"arcs":[[-125,-131,-81]],"type":"Polygon","properties":{"id":"14000US33013032900"}},{"arcs":[[-236,329,330,331,332,333]],"type":"Polygon","properties":{"id":"14000US33011015100"}},{"arcs":[[334,-237,-334,335,336,-42,337]],"type":"Polygon","properties":{"id":"14000US33011016100"}},{"arcs":[[338,339,340,-97]],"type":"Polygon","properties":{"id":"14000US33011014202"}},{"arcs":[[-10,341,342,343,344,345,346,347,348]],"type":"Polygon","properties":{"id":"14000US33011002902"}},{"arcs":[[-277,349,-291,-272]],"type":"Polygon","properties":{"id":"14000US33011000800"}},{"arcs":[[-286,350,-283]],"type":"Polygon","properties":{"id":"14000US33011010500"}},{"arcs":[[-347,351,352,-339,353]],"type":"Polygon","properties":{"id":"14000US33011002901"}},{"arcs":[[354,355,356,357,358,359,360,361,362,363]],"type":"Polygon","properties":{"id":"14000US33011021500"}},{"arcs":[[364,-121,-117,365]],"type":"Polygon","properties":{"id":"14000US33019975800"}},{"arcs":[[-109,366,-122,-365,367]],"type":"Polygon","properties":{"id":"14000US33019975901"}},{"arcs":[[368,369,370,371]],"type":"Polygon","properties":{"id":"14000US33015053000"}},{"arcs":[[372,373,374,375,-369,376,377]],"type":"Polygon","properties":{"id":"14000US33015054000"}},{"arcs":[[-294,-302,378,-296]],"type":"Polygon","properties":{"id":"14000US33011001500"}},{"arcs":[[379,380,381,382]],"type":"Polygon","properties":{"id":"14000US33011011402"}},{"arcs":[[-348,-354,-96,383,-331,384]],"type":"Polygon","properties":{"id":"14000US33011002903"}},{"arcs":[[385,-338,-50,386,-241,387]],"type":"Polygon","properties":{"id":"14000US33011019000"}},{"arcs":[[388,389,390,391,392,393]],"type":"Polygon","properties":{"id":"14000US33015100100"}},{"arcs":[[394,-93,395,396,397,-101]],"type":"Polygon","properties":{"id":"14000US33001965600"}},{"arcs":[[398,399,400,401]],"type":"Polygon","properties":{"id":"14000US33001966100"}},{"arcs":[[402,403,404,405,406,407,408,-176,409]],"type":"Polygon","properties":{"id":"14000US33001965100"}},{"arcs":[[410,411,412,413,-193,-177,-409]],"type":"Polygon","properties":{"id":"14000US33001965400"}},{"arcs":[[-402,414,415,-412,416]],"type":"Polygon","properties":{"id":"14000US33001966000"}},{"arcs":[[-408,417,418,-399,-417,-411]],"type":"Polygon","properties":{"id":"14000US33001965300"}},{"arcs":[[419,420,-91,421,-400,-419]],"type":"Polygon","properties":{"id":"14000US33001966200"}},{"arcs":[[-414,422,-188,-156,-194]],"type":"Polygon","properties":{"id":"14000US33001965598"}},{"arcs":[[423,-143,424,425]],"type":"Polygon","properties":{"id":"14000US33015069200"}},{"arcs":[[426,427,428,429,430,431,432]],"type":"Polygon","properties":{"id":"14000US33015056000"}},{"arcs":[[-430,433,434,435]],"type":"Polygon","properties":{"id":"14000US33015055002"}},{"arcs":[[-146,436,437,438,439,440,-262]],"type":"Polygon","properties":{"id":"14000US33015064000"}},{"arcs":[[441,442,443,444,445]],"type":"Polygon","properties":{"id":"14000US33015106102"}},{"arcs":[[446,447,448,449,450,451,452,453]],"type":"Polygon","properties":{"id":"14000US33015003301"}},{"arcs":[[-450,454,455,-390,456,457]],"type":"Polygon","properties":{"id":"14000US33015003602"}},{"arcs":[[458,459,-378,460,-447,461,462]],"type":"Polygon","properties":{"id":"14000US33015051000"}},{"arcs":[[-452,463,464,465]],"type":"Polygon","properties":{"id":"14000US33015003500"}},{"arcs":[[466,467,468,-457,-389,469,-442,470]],"type":"Polygon","properties":{"id":"14000US33015106101"}},{"arcs":[[-462,-454,471,472,473]],"type":"Polygon","properties":{"id":"14000US33015003302"}},{"arcs":[[474,-431,-436,475,-373,-460]],"type":"Polygon","properties":{"id":"14000US33015055001"}},{"arcs":[[-256,476,-260,477,478]],"type":"Polygon","properties":{"id":"14000US33015062000"}},{"arcs":[[-393,479,480,481,482]],"type":"Polygon","properties":{"id":"14000US33015100200"}},{"arcs":[[-472,-453,-466,483,484]],"type":"Polygon","properties":{"id":"14000US33015003400"}},{"arcs":[[-464,-451,-458,-469,485]],"type":"Polygon","properties":{"id":"14000US33015003601"}},{"arcs":[[486,-463,-474,487,488,489,-72]],"type":"Polygon","properties":{"id":"14000US33015004000"}},{"arcs":[[-432,-475,-459,-487,-71]],"type":"Polygon","properties":{"id":"14000US33015050000"}},{"arcs":[[-377,-372,490,491,-448,-461]],"type":"Polygon","properties":{"id":"14000US33015052000"}},{"arcs":[[492,493,494,495]],"type":"Polygon","properties":{"id":"14000US33015067502"}},{"arcs":[[-196,-158,-191,-105,496,497,-198]],"type":"Polygon","properties":{"id":"14000US33013038000"}},{"arcs":[[498,-200,-169,499,-358,500]],"type":"Polygon","properties":{"id":"14000US33013040000"}},{"arcs":[[-492,501,502,-455,-449]],"type":"Polygon","properties":{"id":"14000US33015104102"}},{"arcs":[[-491,-371,503,504,505,-502]],"type":"Polygon","properties":{"id":"14000US33015104101"}},{"arcs":[[506,507,-488,-473,-485,508,-19,509,510,511]],"type":"Polygon","properties":{"id":"14000US33015003703"}},{"arcs":[[-510,-22,512,513,514,515,516]],"type":"Polygon","properties":{"id":"14000US33015003802"}},{"arcs":[[-21,517,518,-467,519,-513]],"type":"Polygon","properties":{"id":"14000US33015003902"}},{"arcs":[[520,-465,-486,-468,-519]],"type":"Polygon","properties":{"id":"14000US33015003901"}},{"arcs":[[521,522,-149,523]],"type":"Polygon","properties":{"id":"14000US33003956302"}},{"arcs":[[-484,-521,-518,-20,-509]],"type":"Polygon","properties":{"id":"14000US33015003701"}},{"arcs":[[-494,524,525,-222,526,527,-41,528,529,530,-266,-136,531]],"type":"Polygon","properties":{"id":"14000US33015107500"}},{"arcs":[[532,-478,-265,533,534,535]],"type":"Polygon","properties":{"id":"14000US33015102100"}},{"arcs":[[-503,-506,536,537,538,-391,-456]],"type":"Polygon","properties":{"id":"14000US33015103100"}},{"arcs":[[-370,-376,539,-257,-479,-533,540,-504]],"type":"Polygon","properties":{"id":"14000US33015105100"}},{"arcs":[[-528,541,-140,-424,542,-39]],"type":"Polygon","properties":{"id":"14000US33015069300"}},{"arcs":[[-142,543,544,545,546,-425]],"type":"Polygon","properties":{"id":"14000US33015069700"}},{"arcs":[[547,548,549,550,551,552,-25,-28,553,554,555,556]],"type":"Polygon","properties":{"id":"14000US33017080500"}},{"arcs":[[557,558,-219,559]],"type":"Polygon","properties":{"id":"14000US33017081300"}},{"arcs":[[560,561,562,-220,-559]],"type":"Polygon","properties":{"id":"14000US33017081400"}},{"arcs":[[563,564,-561,565]],"type":"Polygon","properties":{"id":"14000US33017081500"}},{"arcs":[[566,567,568,569,-566,-558,570,-550]],"type":"Polygon","properties":{"id":"14000US33017081600"}},{"arcs":[[-244,-512,571]],"type":"Polygon","properties":{"id":"14000US33015980011"}},{"arcs":[[-441,572,573,-263]],"type":"Polygon","properties":{"id":"14000US33015063001"}},{"arcs":[[574,575,576,577,578]],"type":"Polygon","properties":{"id":"14000US33005970902"}},{"arcs":[[579,580,581,582,583,584]],"type":"Polygon","properties":{"id":"14000US33005970401"}},{"arcs":[[585,586,587,588,-585,589,590,591,592]],"type":"Polygon","properties":{"id":"14000US33005970402"}},{"arcs":[[-52,593,594,595,-576,596,-57]],"type":"Polygon","properties":{"id":"14000US33005971403"}},{"arcs":[[-596,597,598,-577]],"type":"Polygon","properties":{"id":"14000US33005970901"}},{"arcs":[[-470,-394,-483,599,600,601,-443]],"type":"Polygon","properties":{"id":"14000US33015100301"}},{"arcs":[[602,603,604,-601]],"type":"Polygon","properties":{"id":"14000US33015100302"}},{"arcs":[[-51,605,-591,606,-594]],"type":"Polygon","properties":{"id":"14000US33005971100"}},{"arcs":[[607,608,609]],"type":"Polygon","properties":{"id":"14000US33005971600"}},{"arcs":[[610,-579,611,612,-609]],"type":"Polygon","properties":{"id":"14000US33005971700"}},{"arcs":[[613,-592,-606,-54,-56]],"type":"Polygon","properties":{"id":"14000US33005971000"}},{"arcs":[[614,615,-58,-597,-575,-611,-608,616]],"type":"Polygon","properties":{"id":"14000US33005971500"}},{"arcs":[[-119,-116,617,-615,618]],"type":"Polygon","properties":{"id":"14000US33005970200"}},{"arcs":[[619,620,621,-321,622,623]],"type":"Polygon","properties":{"id":"14000US33003956000"}},{"arcs":[[-426,-547,624,625,-530,626]],"type":"Polygon","properties":{"id":"14000US33015107200"}},{"arcs":[[-148,-261,-477,-255]],"type":"Polygon","properties":{"id":"14000US33015106200"}},{"arcs":[[627,-624,628,629,630]],"type":"Polygon","properties":{"id":"14000US33003956102"}},{"arcs":[[631,-524,-154,632,633,634,-406,635]],"type":"Polygon","properties":{"id":"14000US33003956301"}},{"arcs":[[-62,636,637,638]],"type":"Polygon","properties":{"id":"14000US33003955802"}},{"arcs":[[639,640,641,642,643,644]],"type":"Polygon","properties":{"id":"14000US33003955101"}},{"arcs":[[645,646,647,-64,648,649,650]],"type":"Polygon","properties":{"id":"14000US33003955602"}},{"arcs":[[651,-642,652,653,654,655]],"type":"Polygon","properties":{"id":"14000US33003955301"}},{"arcs":[[-656,656,657,-647,658]],"type":"Polygon","properties":{"id":"14000US33003955302"}},{"arcs":[[-638,659,-621,660,661]],"type":"Polygon","properties":{"id":"14000US33003955801"}},{"arcs":[[662,-650,663,-522,-632,664,665,666]],"type":"Polygon","properties":{"id":"14000US33003955601"}},{"arcs":[[-643,-652,-659,-646,667]],"type":"Polygon","properties":{"id":"14000US33003955102"}},{"arcs":[[-47,668,669,670,671]],"type":"Polygon","properties":{"id":"14000US33011018002"}},{"arcs":[[-661,-620,-628,672,-151,673]],"type":"Polygon","properties":{"id":"14000US33003955902"}},{"arcs":[[674,-59,-648,-658]],"type":"Polygon","properties":{"id":"14000US33003955401"}},{"arcs":[[-664,-649,-63,-639,-662,-674,-150,-523]],"type":"Polygon","properties":{"id":"14000US33003955901"}},{"arcs":[[-384,-99,675,676,-45,677,-332]],"type":"Polygon","properties":{"id":"14000US33011015200"}},{"arcs":[[-199,-498,678,-80,-166]],"type":"Polygon","properties":{"id":"14000US33013032701"}},{"arcs":[[-497,-104,-133,-192,-76,-679]],"type":"Polygon","properties":{"id":"14000US33013032706"}},{"arcs":[[-327,-329,-85,679,680,-184,-161,-67]],"type":"Polygon","properties":{"id":"14000US33013031001"}},{"arcs":[[-186,-74,681,682,683,684]],"type":"Polygon","properties":{"id":"14000US33013003006"}},{"arcs":[[685,686,687,688,689,690]],"type":"Polygon","properties":{"id":"14000US33009960300"}},{"arcs":[[691,692,693,694,695,-174,696]],"type":"Polygon","properties":{"id":"14000US33009961300"}},{"arcs":[[-212,697,698,699,-216,700]],"type":"Polygon","properties":{"id":"14000US33009961601"}},{"arcs":[[701,702,703,704,-694,705,-699,706]],"type":"Polygon","properties":{"id":"14000US33009960900"}},{"arcs":[[-495,-532,-135,707,708]],"type":"Polygon","properties":{"id":"14000US33015067503"}},{"arcs":[[-555,709,-496,-709,710,711]],"type":"Polygon","properties":{"id":"14000US33015067504"}},{"arcs":[[-625,-546,712]],"type":"Polygon","properties":{"id":"14000US33015071002"}},{"arcs":[[-145,-270,713,714,-437]],"type":"Polygon","properties":{"id":"14000US33015065010"}},{"arcs":[[715,716,717,718,719,-306,-304,720]],"type":"Polygon","properties":{"id":"14000US33011001100"}},{"arcs":[[721,-721,-303,-298,-292]],"type":"Polygon","properties":{"id":"14000US33011001200"}},{"arcs":[[722,-318,723,-562,-565]],"type":"Polygon","properties":{"id":"14000US33017082000"}},{"arcs":[[724,-319,-723,-564,-570]],"type":"Polygon","properties":{"id":"14000US33017083002"}},{"arcs":[[725,726,727,728,-316,-725,-569,729,730]],"type":"Polygon","properties":{"id":"14000US33017084100"}},{"arcs":[[-397,731,-309,732]],"type":"Polygon","properties":{"id":"14000US33001965700"}},{"arcs":[[733,-323,734,735,736,737]],"type":"Polygon","properties":{"id":"14000US33017084201"}},{"arcs":[[738,-324,-734,739,-310,740]],"type":"Polygon","properties":{"id":"14000US33017087002"}},{"arcs":[[-737,741,-727,742,743]],"type":"Polygon","properties":{"id":"14000US33017084302"}},{"arcs":[[-743,-726,744]],"type":"Polygon","properties":{"id":"14000US33017084301"}},{"arcs":[[745,746,-567,-549,747,-312]],"type":"Polygon","properties":{"id":"14000US33017085001"}},{"arcs":[[-571,-560,-225,748,-551]],"type":"Polygon","properties":{"id":"14000US33017081101"}},{"arcs":[[-401,-422,-95,749,-415]],"type":"Polygon","properties":{"id":"14000US33001965900"}},{"arcs":[[-337,750,-43]],"type":"Polygon","properties":{"id":"14000US33011016204"}},{"arcs":[[-163,-12,751,-360,752]],"type":"Polygon","properties":{"id":"14000US33011021002"}},{"arcs":[[753,754,755,-388,-243,756,757,758,759,760,761]],"type":"Polygon","properties":{"id":"14000US33011022502"}},{"arcs":[[762,763,764,765,-670,766]],"type":"Polygon","properties":{"id":"14000US33011017101"}},{"arcs":[[-187,-685,767,-246,-17]],"type":"Polygon","properties":{"id":"14000US33011000103"}},{"arcs":[[-684,768,-275,-274,-247,-768]],"type":"Polygon","properties":{"id":"14000US33011000104"}},{"arcs":[[769,770,771,-278,772,773,774]],"type":"Polygon","properties":{"id":"14000US33011010202"}},{"arcs":[[-284,-351,-290,-229,775,776,777]],"type":"Polygon","properties":{"id":"14000US33011010802"}},{"arcs":[[778,779,780,781,-280,782]],"type":"Polygon","properties":{"id":"14000US33011012101"}},{"arcs":[[-759,783,784]],"type":"Polygon","properties":{"id":"14000US33011022501"}},{"arcs":[[785,786,-772]],"type":"Polygon","properties":{"id":"14000US33011010201"}},{"arcs":[[-98,-341,787,788,-770,789,-676]],"type":"Polygon","properties":{"id":"14000US33011014302"}},{"arcs":[[-782,790,791,-287,-281]],"type":"Polygon","properties":{"id":"14000US33011012202"}},{"arcs":[[-791,-781,792,-446,793,794,795,796]],"type":"Polygon","properties":{"id":"14000US33011012301"}},{"arcs":[[-46,-677,-790,-775,797,-767,-669]],"type":"Polygon","properties":{"id":"14000US33011017102"}},{"arcs":[[-5,798,-343,799]],"type":"Polygon","properties":{"id":"14000US33011002802"}},{"arcs":[[-444,-602,800,801,802]],"type":"Polygon","properties":{"id":"14000US33011200500"}},{"arcs":[[803,-501,-357,804]],"type":"Polygon","properties":{"id":"14000US33011025501"}},{"arcs":[[805,-796,806,-231,807]],"type":"Polygon","properties":{"id":"14000US33011012302"}},{"arcs":[[-802,808,809,810]],"type":"Polygon","properties":{"id":"14000US33011200201"}},{"arcs":[[-336,-333,-678,-44,-751]],"type":"Polygon","properties":{"id":"14000US33011016203"}},{"arcs":[[811,-786,-771,-789]],"type":"Polygon","properties":{"id":"14000US33011014301"}},{"arcs":[[812,-516,813,814,815]],"type":"Polygon","properties":{"id":"14000US33011013102"}},{"arcs":[[-762,816,-582,817]],"type":"Polygon","properties":{"id":"14000US33011023001"}},{"arcs":[[818,819,-754,-818,-581]],"type":"Polygon","properties":{"id":"14000US33011023002"}},{"arcs":[[-353,820,-816,821,-340]],"type":"Polygon","properties":{"id":"14000US33011014101"}},{"arcs":[[-794,-445,-803,-811,822]],"type":"Polygon","properties":{"id":"14000US33011200101"}},{"arcs":[[-48,-672,823,824]],"type":"Polygon","properties":{"id":"14000US33011018001"}},{"arcs":[[-814,-515,825,-779,826,827]],"type":"Polygon","properties":{"id":"14000US33011013101"}},{"arcs":[[-514,-520,-471,-793,-780,-826]],"type":"Polygon","properties":{"id":"14000US33011012102"}},{"arcs":[[-776,-228,828,829]],"type":"Polygon","properties":{"id":"14000US33011010801"}},{"arcs":[[-800,-342,-9,-6]],"type":"Polygon","properties":{"id":"14000US33011002801"}},{"arcs":[[-500,-168,-164,-753,-359]],"type":"Polygon","properties":{"id":"14000US33011021001"}},{"arcs":[[830,831,-805,-356,832,-587]],"type":"Polygon","properties":{"id":"14000US33011025502"}},{"arcs":[[-788,-822,-815,-828,833,-812]],"type":"Polygon","properties":{"id":"14000US33011014102"}},{"arcs":[[-777,-830,834,835,-381]],"type":"Polygon","properties":{"id":"14000US33011010900"}},{"arcs":[[836,-760,-785,837,838]],"type":"Polygon","properties":{"id":"14000US33005970600"}},{"arcs":[[-657,-655,839,-60,-675]],"type":"Polygon","properties":{"id":"14000US33003955402"}},{"arcs":[[-673,-631,840,841,-152]],"type":"Polygon","properties":{"id":"14000US33003956101"}},{"arcs":[[-634,842,-88,-421,843]],"type":"Polygon","properties":{"id":"14000US33001966401"}},{"arcs":[[844,845,846,-640,847,848]],"type":"Polygon","properties":{"id":"14000US33007951000"}},{"arcs":[[-288,-792,-797,-806,849]],"type":"Polygon","properties":{"id":"14000US33011012201"}},{"arcs":[[-27,850,-525,-493,-710,-554]],"type":"Polygon","properties":{"id":"14000US33017080100"}},{"arcs":[[-578,-599,851,852,-839,853,-612]],"type":"Polygon","properties":{"id":"14000US33005970700"}},{"arcs":[[-598,-595,-607,-590,-584,854,-852]],"type":"Polygon","properties":{"id":"14000US33005970800"}},{"arcs":[[855,856,857,858,-653,-641,-847]],"type":"Polygon","properties":{"id":"14000US33007950900"}},{"arcs":[[859,860,861,862,863,864]],"type":"Polygon","properties":{"id":"14000US33019975300"}},{"arcs":[[865,-864,866,867,-831,-586,868,-114]],"type":"Polygon","properties":{"id":"14000US33019975500"}},{"arcs":[[-829,-227,-289,-850,-808,-230,869,-835]],"type":"Polygon","properties":{"id":"14000US33011011000"}},{"arcs":[[870,-383,871,872,873,-765]],"type":"Polygon","properties":{"id":"14000US33011011401"}},{"arcs":[[-833,-355,874,-588]],"type":"Polygon","properties":{"id":"14000US33011025000"}},{"arcs":[[-683,875,-716,-722,-350,-276,-769]],"type":"Polygon","properties":{"id":"14000US33011000901"}},{"arcs":[[-682,-73,-490,876,-717,-876]],"type":"Polygon","properties":{"id":"14000US33011000902"}},{"arcs":[[-877,-489,-508,877,-718]],"type":"Polygon","properties":{"id":"14000US33011001000"}},{"arcs":[[-801,-605,878,-809]],"type":"Polygon","properties":{"id":"14000US33011200300"}},{"arcs":[[879,-870,-234,-240,880,-873]],"type":"Polygon","properties":{"id":"14000US33011011200"}},{"arcs":[[-15,-18,-253,881,882,883,884,-4]],"type":"Polygon","properties":{"id":"14000US33011000202"}},{"arcs":[[885,-883]],"type":"Polygon","properties":{"id":"14000US33011000300"}},{"arcs":[[-773,-285,886,887]],"type":"Polygon","properties":{"id":"14000US33011010302"}},{"arcs":[[-798,-774,-888,888,-763]],"type":"Polygon","properties":{"id":"14000US33011010301"}},{"arcs":[[-553,889,-223,-526,-851,-26,-23]],"type":"Polygon","properties":{"id":"14000US33017080202"}},{"arcs":[[890,-665,-636,-405,891,892,893]],"type":"Polygon","properties":{"id":"14000US33009961102"}},{"arcs":[[-892,-404,894,895]],"type":"Polygon","properties":{"id":"14000US33009961101"}},{"arcs":[[896,-410,-175,-696]],"type":"Polygon","properties":{"id":"14000US33009961201"}},{"arcs":[[-705,897,-895,-403,-897,-695]],"type":"Polygon","properties":{"id":"14000US33009961202"}},{"arcs":[[898,899,-893,-896,-898,-704]],"type":"Polygon","properties":{"id":"14000US33009961002"}},{"arcs":[[-836,-880,-872,-382]],"type":"Polygon","properties":{"id":"14000US33011011300"}},{"arcs":[[-889,-887,-778,-380,-871,-764]],"type":"Polygon","properties":{"id":"14000US33011011500"}},{"arcs":[[900,-697,-183,901,902,-861,903,904,-108]],"type":"Polygon","properties":{"id":"14000US33019975200"}},{"arcs":[[905,906,907,908]],"type":"Polygon","properties":{"id":"14000US33013033000"}},{"arcs":[[-908,909,910,-427,911,912]],"type":"Polygon","properties":{"id":"14000US33013034000"}},{"arcs":[[-733,-315,913,-910,-907,914]],"type":"Polygon","properties":{"id":"14000US33013035000"}},{"arcs":[[-102,-398,-915,-906,915,-129]],"type":"Polygon","properties":{"id":"14000US33013036000"}},{"arcs":[[-583,-817,-761,-837,-853,-855]],"type":"Polygon","properties":{"id":"14000US33005970500"}},{"arcs":[[-904,-860,916]],"type":"Polygon","properties":{"id":"14000US33019975401"}},{"arcs":[[-905,-917,-865,-866,-113,-123,-367]],"type":"Polygon","properties":{"id":"14000US33019975402"}},{"arcs":[[-413,-416,917,-189,-423]],"type":"Polygon","properties":{"id":"14000US33001965801"}},{"arcs":[[-633,-153,-842,918,919,-732,-396,-92,-89,-843]],"type":"Polygon","properties":{"id":"14000US33001966501"}},{"arcs":[[-841,-630,920,-919]],"type":"Polygon","properties":{"id":"14000US33001966502"}},{"arcs":[[-407,-635,-844,-420,-418]],"type":"Polygon","properties":{"id":"14000US33001965200"}},{"arcs":[[-911,-914,-314,921,922,-428]],"type":"Polygon","properties":{"id":"14000US33015057000"}},{"arcs":[[-923,923,-557,924,-434,-429]],"type":"Polygon","properties":{"id":"14000US33015058000"}},{"arcs":[[-435,-925,-556,-712,925,-259,926,-374,-476]],"type":"Polygon","properties":{"id":"14000US33015059000"}},{"arcs":[[-927,-258,-540,-375]],"type":"Polygon","properties":{"id":"14000US33015060000"}},{"arcs":[[-744,-745,-731,927,928]],"type":"Polygon","properties":{"id":"14000US33017084400"}},{"arcs":[[-928,-730,-568,-747,929]],"type":"Polygon","properties":{"id":"14000US33017084500"}},{"arcs":[[-738,-929,-930,-746,-311,-740]],"type":"Polygon","properties":{"id":"14000US33017084600"}},{"arcs":[[-629,-623,-320,930,-741,-920,-921]],"type":"Polygon","properties":{"id":"14000US33017088500"}},{"arcs":[[-40,-543,-627,-529]],"type":"Polygon","properties":{"id":"14000US33015107400"}},{"arcs":[[-715,931,-35,932,933,-438]],"type":"Polygon","properties":{"id":"14000US33015065008"}},{"arcs":[[934,-307,-720,935,936]],"type":"Polygon","properties":{"id":"14000US33011002500"}},{"arcs":[[937,-936,-719,-878,-507,-245,-572,-511,-517,-813,-821,-352]],"type":"Polygon","properties":{"id":"14000US33011002600"}},{"arcs":[[-834,-827,-783,-279,-787]],"type":"Polygon","properties":{"id":"14000US33011010100"}},{"arcs":[[938,939,-912,-433,-70,-185,-681]],"type":"Polygon","properties":{"id":"14000US33013003100"}},{"arcs":[[-752,-11,-349,-385,-330,-235,940,-361]],"type":"Polygon","properties":{"id":"14000US33011020000"}},{"arcs":[[-363,941,-755,-820,942]],"type":"Polygon","properties":{"id":"14000US33011022000"}},{"arcs":[[943,-644,-668,-651,-663,944,945,-688]],"type":"Polygon","properties":{"id":"14000US33009960402"}},{"arcs":[[946,-894,-900,947]],"type":"Polygon","properties":{"id":"14000US33009961001"}},{"arcs":[[948,949,950,-948,-899,-703,951]],"type":"Polygon","properties":{"id":"14000US33009960802"}},{"arcs":[[952,-945,-667,953,-950]],"type":"Polygon","properties":{"id":"14000US33009960401"}},{"arcs":[[954,955,-686,956]],"type":"Polygon","properties":{"id":"14000US33009960102"}},{"arcs":[[957,958,959,-955]],"type":"Polygon","properties":{"id":"14000US33009960101"}},{"arcs":[[-951,-954,-666,-891,-947]],"type":"Polygon","properties":{"id":"14000US33009960801"}},{"arcs":[[-213,-701,-215,-203,960]],"type":"Polygon","properties":{"id":"14000US33009961604"}},{"arcs":[[-482,961,962,-603,-600]],"type":"Polygon","properties":{"id":"14000US33015100401"}},{"arcs":[[-541,-536,963,-537,-505]],"type":"Polygon","properties":{"id":"14000US33015101102"}},{"arcs":[[-481,964,-962]],"type":"Polygon","properties":{"id":"14000US33015100402"}},{"arcs":[[-439,-934,965,966,967]],"type":"Polygon","properties":{"id":"14000US33015063004"}},{"arcs":[[-714,-269,-32,-37,-36,-932]],"type":"Polygon","properties":{"id":"14000US33015065009"}},{"arcs":[[-440,-968,968,-573]],"type":"Polygon","properties":{"id":"14000US33015063003"}},{"arcs":[[-711,-708,-134,-254,-926]],"type":"Polygon","properties":{"id":"14000US33015067505"}},{"arcs":[[-626,-713,-545,969,970,-267,-531]],"type":"Polygon","properties":{"id":"14000US33015071001"}},{"arcs":[[-538,-964,-535,971]],"type":"Polygon","properties":{"id":"14000US33015101101"}},{"arcs":[[-313,-748,-548,-924,-922]],"type":"Polygon","properties":{"id":"14000US33017085002"}},{"arcs":[[-224,-890,-552,-749]],"type":"Polygon","properties":{"id":"14000US33017081102"}},{"arcs":[[-325,-739,-931]],"type":"Polygon","properties":{"id":"14000US33017087001"}},{"arcs":[[972,-728,-742,-736]],"type":"Polygon","properties":{"id":"14000US33017084202"}},{"arcs":[[973,974,-952,-702,975]],"type":"Polygon","properties":{"id":"14000US33009960700"}},{"arcs":[[-210,-217,976,-692,-901,-107]],"type":"Polygon","properties":{"id":"14000US33009961500"}},{"arcs":[[-956,-960,977,-848,-645,-944,-687]],"type":"Polygon","properties":{"id":"14000US33009960200"}},{"arcs":[[978,-689,-946,-953,-949,-975]],"type":"Polygon","properties":{"id":"14000US33009960500"}},{"arcs":[[-706,-693,-977,-700]],"type":"Polygon","properties":{"id":"14000US33009961400"}},{"arcs":[[-690,-979,-974,979]],"type":"Polygon","properties":{"id":"14000US33009960600"}},{"arcs":[[-869,-593,-614,-55,-616,-618,-115]],"type":"Polygon","properties":{"id":"14000US33005970100"}},{"arcs":[[-589,-875,-364,-943,-819,-580]],"type":"Polygon","properties":{"id":"14000US33011024000"}},{"arcs":[[-863,980,981,-181,-202,982,-867]],"type":"Polygon","properties":{"id":"14000US33013040502"}},{"arcs":[[-903,983,-981,-862]],"type":"Polygon","properties":{"id":"14000US33013041001"}},{"arcs":[[-983,-201,-499,-804,-832,-868]],"type":"Polygon","properties":{"id":"14000US33013040501"}},{"arcs":[[-130,-916,-909,-913,-940,984,-83]],"type":"Polygon","properties":{"id":"14000US33013003202"}},{"arcs":[[-902,-182,-982,-984]],"type":"Polygon","properties":{"id":"14000US33013041002"}},{"arcs":[[-985,-939,-680,-84]],"type":"Polygon","properties":{"id":"14000US33013003201"}},{"arcs":[[-362,-941,-238,-335,-386,-756,-942]],"type":"Polygon","properties":{"id":"14000US33011019501"}},{"arcs":[[-387,-49,-825,985,-757,-242]],"type":"Polygon","properties":{"id":"14000US33011018502"}},{"arcs":[[-750,-94,-395,-190,-918]],"type":"Polygon","properties":{"id":"14000US33001965802"}},{"arcs":[[-933,-34,-38,-30,-268,-971,986,-966]],"type":"Polygon","properties":{"id":"14000US33015990000"}},{"arcs":[[987,988,-250,-297,-379,-301,-308,-935,989]],"type":"Polygon","properties":{"id":"14000US33011001900"}},{"arcs":[[990,-251,-989,991,992]],"type":"Polygon","properties":{"id":"14000US33011002000"}},{"arcs":[[-884,-886,-882,-252,-991,993]],"type":"Polygon","properties":{"id":"14000US33011002100"}},{"arcs":[[-885,-994,-993,994,-344,-799]],"type":"Polygon","properties":{"id":"14000US33011002200"}},{"arcs":[[-995,-992,-988,995,-345]],"type":"Polygon","properties":{"id":"14000US33011002300"}},{"arcs":[[-990,-937,-938,-346,-996]],"type":"Polygon","properties":{"id":"14000US33011002400"}},{"arcs":[[996,997,998]],"type":"Polygon","properties":{"id":"14000US33007950700"}},{"arcs":[[999,1000,1001,-858,1002,-997,1003,1004,1005]],"type":"Polygon","properties":{"id":"14000US33007950300"}},{"arcs":[[-998,-1003,-857,1006]],"type":"Polygon","properties":{"id":"14000US33007950600"}},{"arcs":[[1007,-849,-978,-959,1008]],"type":"Polygon","properties":{"id":"14000US33007951100"}},{"arcs":[[-1001,1009,1010]],"type":"Polygon","properties":{"id":"14000US33007950100"}},{"arcs":[[-1010,-1000,1011,1012]],"type":"Polygon","properties":{"id":"14000US33007950200"}},{"arcs":[[-1012,-1006,1013,1014]],"type":"Polygon","properties":{"id":"14000US33007950400"}},{"arcs":[[-1004,-999,-1007,-856,-846,1015]],"type":"Polygon","properties":{"id":"14000US33007950800"}},{"arcs":[[-1014,-1005,-1016,-845,-1008,1016]],"type":"Polygon","properties":{"id":"14000US33007950500"}}]}}}